{
"type": "FeatureCollection",
"name": "Village_Points_Studied",
"crs": { "type": "name", "properties": { "name": "urn:ogc:def:crs:OGC:1.3:CRS84" } },
"features": [
{ "type": "Feature", "properties": { "ogc_fid": 1, "name": "Xia gao", "name_zh": "ä¸‹é«˜", "township": "Hanjiang", "UID_V": "V495" }, "geometry": { "type": "Point", "coordinates": [ 119.0811, 25.4689 ] } },
{ "type": "Feature", "properties": { "ogc_fid": 2, "name": "Xia cheng", "name_zh": "ä¸‹æ¾„", "township": "Hanjiang", "UID_V": "V494" }, "geometry": { "type": "Point", "coordinates": [ 119.0769, 25.4691 ] } },
{ "type": "Feature", "properties": { "ogc_fid": 3, "name": "Zhou dun", "name_zh": "å‘¨å¢©", "township": "Hanjiang", "UID_V": "V510" }, "geometry": { "type": "Point", "coordinates": [ 119.0804, 25.457 ] } },
{ "type": "Feature", "properties": { "ogc_fid": 4, "name": "Xia jiang", "name_zh": "ä¸‹æ±Ÿ", "township": "Hanjiang", "UID_V": "V511" }, "geometry": { "type": "Point", "coordinates": [ 119.08, 25.4644 ] } },
{ "type": "Feature", "properties": { "ogc_fid": 6, "name": "Ao li", "name_zh": "æ¾³é‡Œ", "township": "Hanjiang", "UID_V": "V637" }, "geometry": { "type": "Point", "coordinates": [ 119.1489, 25.4546 ] } },
{ "type": "Feature", "properties": { "ogc_fid": 7, "name": "Ban cheng", "name_zh": "åŠåŸ•", "township": "Hanjiang", "UID_V": "V655" }, "geometry": { "type": "Point", "coordinates": [ 119.1206, 25.4337 ] } },
{ "type": "Feature", "properties": { "ogc_fid": 9, "name": "Shang gang", "name_zh": "ä¸Šæ¸¯", "township": "Hanjiang", "UID_V": "V657" }, "geometry": { "type": "Point", "coordinates": [ 119.1154, 25.4385 ] } },
{ "type": "Feature", "properties": { "ogc_fid": 10, "name": "Shang fang", "name_zh": "ä¸Šæ–¹", "township": "Hanjiang", "UID_V": "V656" }, "geometry": { "type": "Point", "coordinates": [ 119.1173, 25.4397 ] } },
{ "type": "Feature", "properties": { "ogc_fid": 11, "name": "Bei gang", "name_zh": "åŒ—æ¸¯", "township": "Hanjiang", "UID_V": "V509" }, "geometry": { "type": "Point", "coordinates": [ 119.0784, 25.461 ] } },
{ "type": "Feature", "properties": { "ogc_fid": 12, "name": "Cai dai Dong zhi", "name_zh": "è”¡åŸ­ä¸œè‡³", "township": "Hanjiang", "UID_V": "V491" }, "geometry": { "type": "Point", "coordinates": [ 119.0687, 25.4725 ] } },
{ "type": "Feature", "properties": { "ogc_fid": 13, "name": "Cai dai xi zhi", "name_zh": "è”¡åŸ­è¥¿è‡³", "township": "Hanjiang", "UID_V": "V492" }, "geometry": { "type": "Point", "coordinates": [ 119.067, 25.4739 ] } },
{ "type": "Feature", "properties": { "ogc_fid": 14, "name": "Cang ran", "name_zh": "è‹ç„¶", "township": "Hanjiang", "UID_V": "V604" }, "geometry": { "type": "Point", "coordinates": [ 119.1081, 25.4532 ] } },
{ "type": "Feature", "properties": { "ogc_fid": 16, "name": "Hou dun", "name_zh": "åŽå¢©", "township": "Hanjiang", "UID_V": "V401" }, "geometry": { "type": "Point", "coordinates": [ 119.0705, 25.4436 ] } },
{ "type": "Feature", "properties": { "ogc_fid": 17, "name": "Cheng feng", "name_zh": "æ¾„å³°", "township": "Hanjiang", "UID_V": "V578" }, "geometry": { "type": "Point", "coordinates": [ 119.0997, 25.4783 ] } },
{ "type": "Feature", "properties": { "ogc_fid": 18, "name": "Da du xia", "name_zh": "å¤§åº¦ä¸‹", "township": "Hanjiang", "UID_V": "V518" }, "geometry": { "type": "Point", "coordinates": [ 119.0757, 25.4545 ] } },
{ "type": "Feature", "properties": { "ogc_fid": 19, "name": "Dai cheng", "name_zh": "å²±åŸ•", "township": "Hanjiang", "UID_V": "V409" }, "geometry": { "type": "Point", "coordinates": [ 119.0991, 25.4471 ] } },
{ "type": "Feature", "properties": { "ogc_fid": 21, "name": "Qian huang", "name_zh": "å‰é»„", "township": "Hanjiang", "UID_V": "V493" }, "geometry": { "type": "Point", "coordinates": [ 119.0644, 25.4715 ] } },
{ "type": "Feature", "properties": { "ogc_fid": 22, "name": "Shang lin", "name_zh": "ä¸Šæž—", "township": "Hanjiang", "UID_V": "V487" }, "geometry": { "type": "Point", "coordinates": [ 119.0701, 25.4776 ] } },
{ "type": "Feature", "properties": { "ogc_fid": 23, "name": "Xia dun", "name_zh": "ä¸‹å¢©", "township": "Hanjiang", "UID_V": "V488" }, "geometry": { "type": "Point", "coordinates": [ 119.0719, 25.4741 ] } },
{ "type": "Feature", "properties": { "ogc_fid": 24, "name": "Dong dun", "name_zh": "ä¸œå¢©", "township": "Hanjiang", "UID_V": "V416" }, "geometry": { "type": "Point", "coordinates": [ 119.0997, 25.437 ] } },
{ "type": "Feature", "properties": { "ogc_fid": 25, "name": "Dong fang", "name_zh": "ä¸œåŠ", "township": "Hanjiang", "UID_V": "V649" }, "geometry": { "type": "Point", "coordinates": [ 119.1302, 25.4447 ] } },
{ "type": "Feature", "properties": { "ogc_fid": 26, "name": "Dong zeng", "name_zh": "ä¸œæ›¾", "township": "Hanjiang", "UID_V": "V647" }, "geometry": { "type": "Point", "coordinates": [ 119.1283, 25.4381 ] } },
{ "type": "Feature", "properties": { "ogc_fid": 27, "name": "Hou zeng", "name_zh": "åŽæ›¾", "township": "Hanjiang", "UID_V": "V646" }, "geometry": { "type": "Point", "coordinates": [ 119.1268, 25.4393 ] } },
{ "type": "Feature", "properties": { "ogc_fid": 28, "name": "Ling dou", "name_zh": "å²­å…œ", "township": "Hanjiang", "UID_V": "V650" }, "geometry": { "type": "Point", "coordinates": [ 119.1358, 25.4474 ] } },
{ "type": "Feature", "properties": { "ogc_fid": 29, "name": "Shang mei", "name_zh": "ä¸Šæ¢…", "township": "Hanjiang", "UID_V": "V645" }, "geometry": { "type": "Point", "coordinates": [ 119.1294, 25.4409 ] } },
{ "type": "Feature", "properties": { "ogc_fid": 30, "name": "Xi lin", "name_zh": "è¥¿æž—", "township": "Hanjiang", "UID_V": "V648" }, "geometry": { "type": "Point", "coordinates": [ 119.1267, 25.4412 ] } },
{ "type": "Feature", "properties": { "ogc_fid": 31, "name": "Xin po tou", "name_zh": "æ–°å¡å¤´", "township": "Hanjiang", "UID_V": "V644" }, "geometry": { "type": "Point", "coordinates": [ 119.1372, 25.4528 ] } },
{ "type": "Feature", "properties": { "ogc_fid": 32, "name": "Dong ting", "name_zh": "ä¸œäº­", "township": "Hanjiang", "UID_V": "V415" }, "geometry": { "type": "Point", "coordinates": [ 119.1076, 25.4366 ] } },
{ "type": "Feature", "properties": { "ogc_fid": 33, "name": "Dong ting", "name_zh": "æ´žåº­", "township": "Hanjiang", "UID_V": "V622" }, "geometry": { "type": "Point", "coordinates": [ 119.1358, 25.4761 ] } },
{ "type": "Feature", "properties": { "ogc_fid": 34, "name": "Dong lin", "name_zh": "ä¸œæž—", "township": "Hanjiang", "UID_V": "V596" }, "geometry": { "type": "Point", "coordinates": [ 119.1033, 25.4933 ] } },
{ "type": "Feature", "properties": { "ogc_fid": 35, "name": "Du bin", "name_zh": "éƒ½é‚ ", "township": "Hanjiang", "UID_V": "V576" }, "geometry": { "type": "Point", "coordinates": [ 119.0867, 25.4747 ] } },
{ "type": "Feature", "properties": { "ogc_fid": 36, "name": "Du xia", "name_zh": "åº¦ä¸‹", "township": "Hanjiang", "UID_V": "V411" }, "geometry": { "type": "Point", "coordinates": [ 119.0881, 25.4467 ] } },
{ "type": "Feature", "properties": { "ogc_fid": 37, "name": "Duo qian", "name_zh": "å“†å‰", "township": "Hanjiang", "UID_V": "V651" }, "geometry": { "type": "Point", "coordinates": [ 119.125, 25.4352 ] } },
{ "type": "Feature", "properties": { "ogc_fid": 38, "name": "Duo zhong", "name_zh": "å“†ä¸­", "township": "Hanjiang", "UID_V": "V652" }, "geometry": { "type": "Point", "coordinates": [ 119.1277, 25.4357 ] } },
{ "type": "Feature", "properties": { "ogc_fid": 39, "name": "Duo hou", "name_zh": "å“†åŽ", "township": "Hanjiang", "UID_V": "V653" }, "geometry": { "type": "Point", "coordinates": [ 119.1276, 25.4337 ] } },
{ "type": "Feature", "properties": { "ogc_fid": 41, "name": "Gang tou", "name_zh": "æ¸¯å¤´", "township": "Hanjiang", "UID_V": "V608" }, "geometry": { "type": "Point", "coordinates": [ 119.0956, 25.4527 ] } },
{ "type": "Feature", "properties": { "ogc_fid": 43, "name": "Han ba", "name_zh": "æ¶µå", "township": "Hanjiang", "UID_V": "V402" }, "geometry": { "type": "Point", "coordinates": [ 119.0687, 25.4397 ] } },
{ "type": "Feature", "properties": { "ogc_fid": 45, "name": "Hou gong", "name_zh": "åŽå®«", "township": "Hanjiang", "UID_V": "V413" }, "geometry": { "type": "Point", "coordinates": [ 119.1044, 25.4407 ] } },
{ "type": "Feature", "properties": { "ogc_fid": 46, "name": "Hou guo", "name_zh": "åŽéƒ­", "township": "Hanjiang", "UID_V": "V633" }, "geometry": { "type": "Point", "coordinates": [ 119.1529, 25.4673 ] } },
{ "type": "Feature", "properties": { "ogc_fid": 47, "name": "Hou huang", "name_zh": "åŽé»„", "township": "Hanjiang", "UID_V": "V636" }, "geometry": { "type": "Point", "coordinates": [ 119.1555, 25.4566 ] } },
{ "type": "Feature", "properties": { "ogc_fid": 48, "name": "Hou tou", "name_zh": "åŽå¤´", "township": "Hanjiang", "UID_V": "V419" }, "geometry": { "type": "Point", "coordinates": [ 119.1021, 25.4393 ] } },
{ "type": "Feature", "properties": { "ogc_fid": 49, "name": "Xia she", "name_zh": "ä¸‹ç¤¾", "township": "Hanjiang", "UID_V": "V638" }, "geometry": { "type": "Point", "coordinates": [ 119.1519, 25.4564 ] } },
{ "type": "Feature", "properties": { "ogc_fid": 50, "name": "Xia xiao", "name_zh": "éœžè‚–", "township": "Hanjiang", "UID_V": "V581" }, "geometry": { "type": "Point", "coordinates": [ 119.1064, 25.4746 ] } },
{ "type": "Feature", "properties": { "ogc_fid": 51, "name": "Xia xu", "name_zh": "éœžå¾", "township": "Hanjiang", "UID_V": "V606" }, "geometry": { "type": "Point", "coordinates": [ 119.1049, 25.4515 ] } },
{ "type": "Feature", "properties": { "ogc_fid": 52, "name": "Xia yang", "name_zh": "ä¸‹æ´‹", "township": "Hanjiang", "UID_V": "V506" }, "geometry": { "type": "Point", "coordinates": [ 119.0744, 25.4529 ] } },
{ "type": "Feature", "properties": { "ogc_fid": 53, "name": "Xin gang", "name_zh": "æ–°æ¸¯", "township": "Hanjiang", "UID_V": "V517" }, "geometry": { "type": "Point", "coordinates": [ 119.0864, 25.4593 ] } },
{ "type": "Feature", "properties": { "ogc_fid": 54, "name": "Xin po", "name_zh": "æ–°å¡", "township": "Hanjiang", "UID_V": "V617" }, "geometry": { "type": "Point", "coordinates": [ 119.129, 25.4767 ] } },
{ "type": "Feature", "properties": { "ogc_fid": 55, "name": "Xiu jiao", "name_zh": "ç§€éƒŠ", "township": "Hanjiang", "UID_V": "V577" }, "geometry": { "type": "Point", "coordinates": [ 119.0885, 25.4716 ] } },
{ "type": "Feature", "properties": { "ogc_fid": 56, "name": "Ya kou", "name_zh": "ç‰™å£", "township": "Hanjiang", "UID_V": "V406" }, "geometry": { "type": "Point", "coordinates": [ 119.0824, 25.4374 ] } },
{ "type": "Feature", "properties": { "ogc_fid": 57, "name": "Lan tian", "name_zh": "è“ç”°", "township": "Hanjiang", "UID_V": "V405" }, "geometry": { "type": "Point", "coordinates": [ 119.0838, 25.4431 ] } },
{ "type": "Feature", "properties": { "ogc_fid": 58, "name": "Yang chi", "name_zh": "æ´‹æ± ", "township": "Hanjiang", "UID_V": "V505" }, "geometry": { "type": "Point", "coordinates": [ 119.0778, 25.4452 ] } },
{ "type": "Feature", "properties": { "ogc_fid": 59, "name": "Xi dun", "name_zh": "è¥¿å¢©", "township": "Hanjiang", "UID_V": "V418" }, "geometry": { "type": "Point", "coordinates": [ 119.0973, 25.4375 ] } },
{ "type": "Feature", "properties": { "ogc_fid": 60, "name": "Yang zhong", "name_zh": "æ´‹å¿ ", "township": "Hanjiang", "UID_V": "V628" }, "geometry": { "type": "Point", "coordinates": [ 119.1215, 25.4476 ] } },
{ "type": "Feature", "properties": { "ogc_fid": 61, "name": "Yu po", "name_zh": "å–»å¡", "township": "Hanjiang", "UID_V": "V597" }, "geometry": { "type": "Point", "coordinates": [ 119.1074, 25.4868 ] } },
{ "type": "Feature", "properties": { "ogc_fid": 62, "name": "Ding ke", "name_zh": "é¡¶æŸ¯", "township": "Hanjiang", "UID_V": "V640" }, "geometry": { "type": "Point", "coordinates": [ 119.1452, 25.4601 ] } },
{ "type": "Feature", "properties": { "ogc_fid": 63, "name": "Hou zheng", "name_zh": "åŽéƒ‘", "township": "Hanjiang", "UID_V": "V516" }, "geometry": { "type": "Point", "coordinates": [ 119.0858, 25.4582 ] } },
{ "type": "Feature", "properties": { "ogc_fid": 65, "name": "Huang cuo", "name_zh": "é»„åŽ", "township": "Hanjiang", "UID_V": "V620" }, "geometry": { "type": "Point", "coordinates": [ 119.1315, 25.4773 ] } },
{ "type": "Feature", "properties": { "ogc_fid": 66, "name": "Ji kui", "name_zh": "é›†å¥Ž", "township": "Hanjiang", "UID_V": "V412" }, "geometry": { "type": "Point", "coordinates": [ 119.0981, 25.4506 ] } },
{ "type": "Feature", "properties": { "ogc_fid": 67, "name": "Jia kou", "name_zh": "åŠ å£", "township": "Hanjiang", "UID_V": "V513" }, "geometry": { "type": "Point", "coordinates": [ 119.0738, 25.4659 ] } },
{ "type": "Feature", "properties": { "ogc_fid": 68, "name": "Jiang bian", "name_zh": "æ±Ÿè¾¹", "township": "Hanjiang", "UID_V": "V521" }, "geometry": { "type": "Point", "coordinates": [ 119.0809, 25.4468 ] } },
{ "type": "Feature", "properties": { "ogc_fid": 69, "name": "Jiang wei", "name_zh": "æ±Ÿå°¾", "township": "Hanjiang", "UID_V": "V520" }, "geometry": { "type": "Point", "coordinates": [ 119.0814, 25.4444 ] } },
{ "type": "Feature", "properties": { "ogc_fid": 70, "name": "Ke tang", "name_zh": "æŸ¯å¡˜", "township": "Hanjiang", "UID_V": "V498" }, "geometry": { "type": "Point", "coordinates": [ 119.065, 25.4591 ] } },
{ "type": "Feature", "properties": { "ogc_fid": 72, "name": "Li dun", "name_zh": "åˆ©å¢©", "township": "Hanjiang", "UID_V": "V515" }, "geometry": { "type": "Point", "coordinates": [ 119.0851, 25.4528 ] } },
{ "type": "Feature", "properties": { "ogc_fid": 73, "name": "Li jiao", "name_zh": "æŽè§’", "township": "Hanjiang", "UID_V": "V417" }, "geometry": { "type": "Point", "coordinates": [ 119.0965, 25.438 ] } },
{ "type": "Feature", "properties": { "ogc_fid": 74, "name": "Lin dun", "name_zh": "æž—å¢©", "township": "Hanjiang", "UID_V": "V607" }, "geometry": { "type": "Point", "coordinates": [ 119.1055, 25.4496 ] } },
{ "type": "Feature", "properties": { "ogc_fid": 75, "name": "Lin bing", "name_zh": "æž—æŸ„", "township": "Hanjiang", "UID_V": "V623" }, "geometry": { "type": "Point", "coordinates": [ 119.1349, 25.4687 ] } },
{ "type": "Feature", "properties": { "ogc_fid": 76, "name": "Liu an", "name_zh": "åˆ˜å®‰", "township": "Hanjiang", "UID_V": "V632" }, "geometry": { "type": "Point", "coordinates": [ 119.1417, 25.4599 ] } },
{ "type": "Feature", "properties": { "ogc_fid": 77, "name": "Lu dun", "name_zh": "å¢å¢©", "township": "Hanjiang", "UID_V": "V614" }, "geometry": { "type": "Point", "coordinates": [ 119.1063, 25.4469 ] } },
{ "type": "Feature", "properties": { "ogc_fid": 79, "name": "Feng xiu", "name_zh": "å‡¤ç§€", "township": "Hanjiang", "UID_V": "V654" }, "geometry": { "type": "Point", "coordinates": [ 119.1186, 25.4373 ] } },
{ "type": "Feature", "properties": { "ogc_fid": 80, "name": "Hou ting", "name_zh": "åŽäº­", "township": "Hanjiang", "UID_V": "V507" }, "geometry": { "type": "Point", "coordinates": [ 119.0731, 25.4469 ] } },
{ "type": "Feature", "properties": { "ogc_fid": 81, "name": "Hou ting", "name_zh": "åŽäº­", "township": "Hanjiang", "UID_V": "V408" }, "geometry": { "type": "Point", "coordinates": [ 119.0929, 25.445 ] } },
{ "type": "Feature", "properties": { "ogc_fid": 83, "name": "Pu wei", "name_zh": "é“ºå°¾", "township": "Hanjiang", "UID_V": "V603" }, "geometry": { "type": "Point", "coordinates": [ 119.1166, 25.4602 ] } },
{ "type": "Feature", "properties": { "ogc_fid": 84, "name": "Bao wei", "name_zh": "ä¿å°¾", "township": "Hanjiang", "UID_V": "V601" }, "geometry": { "type": "Point", "coordinates": [ 119.1027, 25.4557 ] } },
{ "type": "Feature", "properties": { "ogc_fid": 85, "name": "Xi lin", "name_zh": "è¥¿æž—", "township": "Hanjiang", "UID_V": "V421" }, "geometry": { "type": "Point", "coordinates": [ 119.0953, 25.4354 ] } },
{ "type": "Feature", "properties": { "ogc_fid": 87, "name": "Qian lin", "name_zh": "å‰æž—", "township": "Hanjiang", "UID_V": "V610" }, "geometry": { "type": "Point", "coordinates": [ 119.0984, 25.454 ] } },
{ "type": "Feature", "properties": { "ogc_fid": 88, "name": "Pu wei", "name_zh": "åŸ”å°¾", "township": "Hanjiang", "UID_V": "V624" }, "geometry": { "type": "Point", "coordinates": [ 119.1302, 25.4694 ] } },
{ "type": "Feature", "properties": { "ogc_fid": 90, "name": "San gu", "name_zh": "ä¸‰è‚¡", "township": "Hanjiang", "UID_V": "V616" }, "geometry": { "type": "Point", "coordinates": [ 119.1304, 25.4784 ] } },
{ "type": "Feature", "properties": { "ogc_fid": 91, "name": "Qian ting", "name_zh": "å‰äº­", "township": "Hanjiang", "UID_V": "V497" }, "geometry": { "type": "Point", "coordinates": [ 119.0657, 25.4607 ] } },
{ "type": "Feature", "properties": { "ogc_fid": 92, "name": "Qin dong", "name_zh": "æ²ä¸œ", "township": "Hanjiang", "UID_V": "V587" }, "geometry": { "type": "Point", "coordinates": [ 119.1258, 25.491 ] } },
{ "type": "Feature", "properties": { "ogc_fid": 93, "name": "Chen qiao", "name_zh": "é™ˆæ¡¥", "township": "Hanjiang", "UID_V": "V400" }, "geometry": { "type": "Point", "coordinates": [ 119.0702, 25.4418 ] } },
{ "type": "Feature", "properties": { "ogc_fid": 94, "name": "Tan wei", "name_zh": "æ½­å°¾", "township": "Hanjiang", "UID_V": "V619" }, "geometry": { "type": "Point", "coordinates": [ 119.1256, 25.4797 ] } },
{ "type": "Feature", "properties": { "ogc_fid": 95, "name": "Tang bei", "name_zh": "å¡˜åŒ—", "township": "Hanjiang", "UID_V": "V602" }, "geometry": { "type": "Point", "coordinates": [ 119.1048, 25.4614 ] } },
{ "type": "Feature", "properties": { "ogc_fid": 96, "name": "Tang xi", "name_zh": "å¡˜è¥¿", "township": "Hanjiang", "UID_V": "V598" }, "geometry": { "type": "Point", "coordinates": [ 119.1179, 25.4811 ] } },
{ "type": "Feature", "properties": { "ogc_fid": 97, "name": "Tian cen", "name_zh": "ç”°å²‘", "township": "Hanjiang", "UID_V": "V514" }, "geometry": { "type": "Point", "coordinates": [ 119.0779, 25.4677 ] } },
{ "type": "Feature", "properties": { "ogc_fid": 99, "name": "Tian tou", "name_zh": "ç”°å¤´", "township": "Hanjiang", "UID_V": "V634" }, "geometry": { "type": "Point", "coordinates": [ 119.1542, 25.4622 ] } },
{ "type": "Feature", "properties": { "ogc_fid": 100, "name": "Tie zao", "name_zh": "é“ç¶", "township": "Hanjiang", "UID_V": "V629" }, "geometry": { "type": "Point", "coordinates": [ 119.1369, 25.4595 ] } },
{ "type": "Feature", "properties": { "ogc_fid": 101, "name": "Wu jiao", "name_zh": "æ¢§éƒŠ", "township": "Hanjiang", "UID_V": "V404" }, "geometry": { "type": "Point", "coordinates": [ 119.0872, 25.4423 ] } },
{ "type": "Feature", "properties": { "ogc_fid": 102, "name": "Wei tang", "name_zh": "é­å¡˜", "township": "Hanjiang", "UID_V": "V499" }, "geometry": { "type": "Point", "coordinates": [ 119.0706, 25.4511 ] } },
{ "type": "Feature", "properties": { "ogc_fid": 103, "name": "Xi gang", "name_zh": "è¥¿æ¸¯", "township": "Hanjiang", "UID_V": "V503" }, "geometry": { "type": "Point", "coordinates": [ 119.0804, 25.4512 ] } },
{ "type": "Feature", "properties": { "ogc_fid": 104, "name": "Xi hu", "name_zh": "è¥¿æ¹–", "township": "Hanjiang", "UID_V": "V410" }, "geometry": { "type": "Point", "coordinates": [ 119.09, 25.4492 ] } },
{ "type": "Feature", "properties": { "ogc_fid": 106, "name": "Wen cuo", "name_zh": "æ¸©åŽ", "township": "Hanjiang", "UID_V": "V630" }, "geometry": { "type": "Point", "coordinates": [ 119.1452, 25.4718 ] } },
{ "type": "Feature", "properties": { "ogc_fid": 107, "name": "Xi po", "name_zh": "è¥¿å¡", "township": "Hanjiang", "UID_V": "V586" }, "geometry": { "type": "Point", "coordinates": [ 119.1017, 25.4683 ] } },
{ "type": "Feature", "properties": { "ogc_fid": 109, "name": "Xia ke", "name_zh": "ä¸‹æŸ¯", "township": "Hanjiang", "UID_V": "V639" }, "geometry": { "type": "Point", "coordinates": [ 119.1463, 25.4572 ] } },
{ "type": "Feature", "properties": { "ogc_fid": 110, "name": "Xia lin", "name_zh": "ä¸‹æž—", "township": "Hanjiang", "UID_V": "V583" }, "geometry": { "type": "Point", "coordinates": [ 119.1087, 25.4662 ] } },
{ "type": "Feature", "properties": { "ogc_fid": 111, "name": "Xia yu", "name_zh": "ä¸‹å®‡", "township": "Hanjiang", "UID_V": "V508" }, "geometry": { "type": "Point", "coordinates": [ 119.0694, 25.4552 ] } },
{ "type": "Feature", "properties": { "ogc_fid": 112, "name": "Guo zhuang", "name_zh": "éƒ­åº„", "township": "Hanjiang", "UID_V": "V500" }, "geometry": { "type": "Point", "coordinates": [ 119.0702, 25.4474 ] } },
{ "type": "Feature", "properties": { "ogc_fid": 113, "name": "Zhuang cuo", "name_zh": "åº„åŽ", "township": "Hanjiang", "UID_V": "V504" }, "geometry": { "type": "Point", "coordinates": [ 119.077, 25.4498 ] } },
{ "type": "Feature", "properties": { "ogc_fid": 114, "name": "Ding shang lin", "name_zh": "é¡¶ä¸Šæž—", "township": "Hanjiang", "UID_V": "V595" }, "geometry": { "type": "Point", "coordinates": [ 119.1054, 25.4941 ] } },
{ "type": "Feature", "properties": { "ogc_fid": 116, "name": "Dong cheng", "name_zh": "ä¸œåŸ•", "township": "Hanjiang", "UID_V": "V642" }, "geometry": { "type": "Point", "coordinates": [ 119.1466, 25.4516 ] } },
{ "type": "Feature", "properties": { "ogc_fid": 117, "name": "Ma tou", "name_zh": "ç å¤´", "township": "Hanjiang", "UID_V": "V575" }, "geometry": { "type": "Point", "coordinates": [ 119.0936, 25.4702 ] } },
{ "type": "Feature", "properties": { "ogc_fid": 118, "name": "Mei wei", "name_zh": "ç¾Žå°¾", "township": "Hanjiang", "UID_V": "V658" }, "geometry": { "type": "Point", "coordinates": [ 119.1174, 25.4347 ] } },
{ "type": "Feature", "properties": { "ogc_fid": 119, "name": "Nan cheng", "name_zh": "å—åŸ•", "township": "Hanjiang", "UID_V": "V425" }, "geometry": { "type": "Point", "coordinates": [ 119.1015, 25.4307 ] } },
{ "type": "Feature", "properties": { "ogc_fid": 120, "name": "Qi tou", "name_zh": "æ­§å¤´", "township": "Hanjiang", "UID_V": "V641" }, "geometry": { "type": "Point", "coordinates": [ 119.1551, 25.4508 ] } },
{ "type": "Feature", "properties": { "ogc_fid": 121, "name": "Pu qian", "name_zh": "é“ºå‰", "township": "Hanjiang", "UID_V": "V502" }, "geometry": { "type": "Point", "coordinates": [ 119.069, 25.4536 ] } },
{ "type": "Feature", "properties": { "ogc_fid": 122, "name": "Qin xi", "name_zh": "æ²è¥¿", "township": "Hanjiang", "UID_V": "V588" }, "geometry": { "type": "Point", "coordinates": [ 119.124, 25.489 ] } },
{ "type": "Feature", "properties": { "ogc_fid": 123, "name": "Huang xiang", "name_zh": "é»„å··", "township": "Hanjiang", "UID_V": "V582" }, "geometry": { "type": "Point", "coordinates": [ 119.1052, 25.4787 ] } },
{ "type": "Feature", "properties": { "ogc_fid": 125, "name": "Qin keng", "name_zh": "èŠ¹å‘", "township": "Hanjiang", "UID_V": "V723" }, "geometry": { "type": "Point", "coordinates": [ 119.1416, 25.4798 ] } },
{ "type": "Feature", "properties": { "ogc_fid": 127, "name": "Shang yu", "name_zh": "ä¸Šä¿ž", "township": "Hanjiang", "UID_V": "V407" }, "geometry": { "type": "Point", "coordinates": [ 119.0905, 25.4428 ] } },
{ "type": "Feature", "properties": { "ogc_fid": 128, "name": "Shang zheng", "name_zh": "ä¸Šéƒ‘", "township": "Hanjiang", "UID_V": "V519" }, "geometry": { "type": "Point", "coordinates": [ 119.0823, 25.4539 ] } },
{ "type": "Feature", "properties": { "ogc_fid": 129, "name": "Shang guo", "name_zh": "ä¸Šéƒ­", "township": "Hanjiang", "UID_V": "V496" }, "geometry": { "type": "Point", "coordinates": [ 119.0703, 25.4618 ] } },
{ "type": "Feature", "properties": { "ogc_fid": 130, "name": "Shan bu", "name_zh": "å±±æ­¥", "township": "Hanjiang", "UID_V": "V403" }, "geometry": { "type": "Point", "coordinates": [ 119.073, 25.4389 ] } },
{ "type": "Feature", "properties": { "ogc_fid": 131, "name": "Shi shan", "name_zh": "çŸ³å±±", "township": "Hanjiang", "UID_V": "V643" }, "geometry": { "type": "Point", "coordinates": [ 119.141, 25.4466 ] } },
{ "type": "Feature", "properties": { "ogc_fid": 132, "name": "Jin dun", "name_zh": "é‡‘å¢©", "township": "Hanjiang", "UID_V": "V627" }, "geometry": { "type": "Point", "coordinates": [ 119.1244, 25.451 ] } },
{ "type": "Feature", "properties": { "ogc_fid": 133, "name": "Su cuo", "name_zh": "è‹åŽ", "township": "Hanjiang", "UID_V": "V625" }, "geometry": { "type": "Point", "coordinates": [ 119.1302, 25.4523 ] } },
{ "type": "Feature", "properties": { "ogc_fid": 134, "name": "Su dun", "name_zh": "è‹å¢©", "township": "Hanjiang", "UID_V": "V612" }, "geometry": { "type": "Point", "coordinates": [ 119.1091, 25.445 ] } },
{ "type": "Feature", "properties": { "ogc_fid": 136, "name": "Zhong dun", "name_zh": "ä¸­å¢©", "township": "Hanjiang", "UID_V": "V626" }, "geometry": { "type": "Point", "coordinates": [ 119.1261, 25.4557 ] } },
{ "type": "Feature", "properties": { "ogc_fid": 138, "name": "Xia fang", "name_zh": "ä¸‹åŠ", "township": "Hanjiang", "UID_V": "V512" }, "geometry": { "type": "Point", "coordinates": [ 119.0754, 25.4638 ] } },
{ "type": "Feature", "properties": { "ogc_fid": 139, "name": "Xiao hu", "name_zh": "å­æˆ·", "township": "Hanjiang", "UID_V": "V424" }, "geometry": { "type": "Point", "coordinates": [ 119.0832, 25.4222 ] } },
{ "type": "Feature", "properties": { "ogc_fid": 141, "name": "Zhen qian", "name_zh": "é•‡å‰", "township": "Hanjiang", "UID_V": "V422" }, "geometry": { "type": "Point", "coordinates": [ 119.084, 25.4299 ] } },
{ "type": "Feature", "properties": { "ogc_fid": 143, "name": "Zhuo po", "name_zh": "å“å¡", "township": "Hanjiang", "UID_V": "V599" }, "geometry": { "type": "Point", "coordinates": [ 119.1187, 25.4697 ] } },
{ "type": "Feature", "properties": { "ogc_fid": 145, "name": "Hou xue", "name_zh": "åŽå­¦", "township": "Hanjiang", "UID_V": "V414" }, "geometry": { "type": "Point", "coordinates": [ 119.1049, 25.4394 ] } },
{ "type": "Feature", "properties": { "ogc_fid": 146, "name": "Hou yang", "name_zh": "åŽæ´‹", "township": "Hanjiang", "UID_V": "V621" }, "geometry": { "type": "Point", "coordinates": [ 119.1308, 25.4816 ] } },
{ "type": "Feature", "properties": { "ogc_fid": 147, "name": "Tang bian", "name_zh": "å¡˜è¾¹", "township": "Hanjiang", "UID_V": "V724" }, "geometry": { "type": "Point", "coordinates": [ 119.1341, 25.485 ] } },
{ "type": "Feature", "properties": { "ogc_fid": 148, "name": "Tang bian", "name_zh": "å¡˜è¾¹", "township": "Hanjiang", "UID_V": "V420" }, "geometry": { "type": "Point", "coordinates": [ 119.0921, 25.4358 ] } },
{ "type": "Feature", "properties": { "ogc_fid": 150, "name": "Xiang li", "name_zh": "å··åˆ©", "township": "Hanjiang", "UID_V": "V618" }, "geometry": { "type": "Point", "coordinates": [ 119.1284, 25.4792 ] } },
{ "type": "Feature", "properties": { "ogc_fid": 152, "name": "Tian zhong yang", "name_zh": "ç”°ä¸­å¤®", "township": "Hanjiang", "UID_V": "V615" }, "geometry": { "type": "Point", "coordinates": [ 119.1123, 25.4474 ] } },
{ "type": "Feature", "properties": { "ogc_fid": 153, "name": "Bei mo", "name_zh": "åŒ—ç£¨", "township": "Chengjiao", "UID_V": "V318" }, "geometry": { "type": "Point", "coordinates": [ 118.9975, 25.4471 ] } },
{ "type": "Feature", "properties": { "ogc_fid": 155, "name": "Ding xia xie", "name_zh": "é¡¶ä¸‹æ–œ", "township": "Chengjiao", "UID_V": "V322" }, "geometry": { "type": "Point", "coordinates": [ 118.9936, 25.448 ] } },
{ "type": "Feature", "properties": { "ogc_fid": 157, "name": "An fu", "name_zh": "å®‰ç¦", "township": "Chengjiao", "UID_V": "V323" }, "geometry": { "type": "Point", "coordinates": [ 119.0093, 25.4469 ] } },
{ "type": "Feature", "properties": { "ogc_fid": 159, "name": "Bai yu ling", "name_zh": "ç™½çŽ‰å²­", "township": "Chengjiao", "UID_V": "V004" }, "geometry": { "type": "Point", "coordinates": [ 118.9856, 25.4004 ] } },
{ "type": "Feature", "properties": { "ogc_fid": 160, "name": "Ban tou", "name_zh": "å‚å¤´", "township": "Chengjiao", "UID_V": "V311" }, "geometry": { "type": "Point", "coordinates": [ 119.0006, 25.4076 ] } },
{ "type": "Feature", "properties": { "ogc_fid": 162, "name": "Bu yun", "name_zh": "æ­¥äº‘", "township": "Chengjiao", "UID_V": "V043" }, "geometry": { "type": "Point", "coordinates": [ 119.0333, 25.4078 ] } },
{ "type": "Feature", "properties": { "ogc_fid": 163, "name": "Cai zhai", "name_zh": "è”¡å®…", "township": "Chengjiao", "UID_V": "V300" }, "geometry": { "type": "Point", "coordinates": [ 118.9924, 25.4208 ] } },
{ "type": "Feature", "properties": { "ogc_fid": 164, "name": "Cao zhu", "name_zh": "è‰æ¸š", "township": "Chengjiao", "UID_V": "V364" }, "geometry": { "type": "Point", "coordinates": [ 119.0421, 25.4264 ] } },
{ "type": "Feature", "properties": { "ogc_fid": 165, "name": "Chai qiao tou", "name_zh": "æŸ´æ¡¥å¤´", "township": "Chengjiao", "UID_V": "V481" }, "geometry": { "type": "Point", "coordinates": [ 119.0478, 25.4493 ] } },
{ "type": "Feature", "properties": { "ogc_fid": 167, "name": "Chang shan", "name_zh": "ç•…å±±", "township": "Chengjiao", "UID_V": "V378" }, "geometry": { "type": "Point", "coordinates": [ 119.0262, 25.4654 ] } },
{ "type": "Feature", "properties": { "ogc_fid": 168, "name": "Chen nan", "name_zh": "è¾°å—", "township": "Chengjiao", "UID_V": "V398" }, "geometry": { "type": "Point", "coordinates": [ 119.0562, 25.4438 ] } },
{ "type": "Feature", "properties": { "ogc_fid": 170, "name": "Da ba", "name_zh": "å¤§å", "township": "Chengjiao", "UID_V": "V380" }, "geometry": { "type": "Point", "coordinates": [ 119.0316, 25.4662 ] } },
{ "type": "Feature", "properties": { "ogc_fid": 174, "name": "Dai li", "name_zh": "åŸ­é‡Œ", "township": "Chengjiao", "UID_V": "V042" }, "geometry": { "type": "Point", "coordinates": [ 119.036, 25.418 ] } },
{ "type": "Feature", "properties": { "ogc_fid": 175, "name": "Ding cuo", "name_zh": "é¡¶åŽ", "township": "Quqiao", "UID_V": "V018" }, "geometry": { "type": "Point", "coordinates": [ 119.0116, 25.4108 ] } },
{ "type": "Feature", "properties": { "ogc_fid": 176, "name": "Ding dun", "name_zh": "é¡¶å¢©", "township": "Chengjiao", "UID_V": "V313" }, "geometry": { "type": "Point", "coordinates": [ 119.0121, 25.4218 ] } },
{ "type": "Feature", "properties": { "ogc_fid": 177, "name": "Ding long qiao", "name_zh": "é¡¶é¾™æ¡¥", "township": "Chengjiao", "UID_V": "V325" }, "geometry": { "type": "Point", "coordinates": [ 119.0074, 25.4534 ] } },
{ "type": "Feature", "properties": { "ogc_fid": 178, "name": "Dong dai", "name_zh": "ä¸œåŸ­", "township": "Chengjiao", "UID_V": "V373" }, "geometry": { "type": "Point", "coordinates": [ 119.06, 25.4319 ] } },
{ "type": "Feature", "properties": { "ogc_fid": 179, "name": "Dong men dou", "name_zh": "ä¸œé—¨", "township": "Chengjiao", "UID_V": "V344" }, "geometry": { "type": "Point", "coordinates": [ 119.0166, 25.4312 ] } },
{ "type": "Feature", "properties": { "ogc_fid": 180, "name": "Dong jiao", "name_zh": "ä¸œéƒŠ", "township": "Chengjiao", "UID_V": "V362" }, "geometry": { "type": "Point", "coordinates": [ 119.047, 25.4332 ] } },
{ "type": "Feature", "properties": { "ogc_fid": 181, "name": "Dong yang", "name_zh": "ä¸œé˜³", "township": "Chengjiao", "UID_V": "V371" }, "geometry": { "type": "Point", "coordinates": [ 119.0588, 25.4359 ] } },
{ "type": "Feature", "properties": { "ogc_fid": 182, "name": "Dong zhou", "name_zh": "ä¸œå·ž", "township": "Chengjiao", "UID_V": "V361" }, "geometry": { "type": "Point", "coordinates": [ 119.048, 25.4284 ] } },
{ "type": "Feature", "properties": { "ogc_fid": 183, "name": "Dou men tou", "name_zh": "é™¡é—¨å¤´", "township": "Chengjiao", "UID_V": "V363" }, "geometry": { "type": "Point", "coordinates": [ 119.0449, 25.4307 ] } },
{ "type": "Feature", "properties": { "ogc_fid": 187, "name": "Feng mei", "name_zh": "ä¸°ç¾Ž", "township": "Chengjiao", "UID_V": "V346" }, "geometry": { "type": "Point", "coordinates": [ 119.0191, 25.4347 ] } },
{ "type": "Feature", "properties": { "ogc_fid": 188, "name": "Gao jing", "name_zh": "é«˜äº•", "township": "Chengjiao", "UID_V": "V336" }, "geometry": { "type": "Point", "coordinates": [ 119.0105, 25.4584 ] } },
{ "type": "Feature", "properties": { "ogc_fid": 189, "name": "Gong dou", "name_zh": "å®«å…œ", "township": "Chengjiao", "UID_V": "V390" }, "geometry": { "type": "Point", "coordinates": [ 119.0378, 25.4589 ] } },
{ "type": "Feature", "properties": { "ogc_fid": 190, "name": "Gou tou", "name_zh": "æ²Ÿå¤´", "township": "Chengjiao", "UID_V": "V315" }, "geometry": { "type": "Point", "coordinates": [ 118.9991, 25.4224 ] } },
{ "type": "Feature", "properties": { "ogc_fid": 191, "name": "Jiao xi", "name_zh": "éƒŠè¥¿", "township": "Chengjiao", "UID_V": "V355" }, "geometry": { "type": "Point", "coordinates": [ 119.0329, 25.4335 ] } },
{ "type": "Feature", "properties": { "ogc_fid": 192, "name": "Gu shan", "name_zh": "å¤å±±", "township": "Chengjiao", "UID_V": "V351" }, "geometry": { "type": "Point", "coordinates": [ 119.034, 25.4283 ] } },
{ "type": "Feature", "properties": { "ogc_fid": 194, "name": "He she", "name_zh": "ä½•ç¤¾", "township": "Chengjiao", "UID_V": "V359" }, "geometry": { "type": "Point", "coordinates": [ 119.0432, 25.443 ] } },
{ "type": "Feature", "properties": { "ogc_fid": 195, "name": "Hou bu dun", "name_zh": "åŽå¸ƒå¢©", "township": "Chengjiao", "UID_V": "V369" }, "geometry": { "type": "Point", "coordinates": [ 119.0471, 25.4227 ] } },
{ "type": "Feature", "properties": { "ogc_fid": 196, "name": "Hou gong", "name_zh": "åŽé¾š", "township": "Chengjiao", "UID_V": "V352" }, "geometry": { "type": "Point", "coordinates": [ 119.0356, 25.432 ] } },
{ "type": "Feature", "properties": { "ogc_fid": 198, "name": "Huang cuo", "name_zh": "é»„åŽ", "township": "Chengjiao", "UID_V": "V305" }, "geometry": { "type": "Point", "coordinates": [ 119.0191, 25.4174 ] } },
{ "type": "Feature", "properties": { "ogc_fid": 199, "name": "Huang dun", "name_zh": "é»„å¢©", "township": "Chengjiao", "UID_V": "V356" }, "geometry": { "type": "Point", "coordinates": [ 119.0476, 25.4368 ] } },
{ "type": "Feature", "properties": { "ogc_fid": 201, "name": "Huang tou", "name_zh": "é»„å¤´", "township": "Chengjiao", "UID_V": "V299" }, "geometry": { "type": "Point", "coordinates": [ 118.9931, 25.4116 ] } },
{ "type": "Feature", "properties": { "ogc_fid": 202, "name": "Jiang bian", "name_zh": "æ±Ÿè¾¹", "township": "Chengjiao", "UID_V": "V367" }, "geometry": { "type": "Point", "coordinates": [ 119.0593, 25.4221 ] } },
{ "type": "Feature", "properties": { "ogc_fid": 203, "name": "Jiao bei", "name_zh": "éƒŠåŒ—", "township": "Chengjiao", "UID_V": "V383" }, "geometry": { "type": "Point", "coordinates": [ 119.0304, 25.4592 ] } },
{ "type": "Feature", "properties": { "ogc_fid": 204, "name": "Gou mei", "name_zh": "æ²Ÿç¾Ž", "township": "Chengjiao", "UID_V": "V377" }, "geometry": { "type": "Point", "coordinates": [ 119.0663, 25.4398 ] } },
{ "type": "Feature", "properties": { "ogc_fid": 205, "name": "Jiao nan", "name_zh": "éƒŠå—", "township": "Chengjiao", "UID_V": "V382" }, "geometry": { "type": "Point", "coordinates": [ 119.0322, 25.4585 ] } },
{ "type": "Feature", "properties": { "ogc_fid": 206, "name": "Jiao xia li", "name_zh": "éƒŠä¸‹é‡Œ", "township": "Chengjiao", "UID_V": "V399" }, "geometry": { "type": "Point", "coordinates": [ 119.0493, 25.4459 ] } },
{ "type": "Feature", "properties": { "ogc_fid": 207, "name": "Kong li", "name_zh": "å­”é‡Œ", "township": "Chengjiao", "UID_V": "V428" }, "geometry": { "type": "Point", "coordinates": [ 119.0032, 25.4749 ] } },
{ "type": "Feature", "properties": { "ogc_fid": 208, "name": "Kuo kou", "name_zh": "é˜”å£", "township": "Chengjiao", "UID_V": "V350" }, "geometry": { "type": "Point", "coordinates": [ 119.0258, 25.4244 ] } },
{ "type": "Feature", "properties": { "ogc_fid": 209, "name": "Lao ye shu", "name_zh": "è€å¶æ ‘", "township": "Chengjiao", "UID_V": "V330" }, "geometry": { "type": "Point", "coordinates": [ 118.9985, 25.4729 ] } },
{ "type": "Feature", "properties": { "ogc_fid": 211, "name": "Lian tang", "name_zh": "èŽ²å¡˜", "township": "Chengjiao", "UID_V": "V348" }, "geometry": { "type": "Point", "coordinates": [ 119.0194, 25.4294 ] } },
{ "type": "Feature", "properties": { "ogc_fid": 214, "name": "Liu qiao", "name_zh": "æŸ³æ¡¥", "township": "Chengjiao", "UID_V": "V312" }, "geometry": { "type": "Point", "coordinates": [ 119.0129, 25.4256 ] } },
{ "type": "Feature", "properties": { "ogc_fid": 215, "name": "Xiang li", "name_zh": "è¡–é‡Œ", "township": "Chengjiao", "UID_V": "V389" }, "geometry": { "type": "Point", "coordinates": [ 119.0369, 25.4567 ] } },
{ "type": "Feature", "properties": { "ogc_fid": 217, "name": "Mei hua ting", "name_zh": "æ¢…èŠ±äº­", "township": "Chengjiao", "UID_V": "V345" }, "geometry": { "type": "Point", "coordinates": [ 119.0198, 25.4305 ] } },
{ "type": "Feature", "properties": { "ogc_fid": 218, "name": "Nan men", "name_zh": "å—é—¨", "township": "Chengjiao", "UID_V": "V317" }, "geometry": { "type": "Point", "coordinates": [ 119.0055, 25.4309 ] } },
{ "type": "Feature", "properties": { "ogc_fid": 219, "name": "Ou xu wei", "name_zh": "æ¬§å¾å°¾", "township": "Chengjiao", "UID_V": "V332" }, "geometry": { "type": "Point", "coordinates": [ 119.0231, 25.4653 ] } },
{ "type": "Feature", "properties": { "ogc_fid": 220, "name": "Bei tou", "name_zh": "é™‚å¤´", "township": "Chengjiao", "UID_V": "V001" }, "geometry": { "type": "Point", "coordinates": [ 118.9809, 25.408 ] } },
{ "type": "Feature", "properties": { "ogc_fid": 221, "name": "Pao hu dun", "name_zh": "è¢ç¬å¢©", "township": "Chengjiao", "UID_V": "V485" }, "geometry": { "type": "Point", "coordinates": [ 119.0507, 25.4635 ] } },
{ "type": "Feature", "properties": { "ogc_fid": 223, "name": "Pu nan", "name_zh": "æµ¦å—", "township": "Chengjiao", "UID_V": "V360" }, "geometry": { "type": "Point", "coordinates": [ 119.0422, 25.4296 ] } },
{ "type": "Feature", "properties": { "ogc_fid": 224, "name": "Pu zi", "name_zh": "èŽ†ä»”", "township": "Chengjiao", "UID_V": "V006" }, "geometry": { "type": "Point", "coordinates": [ 118.99, 25.407 ] } },
{ "type": "Feature", "properties": { "ogc_fid": 227, "name": "Qian bu dun", "name_zh": "å‰å¸ƒå¢©", "township": "Chengjiao", "UID_V": "V368" }, "geometry": { "type": "Point", "coordinates": [ 119.0462, 25.4204 ] } },
{ "type": "Feature", "properties": { "ogc_fid": 230, "name": "San she", "name_zh": "ä¸‰ç¤¾", "township": "Chengjiao", "UID_V": "V041" }, "geometry": { "type": "Point", "coordinates": [ 119.0288, 25.415 ] } },
{ "type": "Feature", "properties": { "ogc_fid": 231, "name": "Shan dou", "name_zh": "å±±å…œ", "township": "Chengjiao", "UID_V": "V430" }, "geometry": { "type": "Point", "coordinates": [ 119.0131, 25.4842 ] } },
{ "type": "Feature", "properties": { "ogc_fid": 232, "name": "Shang dai wei", "name_zh": "ä¸ŠåŸ­å°¾", "township": "Chengjiao", "UID_V": "V307" }, "geometry": { "type": "Point", "coordinates": [ 119.0251, 25.4123 ] } },
{ "type": "Feature", "properties": { "ogc_fid": 234, "name": "Shang lin", "name_zh": "ä¸Šæž—", "township": "Chengjiao", "UID_V": "V335" }, "geometry": { "type": "Point", "coordinates": [ 119.0208, 25.4608 ] } },
{ "type": "Feature", "properties": { "ogc_fid": 235, "name": "Shang lin dun", "name_zh": "ä¸Šæž—å¢©", "township": "Chengjiao", "UID_V": "V482" }, "geometry": { "type": "Point", "coordinates": [ 119.0527, 25.4606 ] } },
{ "type": "Feature", "properties": { "ogc_fid": 236, "name": "She qian", "name_zh": "ç¤¾å‰", "township": "Chengjiao", "UID_V": "V354" }, "geometry": { "type": "Point", "coordinates": [ 119.036, 25.4312 ] } },
{ "type": "Feature", "properties": { "ogc_fid": 238, "name": "Shi ding", "name_zh": "çŸ³é¡¶", "township": "Chengjiao", "UID_V": "V329" }, "geometry": { "type": "Point", "coordinates": [ 119.0003, 25.4619 ] } },
{ "type": "Feature", "properties": { "ogc_fid": 242, "name": "Si ting", "name_zh": "å››äº­", "township": "Chengjiao", "UID_V": "V392" }, "geometry": { "type": "Point", "coordinates": [ 119.0455, 25.4461 ] } },
{ "type": "Feature", "properties": { "ogc_fid": 243, "name": "Tan tou qiao", "name_zh": "æ½­å¤´æ¡¥", "township": "Chengjiao", "UID_V": "V343" }, "geometry": { "type": "Point", "coordinates": [ 119.0252, 25.4468 ] } },
{ "type": "Feature", "properties": { "ogc_fid": 252, "name": "Wu dun", "name_zh": "æ¢§å¢©", "township": "Chengjiao", "UID_V": "V314" }, "geometry": { "type": "Point", "coordinates": [ 119.0151, 25.4198 ] } },
{ "type": "Feature", "properties": { "ogc_fid": 253, "name": "Wu men", "name_zh": "å´é—¨", "township": "Chengjiao", "UID_V": "V002" }, "geometry": { "type": "Point", "coordinates": [ 118.9807, 25.4062 ] } },
{ "type": "Feature", "properties": { "ogc_fid": 254, "name": "Wu tang", "name_zh": "æ¢§å¡˜", "township": "Chengjiao", "UID_V": "V376" }, "geometry": { "type": "Point", "coordinates": [ 119.0622, 25.4383 ] } },
{ "type": "Feature", "properties": { "ogc_fid": 255, "name": "Xi geng", "name_zh": "è¥¿åºš", "township": "Chengjiao", "UID_V": "V341" }, "geometry": { "type": "Point", "coordinates": [ 119.0193, 25.453 ] } },
{ "type": "Feature", "properties": { "ogc_fid": 256, "name": "Xi kou", "name_zh": "æºªå£", "township": "Chengjiao", "UID_V": "V384" }, "geometry": { "type": "Point", "coordinates": [ 119.0284, 25.4601 ] } },
{ "type": "Feature", "properties": { "ogc_fid": 257, "name": "Xi shan", "name_zh": "è¥¿å±±", "township": "Chengjiao", "UID_V": "V328" }, "geometry": { "type": "Point", "coordinates": [ 119.0093, 25.4535 ] } },
{ "type": "Feature", "properties": { "ogc_fid": 258, "name": "Xi she", "name_zh": "è¥¿ç¤¾", "township": "Chengjiao", "UID_V": "V347" }, "geometry": { "type": "Point", "coordinates": [ 119.017, 25.4318 ] } },
{ "type": "Feature", "properties": { "ogc_fid": 259, "name": "Xi shi", "name_zh": "è¥¿æ–½", "township": "Chengjiao", "UID_V": "V375" }, "geometry": { "type": "Point", "coordinates": [ 119.0525, 25.4403 ] } },
{ "type": "Feature", "properties": { "ogc_fid": 260, "name": "Xi yang", "name_zh": "è¥¿æ´‹", "township": "Chengjiao", "UID_V": "V386" }, "geometry": { "type": "Point", "coordinates": [ 119.0346, 25.4558 ] } },
{ "type": "Feature", "properties": { "ogc_fid": 261, "name": "Xi zhang", "name_zh": "è¥¿æ¼³", "township": "Chengjiao", "UID_V": "V394" }, "geometry": { "type": "Point", "coordinates": [ 119.0615, 25.4427 ] } },
{ "type": "Feature", "properties": { "ogc_fid": 262, "name": "Xi zhu", "name_zh": "è¥¿æ´™", "township": "Chengjiao", "UID_V": "V370" }, "geometry": { "type": "Point", "coordinates": [ 119.052, 25.4335 ] } },
{ "type": "Feature", "properties": { "ogc_fid": 263, "name": "Xia cuo", "name_zh": "ä¸‹åŽ", "township": "Chengjiao", "UID_V": "V388" }, "geometry": { "type": "Point", "coordinates": [ 119.0369, 25.4549 ] } },
{ "type": "Feature", "properties": { "ogc_fid": 264, "name": "Xia dai", "name_zh": "ä¸‹æˆ´", "township": "Chengjiao", "UID_V": "V342" }, "geometry": { "type": "Point", "coordinates": [ 119.0205, 25.4569 ] } },
{ "type": "Feature", "properties": { "ogc_fid": 265, "name": "Xia dai wei", "name_zh": "ä¸‹åŸ­å°¾", "township": "Chengjiao", "UID_V": "V306" }, "geometry": { "type": "Point", "coordinates": [ 119.0248, 25.4177 ] } },
{ "type": "Feature", "properties": { "ogc_fid": 266, "name": "Xia gong li", "name_zh": "ä¸‹å®«é‡Œ", "township": "Chengjiao", "UID_V": "V326" }, "geometry": { "type": "Point", "coordinates": [ 119.0063, 25.4543 ] } },
{ "type": "Feature", "properties": { "ogc_fid": 268, "name": "Xia lin", "name_zh": "éœžæž—", "township": "Chengjiao", "UID_V": "V301" }, "geometry": { "type": "Point", "coordinates": [ 118.9929, 25.417 ] } },
{ "type": "Feature", "properties": { "ogc_fid": 269, "name": "Xia mo", "name_zh": "ä¸‹ç£¨", "township": "Chengjiao", "UID_V": "V320" }, "geometry": { "type": "Point", "coordinates": [ 118.9992, 25.4419 ] } },
{ "type": "Feature", "properties": { "ogc_fid": 271, "name": "Xia ting", "name_zh": "ä¸‹äº­", "township": "Chengjiao", "UID_V": "V391" }, "geometry": { "type": "Point", "coordinates": [ 119.0401, 25.4542 ] } },
{ "type": "Feature", "properties": { "ogc_fid": 273, "name": "Xiao cuo", "name_zh": "è‚–åŽ", "township": "Chengjiao", "UID_V": "V310" }, "geometry": { "type": "Point", "coordinates": [ 119.0061, 25.4153 ] } },
{ "type": "Feature", "properties": { "ogc_fid": 275, "name": "Xiao tang", "name_zh": "ç­±å¡˜", "township": "Chengjiao", "UID_V": "V316" }, "geometry": { "type": "Point", "coordinates": [ 118.9975, 25.4313 ] } },
{ "type": "Feature", "properties": { "ogc_fid": 278, "name": "Xu qiao", "name_zh": "å¾æ¡¥", "township": "Chengjiao", "UID_V": "V374" }, "geometry": { "type": "Point", "coordinates": [ 119.0523, 25.4391 ] } },
{ "type": "Feature", "properties": { "ogc_fid": 279, "name": "Yang xi", "name_zh": "æ´‹è¥¿", "township": "Chengjiao", "UID_V": "V429" }, "geometry": { "type": "Point", "coordinates": [ 119.0146, 25.4759 ] } },
{ "type": "Feature", "properties": { "ogc_fid": 280, "name": "Yu shang", "name_zh": "å±¿ä¸Š", "township": "Chengjiao", "UID_V": "V298" }, "geometry": { "type": "Point", "coordinates": [ 118.9799, 25.4114 ] } },
{ "type": "Feature", "properties": { "ogc_fid": 282, "name": "Zheng dun", "name_zh": "éƒ‘å¢©", "township": "Chengjiao", "UID_V": "V480" }, "geometry": { "type": "Point", "coordinates": [ 119.0508, 25.4526 ] } },
{ "type": "Feature", "properties": { "ogc_fid": 283, "name": "Zhong she", "name_zh": "ä¸­ç¤¾", "township": "Chengjiao", "UID_V": "V358" }, "geometry": { "type": "Point", "coordinates": [ 119.0422, 25.4416 ] } },
{ "type": "Feature", "properties": { "ogc_fid": 284, "name": "Zhu dun", "name_zh": "æœ±å¢©", "township": "Chengjiao", "UID_V": "V366" }, "geometry": { "type": "Point", "coordinates": [ 119.0575, 25.4254 ] } },
{ "type": "Feature", "properties": { "ogc_fid": 286, "name": "Bai yuan", "name_zh": "ç™½å›­", "township": "Wutang", "UID_V": "V564" }, "geometry": { "type": "Point", "coordinates": [ 119.1044, 25.5087 ] } },
{ "type": "Feature", "properties": { "ogc_fid": 291, "name": "Ding cuo wei", "name_zh": "é¡¶åŽå°¾", "township": "Wutang", "UID_V": "V568" }, "geometry": { "type": "Point", "coordinates": [ 119.0876, 25.4876 ] } },
{ "type": "Feature", "properties": { "ogc_fid": 292, "name": "Ding gou", "name_zh": "é¡¶æ²Ÿ", "township": "Wutang", "UID_V": "V572" }, "geometry": { "type": "Point", "coordinates": [ 119.1156, 25.5087 ] } },
{ "type": "Feature", "properties": { "ogc_fid": 293, "name": "Fu xing she", "name_zh": "ç¦å…´ç¤¾", "township": "Wutang", "UID_V": "V555" }, "geometry": { "type": "Point", "coordinates": [ 119.0802, 25.4917 ] } },
{ "type": "Feature", "properties": { "ogc_fid": 294, "name": "Dong pai", "name_zh": "ä¸œç‰Œ", "township": "Wutang", "UID_V": "V556" }, "geometry": { "type": "Point", "coordinates": [ 119.0826, 25.4943 ] } },
{ "type": "Feature", "properties": { "ogc_fid": 295, "name": "Tai bai zhuang", "name_zh": "å¤ªç™½åº„", "township": "Wutang", "UID_V": "V554" }, "geometry": { "type": "Point", "coordinates": [ 119.0792, 25.4885 ] } },
{ "type": "Feature", "properties": { "ogc_fid": 297, "name": "Dong zhu", "name_zh": "ä¸œç ", "township": "Wutang", "UID_V": "V591" }, "geometry": { "type": "Point", "coordinates": [ 119.1174, 25.4971 ] } },
{ "type": "Feature", "properties": { "ogc_fid": 298, "name": "Fang zhuang", "name_zh": "æ–¹åº„", "township": "Wutang", "UID_V": "V550" }, "geometry": { "type": "Point", "coordinates": [ 119.0684, 25.4999 ] } },
{ "type": "Feature", "properties": { "ogc_fid": 299, "name": "Niu shan", "name_zh": "ç‰›å±±", "township": "Wutang", "UID_V": "V537" }, "geometry": { "type": "Point", "coordinates": [ 119.0557, 25.5164 ] } },
{ "type": "Feature", "properties": { "ogc_fid": 303, "name": "Lian he cun", "name_zh": "è”åˆæ‘", "township": "Wutang", "UID_V": "V571" }, "geometry": { "type": "Point", "coordinates": [ 119.1188, 25.509 ] } },
{ "type": "Feature", "properties": { "ogc_fid": 306, "name": "Ling qian", "name_zh": "å²­å‰", "township": "Wutang", "UID_V": "V566" }, "geometry": { "type": "Point", "coordinates": [ 119.1056, 25.5041 ] } },
{ "type": "Feature", "properties": { "ogc_fid": 307, "name": "Lou tou", "name_zh": "æ¼å¤´", "township": "Wutang", "UID_V": "V549" }, "geometry": { "type": "Point", "coordinates": [ 119.0673, 25.4905 ] } },
{ "type": "Feature", "properties": { "ogc_fid": 308, "name": "Mei ling", "name_zh": "æ¢…å²­", "township": "Wutang", "UID_V": "V552" }, "geometry": { "type": "Point", "coordinates": [ 119.0756, 25.5042 ] } },
{ "type": "Feature", "properties": { "ogc_fid": 309, "name": "Xia tian cuo", "name_zh": "ä¸‹ç”°åŽ", "township": "Wutang", "UID_V": "V539" }, "geometry": { "type": "Point", "coordinates": [ 119.0657, 25.5075 ] } },
{ "type": "Feature", "properties": { "ogc_fid": 310, "name": "Hou lin", "name_zh": "åŽæž—", "township": "Wutang", "UID_V": "V592" }, "geometry": { "type": "Point", "coordinates": [ 119.1234, 25.4967 ] } },
{ "type": "Feature", "properties": { "ogc_fid": 312, "name": "Qin wei", "name_zh": "æ²å°¾", "township": "Wutang", "UID_V": "V538" }, "geometry": { "type": "Point", "coordinates": [ 119.0598, 25.5089 ] } },
{ "type": "Feature", "properties": { "ogc_fid": 316, "name": "Pu dun", "name_zh": "åŸ”å¢©", "township": "Wutang", "UID_V": "V567" }, "geometry": { "type": "Point", "coordinates": [ 119.1074, 25.5074 ] } },
{ "type": "Feature", "properties": { "ogc_fid": 319, "name": "Shi pai dou", "name_zh": "çŸ³ç‰Œå…œ", "township": "Wutang", "UID_V": "V573" }, "geometry": { "type": "Point", "coordinates": [ 119.1239, 25.5068 ] } },
{ "type": "Feature", "properties": { "ogc_fid": 320, "name": "Si ying", "name_zh": "æ³—è¥", "township": "Wutang", "UID_V": "V561" }, "geometry": { "type": "Point", "coordinates": [ 119.0955, 25.5034 ] } },
{ "type": "Feature", "properties": { "ogc_fid": 321, "name": "Si zhou", "name_zh": "æ³—æ´²", "township": "Wutang", "UID_V": "V560" }, "geometry": { "type": "Point", "coordinates": [ 119.0925, 25.5026 ] } },
{ "type": "Feature", "properties": { "ogc_fid": 323, "name": "Dao pu", "name_zh": "é“åŸ”", "township": "Wutang", "UID_V": "V559" }, "geometry": { "type": "Point", "coordinates": [ 119.0997, 25.5029 ] } },
{ "type": "Feature", "properties": { "ogc_fid": 326, "name": "Tian zhong yang", "name_zh": "ç”°ä¸­å¤®", "township": "Wutang", "UID_V": "V574" }, "geometry": { "type": "Point", "coordinates": [ 119.1189, 25.5047 ] } },
{ "type": "Feature", "properties": { "ogc_fid": 330, "name": "Wu zi", "name_zh": "æ¢§æ¢“", "township": "Wutang", "UID_V": "V558" }, "geometry": { "type": "Point", "coordinates": [ 119.0955, 25.4968 ] } },
{ "type": "Feature", "properties": { "ogc_fid": 332, "name": "Xi zhai", "name_zh": "è¥¿å®…", "township": "Wutang", "UID_V": "V593" }, "geometry": { "type": "Point", "coordinates": [ 119.121, 25.4944 ] } },
{ "type": "Feature", "properties": { "ogc_fid": 335, "name": "Xi kou", "name_zh": "æºªå£", "township": "Wutang", "UID_V": "V489" }, "geometry": { "type": "Point", "coordinates": [ 119.0734, 25.481 ] } },
{ "type": "Feature", "properties": { "ogc_fid": 336, "name": "You qiao tou", "name_zh": "æ¸¸æ¡¥å¤´", "township": "Wutang", "UID_V": "V490" }, "geometry": { "type": "Point", "coordinates": [ 119.0759, 25.4759 ] } },
{ "type": "Feature", "properties": { "ogc_fid": 337, "name": "Xi zhuang", "name_zh": "è¥¿åº„", "township": "Wutang", "UID_V": "V553" }, "geometry": { "type": "Point", "coordinates": [ 119.0785, 25.4969 ] } },
{ "type": "Feature", "properties": { "ogc_fid": 339, "name": "Deng cuo", "name_zh": "é‚“åŽ", "township": "Wutang", "UID_V": "V536" }, "geometry": { "type": "Point", "coordinates": [ 119.0618, 25.5142 ] } },
{ "type": "Feature", "properties": { "ogc_fid": 341, "name": "Xia lou", "name_zh": "éœžæ¥¼", "township": "Wutang", "UID_V": "V557" }, "geometry": { "type": "Point", "coordinates": [ 119.0823, 25.4976 ] } },
{ "type": "Feature", "properties": { "ogc_fid": 342, "name": "Xiang tou", "name_zh": "å··å¤´", "township": "Wutang", "UID_V": "V565" }, "geometry": { "type": "Point", "coordinates": [ 119.1033, 25.5002 ] } },
{ "type": "Feature", "properties": { "ogc_fid": 343, "name": "Xiao jia", "name_zh": "è‚–ç”²", "township": "Wutang", "UID_V": "V562" }, "geometry": { "type": "Point", "coordinates": [ 119.1033, 25.5017 ] } },
{ "type": "Feature", "properties": { "ogc_fid": 346, "name": "Zhi xiang", "name_zh": "ç›´å··", "township": "Wutang", "UID_V": "V563" }, "geometry": { "type": "Point", "coordinates": [ 119.1089, 25.4956 ] } },
{ "type": "Feature", "properties": { "ogc_fid": 347, "name": "An xing", "name_zh": "å®‰å…´", "township": "Huangshi", "UID_V": "V113" }, "geometry": { "type": "Point", "coordinates": [ 119.078, 25.3835 ] } },
{ "type": "Feature", "properties": { "ogc_fid": 352, "name": "Chang chuan", "name_zh": "é•¿å·", "township": "Huangshi", "UID_V": "V101" }, "geometry": { "type": "Point", "coordinates": [ 119.0947, 25.3609 ] } },
{ "type": "Feature", "properties": { "ogc_fid": 353, "name": "Chang keng", "name_zh": "é•¿å‘", "township": "Huangshi", "UID_V": "V148" }, "geometry": { "type": "Point", "coordinates": [ 119.0906, 25.3721 ] } },
{ "type": "Feature", "properties": { "ogc_fid": 355, "name": "Cheng wei", "name_zh": "åŸ•å°¾", "township": "Huangshi", "UID_V": "V123" }, "geometry": { "type": "Point", "coordinates": [ 119.0812, 25.3888 ] } },
{ "type": "Feature", "properties": { "ogc_fid": 357, "name": "Ding zhuang", "name_zh": "å®šåº„", "township": "Huangshi", "UID_V": "V100" }, "geometry": { "type": "Point", "coordinates": [ 119.0858, 25.3605 ] } },
{ "type": "Feature", "properties": { "ogc_fid": 358, "name": "Dong cuo", "name_zh": "ä¸œåŽ", "township": "Huangshi", "UID_V": "V167" }, "geometry": { "type": "Point", "coordinates": [ 119.1371, 25.377 ] } },
{ "type": "Feature", "properties": { "ogc_fid": 359, "name": "Dong dai", "name_zh": "ä¸œåŸ­", "township": "Huangshi", "UID_V": "V162" }, "geometry": { "type": "Point", "coordinates": [ 119.1082, 25.3806 ] } },
{ "type": "Feature", "properties": { "ogc_fid": 362, "name": "Dong jia", "name_zh": "ä¸œç”²", "township": "Huangshi", "UID_V": "V164" }, "geometry": { "type": "Point", "coordinates": [ 119.1233, 25.3957 ] } },
{ "type": "Feature", "properties": { "ogc_fid": 363, "name": "Dou nan", "name_zh": "æ–—å—", "township": "Huangshi", "UID_V": "V169" }, "geometry": { "type": "Point", "coordinates": [ 119.1292, 25.3711 ] } },
{ "type": "Feature", "properties": { "ogc_fid": 364, "name": "Dong jing", "name_zh": "ä¸œäº•", "township": "Huangshi", "UID_V": "V108" }, "geometry": { "type": "Point", "coordinates": [ 119.0781, 25.3797 ] } },
{ "type": "Feature", "properties": { "ogc_fid": 369, "name": "Dong zhu", "name_zh": "ä¸œæ´™", "township": "Huangshi", "UID_V": "V096" }, "geometry": { "type": "Point", "coordinates": [ 119.0757, 25.3769 ] } },
{ "type": "Feature", "properties": { "ogc_fid": 371, "name": "Gou bian", "name_zh": "æ²Ÿè¾¹", "township": "Huangshi", "UID_V": "V150" }, "geometry": { "type": "Point", "coordinates": [ 119.089, 25.3838 ] } },
{ "type": "Feature", "properties": { "ogc_fid": 373, "name": "Hai bin", "name_zh": "æµ·æ»¨", "township": "Huangshi", "UID_V": "V140" }, "geometry": { "type": "Point", "coordinates": [ 119.1067, 25.4206 ] } },
{ "type": "Feature", "properties": { "ogc_fid": 374, "name": "Heng tang", "name_zh": "æ¨ªå¡˜", "township": "Huangshi", "UID_V": "V297" }, "geometry": { "type": "Point", "coordinates": [ 119.0516, 25.3664 ] } },
{ "type": "Feature", "properties": { "ogc_fid": 377, "name": "Hou xu", "name_zh": "åŽè®¸", "township": "Huangshi", "UID_V": "V090" }, "geometry": { "type": "Point", "coordinates": [ 119.0608, 25.3662 ] } },
{ "type": "Feature", "properties": { "ogc_fid": 379, "name": "Hou zhu", "name_zh": "åŽæ´™", "township": "Huangshi", "UID_V": "V146" }, "geometry": { "type": "Point", "coordinates": [ 119.0855, 25.3933 ] } },
{ "type": "Feature", "properties": { "ogc_fid": 380, "name": "Hua dong", "name_zh": "åŽä¸œ", "township": "Huangshi", "UID_V": "V144" }, "geometry": { "type": "Point", "coordinates": [ 119.0997, 25.4041 ] } },
{ "type": "Feature", "properties": { "ogc_fid": 381, "name": "Hua di", "name_zh": "åŽå ¤", "township": "Huangshi", "UID_V": "V142" }, "geometry": { "type": "Point", "coordinates": [ 119.0956, 25.4069 ] } },
{ "type": "Feature", "properties": { "ogc_fid": 382, "name": "Hua zhong", "name_zh": "åŽä¸­", "township": "Huangshi", "UID_V": "V143" }, "geometry": { "type": "Point", "coordinates": [ 119.0944, 25.4043 ] } },
{ "type": "Feature", "properties": { "ogc_fid": 384, "name": "Huang yuan", "name_zh": "é»„å›­", "township": "Huangshi", "UID_V": "V092" }, "geometry": { "type": "Point", "coordinates": [ 119.0649, 25.3698 ] } },
{ "type": "Feature", "properties": { "ogc_fid": 387, "name": "Jiang dong", "name_zh": "æ±Ÿä¸œ", "township": "Huangshi", "UID_V": "V139" }, "geometry": { "type": "Point", "coordinates": [ 119.0909, 25.4135 ] } },
{ "type": "Feature", "properties": { "ogc_fid": 388, "name": "Jiang xi", "name_zh": "æ±Ÿè¥¿", "township": "Huangshi", "UID_V": "V137" }, "geometry": { "type": "Point", "coordinates": [ 119.0869, 25.4146 ] } },
{ "type": "Feature", "properties": { "ogc_fid": 389, "name": "Jin dun", "name_zh": "é‡‘å¢©", "township": "Huangshi", "UID_V": "V120" }, "geometry": { "type": "Point", "coordinates": [ 119.0754, 25.388 ] } },
{ "type": "Feature", "properties": { "ogc_fid": 390, "name": "Jin shan", "name_zh": "é‡‘å±±", "township": "Huangshi", "UID_V": "V163" }, "geometry": { "type": "Point", "coordinates": [ 119.1054, 25.3934 ] } },
{ "type": "Feature", "properties": { "ogc_fid": 391, "name": "Jing pu", "name_zh": "äº•åŸ”", "township": "Huangshi", "UID_V": "V145" }, "geometry": { "type": "Point", "coordinates": [ 119.0872, 25.3886 ] } },
{ "type": "Feature", "properties": { "ogc_fid": 393, "name": "Kang cuo", "name_zh": "åº·åŽ", "township": "Huangshi", "UID_V": "V158" }, "geometry": { "type": "Point", "coordinates": [ 119.1129, 25.3526 ] } },
{ "type": "Feature", "properties": { "ogc_fid": 395, "name": "Lin dun", "name_zh": "æž—å¢©", "township": "Huangshi", "UID_V": "V136" }, "geometry": { "type": "Point", "coordinates": [ 119.0829, 25.4128 ] } },
{ "type": "Feature", "properties": { "ogc_fid": 396, "name": "Ling ding", "name_zh": "å²­é¡¶", "township": "Huangshi", "UID_V": "V089" }, "geometry": { "type": "Point", "coordinates": [ 119.06, 25.3712 ] } },
{ "type": "Feature", "properties": { "ogc_fid": 397, "name": "Long du", "name_zh": "é¾™åº¦", "township": "Huangshi", "UID_V": "V121" }, "geometry": { "type": "Point", "coordinates": [ 119.0757, 25.3847 ] } },
{ "type": "Feature", "properties": { "ogc_fid": 398, "name": "Long hua", "name_zh": "é¾™åŽ", "township": "Huangshi", "UID_V": "V138" }, "geometry": { "type": "Point", "coordinates": [ 119.0778, 25.4138 ] } },
{ "type": "Feature", "properties": { "ogc_fid": 399, "name": "Lu keng", "name_zh": "å¢å‘", "township": "Huangshi", "UID_V": "V097" }, "geometry": { "type": "Point", "coordinates": [ 119.0771, 25.3739 ] } },
{ "type": "Feature", "properties": { "ogc_fid": 401, "name": "Ping shan", "name_zh": "å±å±±", "township": "Huangshi", "UID_V": "V170" }, "geometry": { "type": "Point", "coordinates": [ 119.1304, 25.3663 ] } },
{ "type": "Feature", "properties": { "ogc_fid": 402, "name": "Qian tang", "name_zh": "é’±å¡˜", "township": "Huangshi", "UID_V": "V088" }, "geometry": { "type": "Point", "coordinates": [ 119.0552, 25.369 ] } },
{ "type": "Feature", "properties": { "ogc_fid": 403, "name": "Qiao dou", "name_zh": "æ¡¥å…œ", "township": "Huangshi", "UID_V": "V131" }, "geometry": { "type": "Point", "coordinates": [ 119.0835, 25.4182 ] } },
{ "type": "Feature", "properties": { "ogc_fid": 404, "name": "Qing hou", "name_zh": "æ¸…åŽ", "township": "Huangshi", "UID_V": "V128" }, "geometry": { "type": "Point", "coordinates": [ 119.0599, 25.4125 ] } },
{ "type": "Feature", "properties": { "ogc_fid": 405, "name": "Qing qian", "name_zh": "æ¸…å‰", "township": "Huangshi", "UID_V": "V129" }, "geometry": { "type": "Point", "coordinates": [ 119.0574, 25.4053 ] } },
{ "type": "Feature", "properties": { "ogc_fid": 406, "name": "Qing zhong", "name_zh": "æ¸…ä¸­", "township": "Huangshi", "UID_V": "V127" }, "geometry": { "type": "Point", "coordinates": [ 119.0611, 25.4099 ] } },
{ "type": "Feature", "properties": { "ogc_fid": 411, "name": "Shan dou", "name_zh": "å±±å…œ", "township": "Huangshi", "UID_V": "V098" }, "geometry": { "type": "Point", "coordinates": [ 119.075, 25.3706 ] } },
{ "type": "Feature", "properties": { "ogc_fid": 412, "name": "Shan qian zi", "name_zh": "å±±å‰ä»”", "township": "Huangshi", "UID_V": "V160" }, "geometry": { "type": "Point", "coordinates": [ 119.1097, 25.3471 ] } },
{ "type": "Feature", "properties": { "ogc_fid": 413, "name": "Shang keng", "name_zh": "ä¸Šå‘", "township": "Huangshi", "UID_V": "V094" }, "geometry": { "type": "Point", "coordinates": [ 119.0665, 25.3662 ] } },
{ "type": "Feature", "properties": { "ogc_fid": 414, "name": "Shang yuan qian", "name_zh": "ä¸Šé™¢å‰", "township": "Huangshi", "UID_V": "V104" }, "geometry": { "type": "Point", "coordinates": [ 119.0829, 25.3679 ] } },
{ "type": "Feature", "properties": { "ogc_fid": 418, "name": "Tang tou", "name_zh": "å¡˜å¤´", "township": "Huangshi", "UID_V": "V095" }, "geometry": { "type": "Point", "coordinates": [ 119.0701, 25.3767 ] } },
{ "type": "Feature", "properties": { "ogc_fid": 419, "name": "Tian cuo", "name_zh": "ç”°åŽ", "township": "Huangshi", "UID_V": "V103" }, "geometry": { "type": "Point", "coordinates": [ 119.0925, 25.3711 ] } },
{ "type": "Feature", "properties": { "ogc_fid": 423, "name": "Wu cuo", "name_zh": "å´åŽ", "township": "Huangshi", "UID_V": "V159" }, "geometry": { "type": "Point", "coordinates": [ 119.101, 25.3578 ] } },
{ "type": "Feature", "properties": { "ogc_fid": 424, "name": "Wu long", "name_zh": "äº”é¾™", "township": "Huangshi", "UID_V": "V149" }, "geometry": { "type": "Point", "coordinates": [ 119.0907, 25.3804 ] } },
{ "type": "Feature", "properties": { "ogc_fid": 425, "name": "Wu xiang", "name_zh": "æ¢§å··", "township": "Huangshi", "UID_V": "V152" }, "geometry": { "type": "Point", "coordinates": [ 119.0974, 25.3619 ] } },
{ "type": "Feature", "properties": { "ogc_fid": 426, "name": "Xi gou", "name_zh": "è¥¿æ²Ÿ", "township": "Huangshi", "UID_V": "V156" }, "geometry": { "type": "Point", "coordinates": [ 119.1062, 25.3572 ] } },
{ "type": "Feature", "properties": { "ogc_fid": 430, "name": "Xi li", "name_zh": "è¥¿åˆ©", "township": "Huangshi", "UID_V": "V134" }, "geometry": { "type": "Point", "coordinates": [ 119.0702, 25.433 ] } },
{ "type": "Feature", "properties": { "ogc_fid": 432, "name": "Xia ban", "name_zh": "ä¸‹å‚", "township": "Huangshi", "UID_V": "V102" }, "geometry": { "type": "Point", "coordinates": [ 119.0887, 25.3703 ] } },
{ "type": "Feature", "properties": { "ogc_fid": 433, "name": "Xia dai", "name_zh": "ä¸‹åŸ­", "township": "Huangshi", "UID_V": "V133" }, "geometry": { "type": "Point", "coordinates": [ 119.0737, 25.4253 ] } },
{ "type": "Feature", "properties": { "ogc_fid": 434, "name": "Xia jiang tou", "name_zh": "ä¸‹æ±Ÿå¤´", "township": "Huangshi", "UID_V": "V132" }, "geometry": { "type": "Point", "coordinates": [ 119.0782, 25.4261 ] } },
{ "type": "Feature", "properties": { "ogc_fid": 436, "name": "Xia yuan qian", "name_zh": "ä¸‹é™¢å‰", "township": "Huangshi", "UID_V": "V105" }, "geometry": { "type": "Point", "coordinates": [ 119.0841, 25.3715 ] } },
{ "type": "Feature", "properties": { "ogc_fid": 437, "name": "Xia zhuang", "name_zh": "ä¸‹åº„", "township": "Huangshi", "UID_V": "V093" }, "geometry": { "type": "Point", "coordinates": [ 119.0679, 25.3704 ] } },
{ "type": "Feature", "properties": { "ogc_fid": 443, "name": "Yao tai", "name_zh": "ç‘¶å°", "township": "Huangshi", "UID_V": "V099" }, "geometry": { "type": "Point", "coordinates": [ 119.0792, 25.3618 ] } },
{ "type": "Feature", "properties": { "ogc_fid": 444, "name": "Yu dai", "name_zh": "ä½™åŸ­", "township": "Huangshi", "UID_V": "V135" }, "geometry": { "type": "Point", "coordinates": [ 119.0653, 25.4299 ] } },
{ "type": "Feature", "properties": { "ogc_fid": 445, "name": "Zhe lang", "name_zh": "é®æµª", "township": "Huangshi", "UID_V": "V141" }, "geometry": { "type": "Point", "coordinates": [ 119.1157, 25.408 ] } },
{ "type": "Feature", "properties": { "ogc_fid": 447, "name": "Zhu cuo", "name_zh": "æœ±åŽ", "township": "Huangshi", "UID_V": "V155" }, "geometry": { "type": "Point", "coordinates": [ 119.1033, 25.3593 ] } },
{ "type": "Feature", "properties": { "ogc_fid": 449, "name": "Ban gui", "name_zh": "åŠåœ­", "township": "Jiangkou", "UID_V": "V704" }, "geometry": { "type": "Point", "coordinates": [ 119.148, 25.4784 ] } },
{ "type": "Feature", "properties": { "ogc_fid": 450, "name": "Ban xi", "name_zh": "å‚æºª", "township": "Jiangkou", "UID_V": "V715" }, "geometry": { "type": "Point", "coordinates": [ 119.1478, 25.499 ] } },
{ "type": "Feature", "properties": { "ogc_fid": 454, "name": "Ding dun", "name_zh": "é¡¶å¢©", "township": "Jiangkou", "UID_V": "V680" }, "geometry": { "type": "Point", "coordinates": [ 119.184, 25.4781 ] } },
{ "type": "Feature", "properties": { "ogc_fid": 455, "name": "Ding jiu cuo", "name_zh": "é¡¶æ—§åŽ", "township": "Jiangkou", "UID_V": "V692" }, "geometry": { "type": "Point", "coordinates": [ 119.1641, 25.4849 ] } },
{ "type": "Feature", "properties": { "ogc_fid": 460, "name": "Ding xi po", "name_zh": "é¡¶è¥¿å¡", "township": "Jiangkou", "UID_V": "V702" }, "geometry": { "type": "Point", "coordinates": [ 119.1475, 25.4774 ] } },
{ "type": "Feature", "properties": { "ogc_fid": 462, "name": "Dong cai", "name_zh": "ä¸œè”¡", "township": "Jiangkou", "UID_V": "V688" }, "geometry": { "type": "Point", "coordinates": [ 119.1747, 25.4788 ] } },
{ "type": "Feature", "properties": { "ogc_fid": 465, "name": "Dong shi", "name_zh": "ä¸œæ–½", "township": "Jiangkou", "UID_V": "V685" }, "geometry": { "type": "Point", "coordinates": [ 119.1661, 25.4768 ] } },
{ "type": "Feature", "properties": { "ogc_fid": 466, "name": "Dong tian", "name_zh": "ä¸œç”°", "township": "Jiangkou", "UID_V": "V710" }, "geometry": { "type": "Point", "coordinates": [ 119.1734, 25.4947 ] } },
{ "type": "Feature", "properties": { "ogc_fid": 468, "name": "Du wei tou", "name_zh": "åº¦å›´å¤´", "township": "Jiangkou", "UID_V": "V664" }, "geometry": { "type": "Point", "coordinates": [ 119.1989, 25.4833 ] } },
{ "type": "Feature", "properties": { "ogc_fid": 471, "name": "Gang xia", "name_zh": "æ¸¯ä¸‹", "township": "Jiangkou", "UID_V": "V665" }, "geometry": { "type": "Point", "coordinates": [ 119.2023, 25.4863 ] } },
{ "type": "Feature", "properties": { "ogc_fid": 473, "name": "Gou shang", "name_zh": "æ²Ÿä¸Š", "township": "Jiangkou", "UID_V": "V673" }, "geometry": { "type": "Point", "coordinates": [ 119.1935, 25.4823 ] } },
{ "type": "Feature", "properties": { "ogc_fid": 474, "name": "Hou cheng", "name_zh": "åŽåŸ•", "township": "Jiangkou", "UID_V": "V705" }, "geometry": { "type": "Point", "coordinates": [ 119.148, 25.4831 ] } },
{ "type": "Feature", "properties": { "ogc_fid": 475, "name": "Hou cheng pu", "name_zh": "åŽåŸ•åŸ”", "township": "Jiangkou", "UID_V": "V678" }, "geometry": { "type": "Point", "coordinates": [ 119.1935, 25.478 ] } },
{ "type": "Feature", "properties": { "ogc_fid": 476, "name": "Hou dong", "name_zh": "åŽè‘£", "township": "Jiangkou", "UID_V": "V713" }, "geometry": { "type": "Point", "coordinates": [ 119.1536, 25.4924 ] } },
{ "type": "Feature", "properties": { "ogc_fid": 477, "name": "Hou dun", "name_zh": "åŽå¢©", "township": "Jiangkou", "UID_V": "V666" }, "geometry": { "type": "Point", "coordinates": [ 119.2018, 25.4878 ] } },
{ "type": "Feature", "properties": { "ogc_fid": 478, "name": "Hou fang", "name_zh": "åŽåŠ", "township": "Jiangkou", "UID_V": "V712" }, "geometry": { "type": "Point", "coordinates": [ 119.159, 25.4931 ] } },
{ "type": "Feature", "properties": { "ogc_fid": 485, "name": "Jie xia", "name_zh": "ç•Œä¸‹", "township": "Jiangkou", "UID_V": "V689" }, "geometry": { "type": "Point", "coordinates": [ 119.179, 25.4777 ] } },
{ "type": "Feature", "properties": { "ogc_fid": 486, "name": "Jing tou", "name_zh": "äº•å¤´", "township": "Jiangkou", "UID_V": "V709" }, "geometry": { "type": "Point", "coordinates": [ 119.1734, 25.4902 ] } },
{ "type": "Feature", "properties": { "ogc_fid": 487, "name": "Ke tang", "name_zh": "å¯å¡˜", "township": "Jiangkou", "UID_V": "V719" }, "geometry": { "type": "Point", "coordinates": [ 119.1447, 25.493 ] } },
{ "type": "Feature", "properties": { "ogc_fid": 488, "name": "Li cuo", "name_zh": "æŽåŽ", "township": "Jiangkou", "UID_V": "V675" }, "geometry": { "type": "Point", "coordinates": [ 119.1914, 25.479 ] } },
{ "type": "Feature", "properties": { "ogc_fid": 489, "name": "Liang cuo", "name_zh": "æ¢åŽ", "township": "Jiangkou", "UID_V": "V716" }, "geometry": { "type": "Point", "coordinates": [ 119.1422, 25.5019 ] } },
{ "type": "Feature", "properties": { "ogc_fid": 490, "name": "Lin ban", "name_zh": "æž—å‚", "township": "Jiangkou", "UID_V": "V717" }, "geometry": { "type": "Point", "coordinates": [ 119.1373, 25.4984 ] } },
{ "type": "Feature", "properties": { "ogc_fid": 493, "name": "Liu jing", "name_zh": "åˆ˜äº•", "township": "Jiangkou", "UID_V": "V662" }, "geometry": { "type": "Point", "coordinates": [ 119.199, 25.4849 ] } },
{ "type": "Feature", "properties": { "ogc_fid": 497, "name": "Wu dun", "name_zh": "å´å¢©", "township": "Jiangkou", "UID_V": "V682" }, "geometry": { "type": "Point", "coordinates": [ 119.1809, 25.4819 ] } },
{ "type": "Feature", "properties": { "ogc_fid": 500, "name": "Pu cheng", "name_zh": "åŸ”åŸ•", "township": "Jiangkou", "UID_V": "V686" }, "geometry": { "type": "Point", "coordinates": [ 119.1678, 25.4776 ] } },
{ "type": "Feature", "properties": { "ogc_fid": 501, "name": "Qi gan cuo", "name_zh": "æ——æ†åŽ", "township": "Jiangkou", "UID_V": "V693" }, "geometry": { "type": "Point", "coordinates": [ 119.1633, 25.4836 ] } },
{ "type": "Feature", "properties": { "ogc_fid": 504, "name": "Qian hui", "name_zh": "å‰ä¼š", "township": "Jiangkou", "UID_V": "V663" }, "geometry": { "type": "Point", "coordinates": [ 119.2019, 25.4831 ] } },
{ "type": "Feature", "properties": { "ogc_fid": 505, "name": "Qian mian", "name_zh": "å‰é¢", "township": "Jiangkou", "UID_V": "V679" }, "geometry": { "type": "Point", "coordinates": [ 119.188, 25.4785 ] } },
{ "type": "Feature", "properties": { "ogc_fid": 506, "name": "Qian wang", "name_zh": "å‰çŽ‹", "township": "Jiangkou", "UID_V": "V668" }, "geometry": { "type": "Point", "coordinates": [ 119.1855, 25.4939 ] } },
{ "type": "Feature", "properties": { "ogc_fid": 508, "name": "Qiao tou wai", "name_zh": "æ¡¥å¤´å¤–", "township": "Jiangkou", "UID_V": "V700" }, "geometry": { "type": "Point", "coordinates": [ 119.1483, 25.4755 ] } },
{ "type": "Feature", "properties": { "ogc_fid": 512, "name": "San zhang cuo", "name_zh": "ä¸‰å¼ åŽ", "township": "Jiangkou", "UID_V": "V697" }, "geometry": { "type": "Point", "coordinates": [ 119.1572, 25.4765 ] } },
{ "type": "Feature", "properties": { "ogc_fid": 514, "name": "Shan tou", "name_zh": "å±±å¤´", "township": "Jiangkou", "UID_V": "V670" }, "geometry": { "type": "Point", "coordinates": [ 119.1834, 25.4942 ] } },
{ "type": "Feature", "properties": { "ogc_fid": 517, "name": "Shang cai", "name_zh": "ä¸Šè”¡", "township": "Jiangkou", "UID_V": "V714" }, "geometry": { "type": "Point", "coordinates": [ 119.1606, 25.4894 ] } },
{ "type": "Feature", "properties": { "ogc_fid": 518, "name": "Hou ting", "name_zh": "åŽäº­", "township": "Jiangkou", "UID_V": "V690" }, "geometry": { "type": "Point", "coordinates": [ 119.1653, 25.4808 ] } },
{ "type": "Feature", "properties": { "ogc_fid": 519, "name": "Shang lin", "name_zh": "ä¸Šæž—", "township": "Jiangkou", "UID_V": "V684" }, "geometry": { "type": "Point", "coordinates": [ 119.1673, 25.4808 ] } },
{ "type": "Feature", "properties": { "ogc_fid": 521, "name": "Shi hui", "name_zh": "çŸ³ç°", "township": "Jiangkou", "UID_V": "V669" }, "geometry": { "type": "Point", "coordinates": [ 119.1762, 25.4939 ] } },
{ "type": "Feature", "properties": { "ogc_fid": 524, "name": "Shi shi", "name_zh": "çŸ³ç‹®", "township": "Jiangkou", "UID_V": "V672" }, "geometry": { "type": "Point", "coordinates": [ 119.1807, 25.5091 ] } },
{ "type": "Feature", "properties": { "ogc_fid": 531, "name": "Tie zao", "name_zh": "é“ç¶", "township": "Jiangkou", "UID_V": "V695" }, "geometry": { "type": "Point", "coordinates": [ 119.1541, 25.4835 ] } },
{ "type": "Feature", "properties": { "ogc_fid": 532, "name": "Wu dun yang", "name_zh": "å´å¢©æ´‹", "township": "Jiangkou", "UID_V": "V691" }, "geometry": { "type": "Point", "coordinates": [ 119.1779, 25.4881 ] } },
{ "type": "Feature", "properties": { "ogc_fid": 535, "name": "Xi liu", "name_zh": "è¥¿åˆ˜", "township": "Jiangkou", "UID_V": "V687" }, "geometry": { "type": "Point", "coordinates": [ 119.1589, 25.4737 ] } },
{ "type": "Feature", "properties": { "ogc_fid": 537, "name": "Xia bang wei", "name_zh": "ä¸‹é‚¦å°¾", "township": "Jiangkou", "UID_V": "V707" }, "geometry": { "type": "Point", "coordinates": [ 119.1682, 25.4917 ] } },
{ "type": "Feature", "properties": { "ogc_fid": 538, "name": "Xia dun", "name_zh": "ä¸‹å¢©", "township": "Jiangkou", "UID_V": "V681" }, "geometry": { "type": "Point", "coordinates": [ 119.1839, 25.4747 ] } },
{ "type": "Feature", "properties": { "ogc_fid": 539, "name": "Xia hou du", "name_zh": "ä¸‹åŽåº¦", "township": "Jiangkou", "UID_V": "V661" }, "geometry": { "type": "Point", "coordinates": [ 119.1979, 25.4914 ] } },
{ "type": "Feature", "properties": { "ogc_fid": 540, "name": "Xia liu zhuang", "name_zh": "ä¸‹åˆ˜åº„", "township": "Jiangkou", "UID_V": "V721" }, "geometry": { "type": "Point", "coordinates": [ 119.1347, 25.4911 ] } },
{ "type": "Feature", "properties": { "ogc_fid": 541, "name": "Xiao yi", "name_zh": "å­ä¹‰", "township": "Jiangkou", "UID_V": "V660" }, "geometry": { "type": "Point", "coordinates": [ 119.202, 25.4891 ] } },
{ "type": "Feature", "properties": { "ogc_fid": 542, "name": "Xia xi po", "name_zh": "ä¸‹è¥¿å¡", "township": "Jiangkou", "UID_V": "V703" }, "geometry": { "type": "Point", "coordinates": [ 119.1538, 25.4794 ] } },
{ "type": "Feature", "properties": { "ogc_fid": 543, "name": "Xia xiao", "name_zh": "ä¸‹è‚–", "township": "Jiangkou", "UID_V": "V706" }, "geometry": { "type": "Point", "coordinates": [ 119.1669, 25.4881 ] } },
{ "type": "Feature", "properties": { "ogc_fid": 547, "name": "Xin dian", "name_zh": "æ–°åº—", "township": "Jiangkou", "UID_V": "V676" }, "geometry": { "type": "Point", "coordinates": [ 119.1882, 25.4871 ] } },
{ "type": "Feature", "properties": { "ogc_fid": 548, "name": "Xin dun", "name_zh": "æ–°å¢©", "township": "Jiangkou", "UID_V": "V677" }, "geometry": { "type": "Point", "coordinates": [ 119.1917, 25.4769 ] } },
{ "type": "Feature", "properties": { "ogc_fid": 549, "name": "Xin jing", "name_zh": "æ–°äº•", "township": "Jiangkou", "UID_V": "V667" }, "geometry": { "type": "Point", "coordinates": [ 119.2004, 25.4874 ] } },
{ "type": "Feature", "properties": { "ogc_fid": 550, "name": "You dun", "name_zh": "æ¸¸å¢©", "township": "Jiangkou", "UID_V": "V683" }, "geometry": { "type": "Point", "coordinates": [ 119.1767, 25.4835 ] } },
{ "type": "Feature", "properties": { "ogc_fid": 551, "name": "You lan", "name_zh": "æ²¹å²š", "township": "Jiangkou", "UID_V": "V671" }, "geometry": { "type": "Point", "coordinates": [ 119.1903, 25.4928 ] } },
{ "type": "Feature", "properties": { "ogc_fid": 555, "name": "Yuan yang cuo", "name_zh": "é¸³é¸¯åŽ", "township": "Jiangkou", "UID_V": "V701" }, "geometry": { "type": "Point", "coordinates": [ 119.1542, 25.4773 ] } },
{ "type": "Feature", "properties": { "ogc_fid": 557, "name": "Zhe che", "name_zh": "è”—è½¦", "township": "Jiangkou", "UID_V": "V674" }, "geometry": { "type": "Point", "coordinates": [ 119.1937, 25.4852 ] } },
{ "type": "Feature", "properties": { "ogc_fid": 559, "name": "Zhong zhai", "name_zh": "ä¸­å®…", "township": "Jiangkou", "UID_V": "V711" }, "geometry": { "type": "Point", "coordinates": [ 119.1634, 25.4952 ] } },
{ "type": "Feature", "properties": { "ogc_fid": 561, "name": "Bai du", "name_zh": "ç™½æœ", "township": "Xitianwei", "UID_V": "V436" }, "geometry": { "type": "Point", "coordinates": [ 119.0205, 25.481 ] } },
{ "type": "Feature", "properties": { "ogc_fid": 562, "name": "Ban lu dian", "name_zh": "åŠè·¯åº—", "township": "Xitianwei", "UID_V": "V462" }, "geometry": { "type": "Point", "coordinates": [ 119.0625, 25.4846 ] } },
{ "type": "Feature", "properties": { "ogc_fid": 566, "name": "Bei jiao", "name_zh": "åŒ—éƒŠ", "township": "Xitianwei", "UID_V": "V474" }, "geometry": { "type": "Point", "coordinates": [ 119.0367, 25.463 ] } },
{ "type": "Feature", "properties": { "ogc_fid": 567, "name": "Bei shan", "name_zh": "åŒ—å±±", "township": "Xitianwei", "UID_V": "V469" }, "geometry": { "type": "Point", "coordinates": [ 119.0519, 25.486 ] } },
{ "type": "Feature", "properties": { "ogc_fid": 569, "name": "Cheng lin", "name_zh": "æ¾„æž—", "township": "Xitianwei", "UID_V": "V454" }, "geometry": { "type": "Point", "coordinates": [ 119.047, 25.4896 ] } },
{ "type": "Feature", "properties": { "ogc_fid": 571, "name": "Da gou", "name_zh": "å¤§æ²Ÿ", "township": "Xitianwei", "UID_V": "V476" }, "geometry": { "type": "Point", "coordinates": [ 119.0505, 25.4702 ] } },
{ "type": "Feature", "properties": { "ogc_fid": 572, "name": "Da qiao tou", "name_zh": "å¤§æ¡¥å¤´", "township": "Xitianwei", "UID_V": "V465" }, "geometry": { "type": "Point", "coordinates": [ 119.0528, 25.4773 ] } },
{ "type": "Feature", "properties": { "ogc_fid": 575, "name": "Dong hu", "name_zh": "æ´žæ¹–", "township": "Xitianwei", "UID_V": "V446" }, "geometry": { "type": "Point", "coordinates": [ 119.0355, 25.4781 ] } },
{ "type": "Feature", "properties": { "ogc_fid": 576, "name": "Dong huang", "name_zh": "ä¸œé»„", "township": "Xitianwei", "UID_V": "V463" }, "geometry": { "type": "Point", "coordinates": [ 119.0622, 25.487 ] } },
{ "type": "Feature", "properties": { "ogc_fid": 578, "name": "Xi tian wei", "name_zh": "è¥¿å¤©å°¾é•‡", "township": "Xitianwei", "UID_V": "V457" }, "geometry": { "type": "Point", "coordinates": [ 119.0437, 25.4889 ] } },
{ "type": "Feature", "properties": { "ogc_fid": 579, "name": "Guan tang", "name_zh": "å®˜å¡˜", "township": "Xitianwei", "UID_V": "V456" }, "geometry": { "type": "Point", "coordinates": [ 119.0436, 25.4963 ] } },
{ "type": "Feature", "properties": { "ogc_fid": 580, "name": "Xia yu", "name_zh": "ä¸‹å®‡", "township": "Xitianwei", "UID_V": "V455" }, "geometry": { "type": "Point", "coordinates": [ 119.0404, 25.4944 ] } },
{ "type": "Feature", "properties": { "ogc_fid": 582, "name": "Yi men", "name_zh": "ä¹‰é—¨", "township": "Chengjiao", "UID_V": "V340" }, "geometry": { "type": "Point", "coordinates": [ 119.018, 25.4473 ] } },
{ "type": "Feature", "properties": { "ogc_fid": 584, "name": "Chen men dou", "name_zh": "è¾°é—¨å…œ", "township": "Chengjiao", "UID_V": "V338" }, "geometry": { "type": "Point", "coordinates": [ 119.021, 25.4413 ] } },
{ "type": "Feature", "properties": { "ogc_fid": 586, "name": "Yan shou", "name_zh": "å»¶å¯¿", "township": "Chengjiao", "UID_V": "V331" }, "geometry": { "type": "Point", "coordinates": [ 119.0205, 25.4692 ] } },
{ "type": "Feature", "properties": { "ogc_fid": 587, "name": "Xia zheng", "name_zh": "ä¸‹éƒ‘", "township": "Chengjiao", "UID_V": "V427" }, "geometry": { "type": "Point", "coordinates": [ 119.0093, 25.4665 ] } },
{ "type": "Feature", "properties": { "ogc_fid": 588, "name": "Jiao dong", "name_zh": "éƒŠä¸œ", "township": "Chengjiao", "UID_V": "V483" }, "geometry": { "type": "Point", "coordinates": [ 119.0539, 25.4566 ] } },
{ "type": "Feature", "properties": { "ogc_fid": 589, "name": "Jiao xi", "name_zh": "éƒŠè¥¿", "township": "Chengjiao", "UID_V": "V484" }, "geometry": { "type": "Point", "coordinates": [ 119.052, 25.4572 ] } },
{ "type": "Feature", "properties": { "ogc_fid": 590, "name": "Gou xi", "name_zh": "æ²Ÿè¥¿", "township": "Chengjiao", "UID_V": "V372" }, "geometry": { "type": "Point", "coordinates": [ 119.0569, 25.4391 ] } },
{ "type": "Feature", "properties": { "ogc_fid": 591, "name": "Xi ting", "name_zh": "è¥¿äº­", "township": "Chengjiao", "UID_V": "V395" }, "geometry": { "type": "Point", "coordinates": [ 119.0532, 25.4425 ] } },
{ "type": "Feature", "properties": { "ogc_fid": 592, "name": "Jiao dong", "name_zh": "éƒŠä¸œ", "township": "Chengjiao", "UID_V": "V357" }, "geometry": { "type": "Point", "coordinates": [ 119.0421, 25.4395 ] } },
{ "type": "Feature", "properties": { "ogc_fid": 593, "name": "Nan ji", "name_zh": "å—ç®•", "township": "Chengjiao", "UID_V": "V365" }, "geometry": { "type": "Point", "coordinates": [ 119.0526, 25.418 ] } },
{ "type": "Feature", "properties": { "ogc_fid": 594, "name": "Qian pu", "name_zh": "å‰æµ¦", "township": "Chengjiao", "UID_V": "V353" }, "geometry": { "type": "Point", "coordinates": [ 119.0379, 25.4319 ] } },
{ "type": "Feature", "properties": { "ogc_fid": 595, "name": "Pu tou", "name_zh": "æµ¦å¤´", "township": "Chengjiao", "UID_V": "V379" }, "geometry": { "type": "Point", "coordinates": [ 119.0256, 25.4714 ] } },
{ "type": "Feature", "properties": { "ogc_fid": 596, "name": "Xia dun", "name_zh": "ä¸‹å¢©", "township": "Chengjiao", "UID_V": "V349" }, "geometry": { "type": "Point", "coordinates": [ 119.0238, 25.4317 ] } },
{ "type": "Feature", "properties": { "ogc_fid": 597, "name": "Xi quan tou", "name_zh": "æºªæ³‰å¤´", "township": "Chengjiao", "UID_V": "V040" }, "geometry": { "type": "Point", "coordinates": [ 119.0288, 25.4181 ] } },
{ "type": "Feature", "properties": { "ogc_fid": 598, "name": "She Cuo", "name_zh": "ç¤¾åŽ", "township": "Chengjiao", "UID_V": "V309" }, "geometry": { "type": "Point", "coordinates": [ 119.0088, 25.4172 ] } },
{ "type": "Feature", "properties": { "ogc_fid": 599, "name": "Xia huang", "name_zh": "ä¸‹é»„", "township": "Chengjiao", "UID_V": "V303" }, "geometry": { "type": "Point", "coordinates": [ 119.0177, 25.4158 ] } },
{ "type": "Feature", "properties": { "ogc_fid": 600, "name": "Xia du", "name_zh": "ä¸‹åº¦", "township": "Chengjiao", "UID_V": "V304" }, "geometry": { "type": "Point", "coordinates": [ 119.0157, 25.4174 ] } },
{ "type": "Feature", "properties": { "ogc_fid": 602, "name": "Hou dun", "name_zh": "åŽå¢©", "township": "Chengjiao", "UID_V": "V308" }, "geometry": { "type": "Point", "coordinates": [ 119.0191, 25.4226 ] } },
{ "type": "Feature", "properties": { "ogc_fid": 603, "name": "Tie zao", "name_zh": "é“ç¶", "township": "Chengjiao", "UID_V": "V003" }, "geometry": { "type": "Point", "coordinates": [ 118.9845, 25.4044 ] } },
{ "type": "Feature", "properties": { "ogc_fid": 605, "name": "Xia pu", "name_zh": "ä¸‹å¡", "township": "Chengjiao", "UID_V": "V333" }, "geometry": { "type": "Point", "coordinates": [ 119.0188, 25.4705 ] } },
{ "type": "Feature", "properties": { "ogc_fid": 606, "name": "Xi tou", "name_zh": "è¥¿å¤´", "township": "Chengjiao", "UID_V": "V334" }, "geometry": { "type": "Point", "coordinates": [ 119.0163, 25.4648 ] } },
{ "type": "Feature", "properties": { "ogc_fid": 609, "name": "Zhu xiang", "name_zh": "æœ±è¡–", "township": "Chengjiao", "UID_V": "V479" }, "geometry": { "type": "Point", "coordinates": [ 119.0511, 25.4553 ] } },
{ "type": "Feature", "properties": { "ogc_fid": 611, "name": "Nan keng", "name_zh": "å—å‘", "township": "Wutang", "UID_V": "V580" }, "geometry": { "type": "Point", "coordinates": [ 119.0931, 25.4816 ] } },
{ "type": "Feature", "properties": { "ogc_fid": 612, "name": "Nan pu", "name_zh": "å—åŸ”", "township": "Wutang", "UID_V": "V590" }, "geometry": { "type": "Point", "coordinates": [ 119.1131, 25.5033 ] } },
{ "type": "Feature", "properties": { "ogc_fid": 614, "name": "Lin feng", "name_zh": "æž—å³°", "township": "Xitianwei", "UID_V": "V451" }, "geometry": { "type": "Point", "coordinates": [ 119.0459, 25.5025 ] } },
{ "type": "Feature", "properties": { "ogc_fid": 616, "name": "Ge long", "name_zh": "éš”åž„", "township": "Xitianwei", "UID_V": "V546" }, "geometry": { "type": "Point", "coordinates": [ 119.0516, 25.4913 ] } },
{ "type": "Feature", "properties": { "ogc_fid": 617, "name": "Ge long", "name_zh": "éš”åž„", "township": "Xitianwei", "UID_V": "V438" }, "geometry": { "type": "Point", "coordinates": [ 119.0306, 25.4814 ] } },
{ "type": "Feature", "properties": { "ogc_fid": 619, "name": "Gu shan", "name_zh": "å¤å±±", "township": "Xitianwei", "UID_V": "V444" }, "geometry": { "type": "Point", "coordinates": [ 119.0275, 25.4811 ] } },
{ "type": "Feature", "properties": { "ogc_fid": 622, "name": "Han tou", "name_zh": "æ±‰å¤´", "township": "Xitianwei", "UID_V": "V443" }, "geometry": { "type": "Point", "coordinates": [ 119.0221, 25.484 ] } },
{ "type": "Feature", "properties": { "ogc_fid": 623, "name": "Hou dun", "name_zh": "åŽå¢©", "township": "Xitianwei", "UID_V": "V431" }, "geometry": { "type": "Point", "coordinates": [ 119.0308, 25.4883 ] } },
{ "type": "Feature", "properties": { "ogc_fid": 624, "name": "Hou huang", "name_zh": "åŽé»„", "township": "Xitianwei", "UID_V": "V548" }, "geometry": { "type": "Point", "coordinates": [ 119.0601, 25.4937 ] } },
{ "type": "Feature", "properties": { "ogc_fid": 625, "name": "Hou lu", "name_zh": "åŽç‚‰", "township": "Xitianwei", "UID_V": "V473" }, "geometry": { "type": "Point", "coordinates": [ 119.0409, 25.4647 ] } },
{ "type": "Feature", "properties": { "ogc_fid": 626, "name": "Hou pu", "name_zh": "åŽåŸ”", "township": "Xitianwei", "UID_V": "V449" }, "geometry": { "type": "Point", "coordinates": [ 119.0381, 25.5007 ] } },
{ "type": "Feature", "properties": { "ogc_fid": 627, "name": "Shang huang", "name_zh": "ä¸Šé»„", "township": "Xitianwei", "UID_V": "V478" }, "geometry": { "type": "Point", "coordinates": [ 119.047, 25.4646 ] } },
{ "type": "Feature", "properties": { "ogc_fid": 628, "name": "Shang huang", "name_zh": "ä¸Šé»„", "township": "Xitianwei", "UID_V": "V450" }, "geometry": { "type": "Point", "coordinates": [ 119.0328, 25.5007 ] } },
{ "type": "Feature", "properties": { "ogc_fid": 629, "name": "Hou ting", "name_zh": "åŽäº­", "township": "Xitianwei", "UID_V": "V466" }, "geometry": { "type": "Point", "coordinates": [ 119.0462, 25.4721 ] } },
{ "type": "Feature", "properties": { "ogc_fid": 634, "name": "Jiao xia", "name_zh": "éƒŠä¸‹", "township": "Xitianwei", "UID_V": "V475" }, "geometry": { "type": "Point", "coordinates": [ 119.0494, 25.468 ] } },
{ "type": "Feature", "properties": { "ogc_fid": 635, "name": "Jing tou", "name_zh": "äº•å¤´", "township": "Xitianwei", "UID_V": "V541" }, "geometry": { "type": "Point", "coordinates": [ 119.0528, 25.5037 ] } },
{ "type": "Feature", "properties": { "ogc_fid": 636, "name": "Hou yang", "name_zh": "åŽæ´‹", "township": "Xitianwei", "UID_V": "V545" }, "geometry": { "type": "Point", "coordinates": [ 119.0559, 25.4924 ] } },
{ "type": "Feature", "properties": { "ogc_fid": 637, "name": "Xia keng tou", "name_zh": "ä¸‹å‘å¤´", "township": "Xitianwei", "UID_V": "V453" }, "geometry": { "type": "Point", "coordinates": [ 119.0423, 25.5055 ] } },
{ "type": "Feature", "properties": { "ogc_fid": 643, "name": "Chen dun", "name_zh": "é™ˆå¢©", "township": "Xitianwei", "UID_V": "V472" }, "geometry": { "type": "Point", "coordinates": [ 119.0416, 25.4672 ] } },
{ "type": "Feature", "properties": { "ogc_fid": 645, "name": "Xin pu", "name_zh": "æ–°æµ¦", "township": "Hanjiang", "UID_V": "V659" }, "geometry": { "type": "Point", "coordinates": [ 119.1165, 25.4319 ] } },
{ "type": "Feature", "properties": { "ogc_fid": 648, "name": "Dao mei", "name_zh": "é“ç¾Ž", "township": "Huangshi", "UID_V": "V151" }, "geometry": { "type": "Point", "coordinates": [ 119.082, 25.3808 ] } },
{ "type": "Feature", "properties": { "ogc_fid": 649, "name": "Xin tang", "name_zh": "æ–°å¡˜", "township": "Quqiao", "UID_V": "V277" }, "geometry": { "type": "Point", "coordinates": [ 119.0368, 25.3607 ] } },
{ "type": "Feature", "properties": { "ogc_fid": 650, "name": "Gou wei", "name_zh": "æ²Ÿå°¾", "township": "Quqiao", "UID_V": "V278" }, "geometry": { "type": "Point", "coordinates": [ 119.0416, 25.3568 ] } },
{ "type": "Feature", "properties": { "ogc_fid": 651, "name": "Yuan ding", "name_zh": "å›­é¡¶", "township": "Quqiao", "UID_V": "V049" }, "geometry": { "type": "Point", "coordinates": [ 119.0411, 25.42 ] } },
{ "type": "Feature", "properties": { "ogc_fid": 652, "name": "Bai cheng", "name_zh": "ç™½åŸ•", "township": "Quqiao", "UID_V": "V044" }, "geometry": { "type": "Point", "coordinates": [ 119.0397, 25.4127 ] } },
{ "type": "Feature", "properties": { "ogc_fid": 653, "name": "Qu bian", "name_zh": "å±ˆè¾¹", "township": "Quqiao", "UID_V": "V046" }, "geometry": { "type": "Point", "coordinates": [ 119.0431, 25.4142 ] } },
{ "type": "Feature", "properties": { "ogc_fid": 654, "name": "Bei cuo", "name_zh": "åŒ—åŽ", "township": "Quqiao", "UID_V": "V057" }, "geometry": { "type": "Point", "coordinates": [ 119.0412, 25.41 ] } },
{ "type": "Feature", "properties": { "ogc_fid": 655, "name": "Pu wei", "name_zh": "åŸ”å°¾", "township": "Quqiao", "UID_V": "V050" }, "geometry": { "type": "Point", "coordinates": [ 119.0474, 25.4118 ] } },
{ "type": "Feature", "properties": { "ogc_fid": 657, "name": "Hou peng", "name_zh": "åŽå½­", "township": "Quqiao", "UID_V": "V052" }, "geometry": { "type": "Point", "coordinates": [ 119.0482, 25.4091 ] } },
{ "type": "Feature", "properties": { "ogc_fid": 658, "name": "Hou hu", "name_zh": "åŽæ¹–", "township": "Quqiao", "UID_V": "V053" }, "geometry": { "type": "Point", "coordinates": [ 119.0449, 25.4066 ] } },
{ "type": "Feature", "properties": { "ogc_fid": 659, "name": "Hou zhou", "name_zh": "åŽå‘¨", "township": "Quqiao", "UID_V": "V051" }, "geometry": { "type": "Point", "coordinates": [ 119.0479, 25.407 ] } },
{ "type": "Feature", "properties": { "ogc_fid": 660, "name": "Xi cuo", "name_zh": "è¥¿åŽ", "township": "Quqiao", "UID_V": "V056" }, "geometry": { "type": "Point", "coordinates": [ 119.0417, 25.4046 ] } },
{ "type": "Feature", "properties": { "ogc_fid": 661, "name": "Cuo bing", "name_zh": "åŽæŸ„", "township": "Quqiao", "UID_V": "V063" }, "geometry": { "type": "Point", "coordinates": [ 119.0472, 25.3931 ] } },
{ "type": "Feature", "properties": { "ogc_fid": 662, "name": "Yang cheng", "name_zh": "æ´‹åŸ•", "township": "Quqiao", "UID_V": "V087" }, "geometry": { "type": "Point", "coordinates": [ 119.0499, 25.4022 ] } },
{ "type": "Feature", "properties": { "ogc_fid": 663, "name": "Zhang qiao", "name_zh": "æ¨Ÿæ¡¥", "township": "Quqiao", "UID_V": "V086" }, "geometry": { "type": "Point", "coordinates": [ 119.0516, 25.3963 ] } },
{ "type": "Feature", "properties": { "ogc_fid": 665, "name": "Dong dian", "name_zh": "ä¸œåº—", "township": "Quqiao", "UID_V": "V061" }, "geometry": { "type": "Point", "coordinates": [ 119.0416, 25.3964 ] } },
{ "type": "Feature", "properties": { "ogc_fid": 667, "name": "Yao gou", "name_zh": "è…°æ²Ÿ", "township": "Quqiao", "UID_V": "V069" }, "geometry": { "type": "Point", "coordinates": [ 119.0422, 25.3844 ] } },
{ "type": "Feature", "properties": { "ogc_fid": 668, "name": "Xi jiao", "name_zh": "è¥¿è§’", "township": "Quqiao", "UID_V": "V071" }, "geometry": { "type": "Point", "coordinates": [ 119.0389, 25.3855 ] } },
{ "type": "Feature", "properties": { "ogc_fid": 669, "name": "Pei wei", "name_zh": "æ²›å°¾", "township": "Quqiao", "UID_V": "V070" }, "geometry": { "type": "Point", "coordinates": [ 119.0482, 25.3867 ] } },
{ "type": "Feature", "properties": { "ogc_fid": 670, "name": "Hou li", "name_zh": "åŽåˆ©", "township": "Quqiao", "UID_V": "V085" }, "geometry": { "type": "Point", "coordinates": [ 119.0449, 25.3796 ] } },
{ "type": "Feature", "properties": { "ogc_fid": 671, "name": "Shang dun", "name_zh": "ä¸Šå¢©", "township": "Quqiao", "UID_V": "V068" }, "geometry": { "type": "Point", "coordinates": [ 119.0396, 25.3829 ] } },
{ "type": "Feature", "properties": { "ogc_fid": 672, "name": "Xia ting", "name_zh": "ä¸‹äº­", "township": "Quqiao", "UID_V": "V084" }, "geometry": { "type": "Point", "coordinates": [ 119.0384, 25.3768 ] } },
{ "type": "Feature", "properties": { "ogc_fid": 673, "name": "Xi li", "name_zh": "è¥¿åˆ©", "township": "Quqiao", "UID_V": "V083" }, "geometry": { "type": "Point", "coordinates": [ 119.0369, 25.3769 ] } },
{ "type": "Feature", "properties": { "ogc_fid": 674, "name": "Ding cuo", "name_zh": "é¡¶åŽ", "township": "Quqiao", "UID_V": "V080" }, "geometry": { "type": "Point", "coordinates": [ 119.0435, 25.3746 ] } },
{ "type": "Feature", "properties": { "ogc_fid": 675, "name": "Xia song", "name_zh": "ä¸‹å®‹", "township": "Quqiao", "UID_V": "V082" }, "geometry": { "type": "Point", "coordinates": [ 119.0459, 25.3737 ] } },
{ "type": "Feature", "properties": { "ogc_fid": 676, "name": "Ding song", "name_zh": "é¡¶å®‹", "township": "Quqiao", "UID_V": "V081" }, "geometry": { "type": "Point", "coordinates": [ 119.0466, 25.3819 ] } },
{ "type": "Feature", "properties": { "ogc_fid": 681, "name": "Shan xiang", "name_zh": "å–„ä¹¡", "township": "Quqiao", "UID_V": "V079" }, "geometry": { "type": "Point", "coordinates": [ 119.038, 25.3687 ] } },
{ "type": "Feature", "properties": { "ogc_fid": 682, "name": "Shan ping", "name_zh": "å±±åª", "township": "Quqiao", "UID_V": "V077" }, "geometry": { "type": "Point", "coordinates": [ 119.0305, 25.3745 ] } },
{ "type": "Feature", "properties": { "ogc_fid": 683, "name": "Hou xiang", "name_zh": "åŽå··", "township": "Quqiao", "UID_V": "V075" }, "geometry": { "type": "Point", "coordinates": [ 119.0279, 25.3777 ] } },
{ "type": "Feature", "properties": { "ogc_fid": 685, "name": "Zhong jing", "name_zh": "ä¸­å¢ƒ", "township": "Quqiao", "UID_V": "V072" }, "geometry": { "type": "Point", "coordinates": [ 119.0265, 25.3804 ] } },
{ "type": "Feature", "properties": { "ogc_fid": 686, "name": "Xia he", "name_zh": "ä¸‹ä½•", "township": "Quqiao", "UID_V": "V073" }, "geometry": { "type": "Point", "coordinates": [ 119.0235, 25.3828 ] } },
{ "type": "Feature", "properties": { "ogc_fid": 687, "name": "Qu qiao", "name_zh": "æ¸ æ¡¥", "township": "Quqiao", "UID_V": "V030" }, "geometry": { "type": "Point", "coordinates": [ 119.0207, 25.3859 ] } },
{ "type": "Feature", "properties": { "ogc_fid": 688, "name": "Zhen wei", "name_zh": "åœ³å°¾", "township": "Quqiao", "UID_V": "V036" }, "geometry": { "type": "Point", "coordinates": [ 119.0174, 25.3839 ] } },
{ "type": "Feature", "properties": { "ogc_fid": 689, "name": "Hong shan", "name_zh": "çº¢å±±", "township": "Quqiao", "UID_V": "V078" }, "geometry": { "type": "Point", "coordinates": [ 119.0174, 25.379 ] } },
{ "type": "Feature", "properties": { "ogc_fid": 690, "name": "Yun zhuang", "name_zh": "äº‘åº„", "township": "Quqiao", "UID_V": "V010" }, "geometry": { "type": "Point", "coordinates": [ 119.0107, 25.3866 ] } },
{ "type": "Feature", "properties": { "ogc_fid": 691, "name": "Xia qu tou", "name_zh": "ä¸‹æ¸ å¤´", "township": "Quqiao", "UID_V": "V025" }, "geometry": { "type": "Point", "coordinates": [ 119.0151, 25.3888 ] } },
{ "type": "Feature", "properties": { "ogc_fid": 692, "name": "Du bian", "name_zh": "åº¦è¾¹", "township": "Quqiao", "UID_V": "V033" }, "geometry": { "type": "Point", "coordinates": [ 119.0162, 25.392 ] } },
{ "type": "Feature", "properties": { "ogc_fid": 695, "name": "Xia dun", "name_zh": "ä¸‹å¢©", "township": "Quqiao", "UID_V": "V029" }, "geometry": { "type": "Point", "coordinates": [ 119.0332, 25.3917 ] } },
{ "type": "Feature", "properties": { "ogc_fid": 700, "name": "Hou ting", "name_zh": "åŽäº­", "township": "Quqiao", "UID_V": "V035" }, "geometry": { "type": "Point", "coordinates": [ 119.0231, 25.3945 ] } },
{ "type": "Feature", "properties": { "ogc_fid": 701, "name": "Wei cuo", "name_zh": "å°¾åŽ", "township": "Quqiao", "UID_V": "V058" }, "geometry": { "type": "Point", "coordinates": [ 119.0433, 25.4041 ] } },
{ "type": "Feature", "properties": { "ogc_fid": 702, "name": "Yang wei", "name_zh": "æ´‹å°¾", "township": "Quqiao", "UID_V": "V037" }, "geometry": { "type": "Point", "coordinates": [ 119.0293, 25.3951 ] } },
{ "type": "Feature", "properties": { "ogc_fid": 704, "name": "Gou kou", "name_zh": "æ²Ÿå£", "township": "Quqiao", "UID_V": "V011" }, "geometry": { "type": "Point", "coordinates": [ 119.0076, 25.3935 ] } },
{ "type": "Feature", "properties": { "ogc_fid": 705, "name": "Gou xi", "name_zh": "æ²Ÿè¥¿", "township": "Quqiao", "UID_V": "V013" }, "geometry": { "type": "Point", "coordinates": [ 119.0066, 25.3996 ] } },
{ "type": "Feature", "properties": { "ogc_fid": 706, "name": "Gou dong", "name_zh": "æ²Ÿä¸œ", "township": "Quqiao", "UID_V": "V012" }, "geometry": { "type": "Point", "coordinates": [ 119.0091, 25.3989 ] } },
{ "type": "Feature", "properties": { "ogc_fid": 707, "name": "Qian dun", "name_zh": "å‰å¢©", "township": "Quqiao", "UID_V": "V014" }, "geometry": { "type": "Point", "coordinates": [ 119.0133, 25.3967 ] } },
{ "type": "Feature", "properties": { "ogc_fid": 708, "name": "Zhong dun", "name_zh": "ä¸­å¢©", "township": "Quqiao", "UID_V": "V015" }, "geometry": { "type": "Point", "coordinates": [ 119.0133, 25.3982 ] } },
{ "type": "Feature", "properties": { "ogc_fid": 709, "name": "Hou dun", "name_zh": "åŽå¢©", "township": "Quqiao", "UID_V": "V016" }, "geometry": { "type": "Point", "coordinates": [ 119.0132, 25.3997 ] } },
{ "type": "Feature", "properties": { "ogc_fid": 710, "name": "Nan Wu tang", "name_zh": "å—æ¢§å¡˜", "township": "Quqiao", "UID_V": "V024" }, "geometry": { "type": "Point", "coordinates": [ 119.0183, 25.401 ] } },
{ "type": "Feature", "properties": { "ogc_fid": 711, "name": "Xi dong", "name_zh": "æºªä¸œ", "township": "Quqiao", "UID_V": "V038" }, "geometry": { "type": "Point", "coordinates": [ 119.0251, 25.4019 ] } },
{ "type": "Feature", "properties": { "ogc_fid": 712, "name": "Dong ting", "name_zh": "ä¸œäº­", "township": "Quqiao", "UID_V": "V026" }, "geometry": { "type": "Point", "coordinates": [ 119.0155, 25.405 ] } },
{ "type": "Feature", "properties": { "ogc_fid": 713, "name": "Tang dong", "name_zh": "å¡˜ä¸œ", "township": "Quqiao", "UID_V": "V027" }, "geometry": { "type": "Point", "coordinates": [ 119.0222, 25.4087 ] } },
{ "type": "Feature", "properties": { "ogc_fid": 714, "name": "Hou liao", "name_zh": "åŽå»–", "township": "Quqiao", "UID_V": "V028" }, "geometry": { "type": "Point", "coordinates": [ 119.0198, 25.4114 ] } },
{ "type": "Feature", "properties": { "ogc_fid": 715, "name": "Dong ba", "name_zh": "ä¸œå", "township": "Quqiao", "UID_V": "V039" }, "geometry": { "type": "Point", "coordinates": [ 119.0251, 25.4062 ] } },
{ "type": "Feature", "properties": { "ogc_fid": 716, "name": "Qian mian", "name_zh": "å‰é¢", "township": "Quqiao", "UID_V": "V045" }, "geometry": { "type": "Point", "coordinates": [ 119.037, 25.4125 ] } },
{ "type": "Feature", "properties": { "ogc_fid": 717, "name": "Xia cuo", "name_zh": "ä¸‹åŽ", "township": "Quqiao", "UID_V": "V019" }, "geometry": { "type": "Point", "coordinates": [ 119.0128, 25.4136 ] } },
{ "type": "Feature", "properties": { "ogc_fid": 718, "name": "Cang tou", "name_zh": "è‹å¤´", "township": "Quqiao", "UID_V": "V022" }, "geometry": { "type": "Point", "coordinates": [ 119.0078, 25.406 ] } },
{ "type": "Feature", "properties": { "ogc_fid": 719, "name": "Xi wei", "name_zh": "è¥¿å°¾", "township": "Quqiao", "UID_V": "V021" }, "geometry": { "type": "Point", "coordinates": [ 119.0053, 25.4053 ] } },
{ "type": "Feature", "properties": { "ogc_fid": 720, "name": "Gou xia", "name_zh": "æ²Ÿä¸‹", "township": "Quqiao", "UID_V": "V020" }, "geometry": { "type": "Point", "coordinates": [ 119.0087, 25.4046 ] } },
{ "type": "Feature", "properties": { "ogc_fid": 721, "name": "Xia Heng shan", "name_zh": "ä¸‹æ¨ªå±±", "township": "Quqiao", "UID_V": "V008" }, "geometry": { "type": "Point", "coordinates": [ 118.9971, 25.3983 ] } },
{ "type": "Feature", "properties": { "ogc_fid": 722, "name": "Shang heng shan", "name_zh": "ä¸Šæ¨ªå±±", "township": "Quqiao", "UID_V": "V007" }, "geometry": { "type": "Point", "coordinates": [ 118.9978, 25.3935 ] } },
{ "type": "Feature", "properties": { "ogc_fid": 725, "name": "Qing cha", "name_zh": "é’å¨", "township": "Quqiao", "UID_V": "V009" }, "geometry": { "type": "Point", "coordinates": [ 119.0007, 25.3863 ] } },
{ "type": "Feature", "properties": { "ogc_fid": 726, "name": "Long qian", "name_zh": "é¾™å‰", "township": "Quqiao", "UID_V": "V005" }, "geometry": { "type": "Point", "coordinates": [ 118.9935, 25.3977 ] } },
{ "type": "Feature", "properties": { "ogc_fid": 729, "name": "Qian pu", "name_zh": "å‰åŸ”", "township": "Chengjiao", "UID_V": "V321" }, "geometry": { "type": "Point", "coordinates": [ 118.9947, 25.4421 ] } },
{ "type": "Feature", "properties": { "ogc_fid": 730, "name": "Xia tou", "name_zh": "ä¸‹å¤´", "township": "Xitianwei", "UID_V": "V441" }, "geometry": { "type": "Point", "coordinates": [ 119.0214, 25.4787 ] } },
{ "type": "Feature", "properties": { "ogc_fid": 731, "name": "Xi guo", "name_zh": "è¥¿é”…", "township": "Xitianwei", "UID_V": "V447" }, "geometry": { "type": "Point", "coordinates": [ 119.0326, 25.4785 ] } },
{ "type": "Feature", "properties": { "ogc_fid": 732, "name": "Xia ting", "name_zh": "ä¸‹äº­", "township": "Xitianwei", "UID_V": "V432" }, "geometry": { "type": "Point", "coordinates": [ 119.0329, 25.4899 ] } },
{ "type": "Feature", "properties": { "ogc_fid": 736, "name": "Tao feng", "name_zh": "æ¡ƒå³°", "township": "Xitianwei", "UID_V": "V435" }, "geometry": { "type": "Point", "coordinates": [ 119.036, 25.4828 ] } },
{ "type": "Feature", "properties": { "ogc_fid": 737, "name": "Qi xi", "name_zh": "ä¼æºª", "township": "Xitianwei", "UID_V": "V442" }, "geometry": { "type": "Point", "coordinates": [ 119.0288, 25.4724 ] } },
{ "type": "Feature", "properties": { "ogc_fid": 738, "name": "Shang guo", "name_zh": "ä¸Šéƒ­", "township": "Xitianwei", "UID_V": "V434" }, "geometry": { "type": "Point", "coordinates": [ 119.0287, 25.4975 ] } },
{ "type": "Feature", "properties": { "ogc_fid": 740, "name": "Xi shan", "name_zh": "è¥¿å±±", "township": "Xitianwei", "UID_V": "V467" }, "geometry": { "type": "Point", "coordinates": [ 119.0516, 25.4815 ] } },
{ "type": "Feature", "properties": { "ogc_fid": 741, "name": "Xi an", "name_zh": "æºªå®‰", "township": "Xitianwei", "UID_V": "V464" }, "geometry": { "type": "Point", "coordinates": [ 119.0435, 25.4756 ] } },
{ "type": "Feature", "properties": { "ogc_fid": 742, "name": "Zhen xia", "name_zh": "åœ³ä¸‹", "township": "Xitianwei", "UID_V": "V471" }, "geometry": { "type": "Point", "coordinates": [ 119.0504, 25.4755 ] } },
{ "type": "Feature", "properties": { "ogc_fid": 743, "name": "Xi zheng", "name_zh": "è¥¿éƒ‘", "township": "Xitianwei", "UID_V": "V477" }, "geometry": { "type": "Point", "coordinates": [ 119.0473, 25.469 ] } },
{ "type": "Feature", "properties": { "ogc_fid": 745, "name": "Wu jiang", "name_zh": "å´æ±Ÿ", "township": "Xitianwei", "UID_V": "V486" }, "geometry": { "type": "Point", "coordinates": [ 119.0591, 25.4679 ] } },
{ "type": "Feature", "properties": { "ogc_fid": 747, "name": "Miao qian", "name_zh": "åº™å‰", "township": "Xitianwei", "UID_V": "V458" }, "geometry": { "type": "Point", "coordinates": [ 119.0568, 25.482 ] } },
{ "type": "Feature", "properties": { "ogc_fid": 748, "name": "Yu li", "name_zh": "ä¿žé‡Œ", "township": "Xitianwei", "UID_V": "V459" }, "geometry": { "type": "Point", "coordinates": [ 119.0576, 25.4868 ] } },
{ "type": "Feature", "properties": { "ogc_fid": 749, "name": "Xia zheng", "name_zh": "éœžéƒ‘", "township": "Xitianwei", "UID_V": "V460" }, "geometry": { "type": "Point", "coordinates": [ 119.0593, 25.486 ] } },
{ "type": "Feature", "properties": { "ogc_fid": 751, "name": "Lin wai", "name_zh": "æž—å¤–", "township": "Wutang", "UID_V": "V551" }, "geometry": { "type": "Point", "coordinates": [ 119.0734, 25.5124 ] } },
{ "type": "Feature", "properties": { "ogc_fid": 753, "name": "Tian cuo", "name_zh": "ç”°åŽ", "township": "Qiulu", "UID_V": "V535" }, "geometry": { "type": "Point", "coordinates": [ 119.0657, 25.5144 ] } },
{ "type": "Feature", "properties": { "ogc_fid": 754, "name": "Shang hou ting", "name_zh": "ä¸ŠåŽäº­", "township": "Qiulu", "UID_V": "V532" }, "geometry": { "type": "Point", "coordinates": [ 119.0722, 25.5199 ] } },
{ "type": "Feature", "properties": { "ogc_fid": 756, "name": "Dong zhang", "name_zh": "ä¸œå¼ ", "township": "Qiulu", "UID_V": "V534" }, "geometry": { "type": "Point", "coordinates": [ 119.0681, 25.5184 ] } },
{ "type": "Feature", "properties": { "ogc_fid": 757, "name": "Jiu qiu", "name_zh": "ä¹åµ", "township": "Qiulu", "UID_V": "V529" }, "geometry": { "type": "Point", "coordinates": [ 119.0765, 25.5197 ] } },
{ "type": "Feature", "properties": { "ogc_fid": 758, "name": "Guo cuo", "name_zh": "éƒ­åŽ", "township": "Qiulu", "UID_V": "V531" }, "geometry": { "type": "Point", "coordinates": [ 119.0761, 25.5223 ] } },
{ "type": "Feature", "properties": { "ogc_fid": 759, "name": "Hong du", "name_zh": "æ´ªåº¦", "township": "Qiulu", "UID_V": "V528" }, "geometry": { "type": "Point", "coordinates": [ 119.079, 25.522 ] } },
{ "type": "Feature", "properties": { "ogc_fid": 760, "name": "Nan shan", "name_zh": "å—å±±", "township": "Qiulu", "UID_V": "V527" }, "geometry": { "type": "Point", "coordinates": [ 119.0818, 25.5194 ] } },
{ "type": "Feature", "properties": { "ogc_fid": 770, "name": "Song bo ge", "name_zh": "æ¾æŸæˆˆ", "township": "Qiulu", "UID_V": "V525" }, "geometry": { "type": "Point", "coordinates": [ 119.1033, 25.5277 ] } },
{ "type": "Feature", "properties": { "ogc_fid": 775, "name": "Gan yuan", "name_zh": "æŸ‘å›­", "township": "Qiulu", "UID_V": "V526" }, "geometry": { "type": "Point", "coordinates": [ 119.0943, 25.5257 ] } },
{ "type": "Feature", "properties": { "ogc_fid": 781, "name": "Chong she", "name_zh": "å´‡ç¤¾", "township": "Qiulu", "UID_V": "V523" }, "geometry": { "type": "Point", "coordinates": [ 119.0915, 25.5381 ] } },
{ "type": "Feature", "properties": { "ogc_fid": 782, "name": "Mei lou", "name_zh": "ç¾Žæ¥¼", "township": "Qiulu", "UID_V": "V522" }, "geometry": { "type": "Point", "coordinates": [ 119.093, 25.5349 ] } },
{ "type": "Feature", "properties": { "ogc_fid": 784, "name": "Wai du xia", "name_zh": "å¤–åº¦ä¸‹", "township": "Qiulu", "UID_V": "V524" }, "geometry": { "type": "Point", "coordinates": [ 119.0848, 25.5452 ] } },
{ "type": "Feature", "properties": { "ogc_fid": 786, "name": "Shan hou", "name_zh": "å±±åŽ", "township": "Xitianwei", "UID_V": "V543" }, "geometry": { "type": "Point", "coordinates": [ 119.0585, 25.502 ] } },
{ "type": "Feature", "properties": { "ogc_fid": 787, "name": "Xia ke", "name_zh": "ä¸‹æŸ¯", "township": "Xitianwei", "UID_V": "V542" }, "geometry": { "type": "Point", "coordinates": [ 119.0544, 25.5031 ] } },
{ "type": "Feature", "properties": { "ogc_fid": 790, "name": "Tian cuo", "name_zh": "ç”°åŽ", "township": "Xitianwei", "UID_V": "V547" }, "geometry": { "type": "Point", "coordinates": [ 119.0502, 25.4955 ] } },
{ "type": "Feature", "properties": { "ogc_fid": 793, "name": "Shan dou", "name_zh": "å±±å…œ", "township": "Jiangkou", "UID_V": "V718" }, "geometry": { "type": "Point", "coordinates": [ 119.1347, 25.5046 ] } },
{ "type": "Feature", "properties": { "ogc_fid": 796, "name": "Dong po", "name_zh": "ä¸œå¡", "township": "Wutang", "UID_V": "V579" }, "geometry": { "type": "Point", "coordinates": [ 119.0928, 25.4856 ] } },
{ "type": "Feature", "properties": { "ogc_fid": 797, "name": "Pu tou", "name_zh": "åŸ”å¤´", "township": "Wutang", "UID_V": "V569" }, "geometry": { "type": "Point", "coordinates": [ 119.0861, 25.486 ] } },
{ "type": "Feature", "properties": { "ogc_fid": 798, "name": "Hou dong", "name_zh": "åŽè‘£", "township": "Hanjiang", "UID_V": "V635" }, "geometry": { "type": "Point", "coordinates": [ 119.1526, 25.4603 ] } },
{ "type": "Feature", "properties": { "ogc_fid": 803, "name": "Dong zhi jiao", "name_zh": "è¥¿æ´ª", "township": "Huangshi", "UID_V": "V130" }, "geometry": { "type": "Point", "coordinates": [ 119.0637, 25.4168 ] } },
{ "type": "Feature", "properties": { "ogc_fid": 809, "name": "Keng bing", "name_zh": "å‘æŸ„", "township": "Huangshi", "UID_V": "V124" }, "geometry": { "type": "Point", "coordinates": [ 119.0798, 25.3862 ] } },
{ "type": "Feature", "properties": { "ogc_fid": 810, "name": "Xia hu", "name_zh": "ä¸‹æ¹–", "township": "Huangshi", "UID_V": "V126" }, "geometry": { "type": "Point", "coordinates": [ 119.0789, 25.3873 ] } },
{ "type": "Feature", "properties": { "ogc_fid": 811, "name": "Wu cheng", "name_zh": "å¾åŸ•", "township": "Huangshi", "UID_V": "V122" }, "geometry": { "type": "Point", "coordinates": [ 119.0777, 25.3852 ] } },
{ "type": "Feature", "properties": { "ogc_fid": 812, "name": "Gui lin", "name_zh": "æ¡‚å²­", "township": "Huangshi", "UID_V": "V106" }, "geometry": { "type": "Point", "coordinates": [ 119.0706, 25.3784 ] } },
{ "type": "Feature", "properties": { "ogc_fid": 813, "name": "Ting xia", "name_zh": "äº­ä¸‹", "township": "Huangshi", "UID_V": "V107" }, "geometry": { "type": "Point", "coordinates": [ 119.0718, 25.3786 ] } },
{ "type": "Feature", "properties": { "ogc_fid": 814, "name": "Tang wei", "name_zh": "å¡˜å°¾", "township": "Huangshi", "UID_V": "V109" }, "geometry": { "type": "Point", "coordinates": [ 119.0742, 25.3801 ] } },
{ "type": "Feature", "properties": { "ogc_fid": 816, "name": "Shu yuan kou", "name_zh": "ä¹¦é™¢å£", "township": "Huangshi", "UID_V": "V110" }, "geometry": { "type": "Point", "coordinates": [ 119.0763, 25.3804 ] } },
{ "type": "Feature", "properties": { "ogc_fid": 817, "name": "Shuang xin jing", "name_zh": "åŒæ˜Ÿäº•", "township": "Huangshi", "UID_V": "V112" }, "geometry": { "type": "Point", "coordinates": [ 119.0759, 25.3814 ] } },
{ "type": "Feature", "properties": { "ogc_fid": 821, "name": "Xi yuan", "name_zh": "è¥¿å›­", "township": "Huangshi", "UID_V": "V157" }, "geometry": { "type": "Point", "coordinates": [ 119.1021, 25.3543 ] } },
{ "type": "Feature", "properties": { "ogc_fid": 838, "name": "Zheng tang", "name_zh": "éƒ‘å¡˜", "township": "Hushi", "UID_V": "V193" }, "geometry": { "type": "Point", "coordinates": [ 119.0968, 25.3514 ] } },
{ "type": "Feature", "properties": { "ogc_fid": 840, "name": "Long tou shan", "name_zh": "é¾™å¤´å±±", "township": "Quqiao", "UID_V": "V280" }, "geometry": { "type": "Point", "coordinates": [ 119.0284, 25.3523 ] } },
{ "type": "Feature", "properties": { "ogc_fid": 841, "name": "Xi pu", "name_zh": "è¥¿åŸ”", "township": "Quqiao", "UID_V": "V281" }, "geometry": { "type": "Point", "coordinates": [ 119.0353, 25.3506 ] } },
{ "type": "Feature", "properties": { "ogc_fid": 842, "name": "Xia gou", "name_zh": "ä¸‹æ²Ÿ", "township": "Quqiao", "UID_V": "V295" }, "geometry": { "type": "Point", "coordinates": [ 119.0423, 25.3506 ] } },
{ "type": "Feature", "properties": { "ogc_fid": 849, "name": "Gou jin yang", "name_zh": "æ²Ÿæ´¥æ´‹", "township": "Quqiao", "UID_V": "V296" }, "geometry": { "type": "Point", "coordinates": [ 119.0464, 25.3519 ] } },
{ "type": "Feature", "properties": { "ogc_fid": 850, "name": "Ling cuo", "name_zh": "å‡ŒåŽ", "township": "Quqiao", "UID_V": "V294" }, "geometry": { "type": "Point", "coordinates": [ 119.0439, 25.3484 ] } },
{ "type": "Feature", "properties": { "ogc_fid": 851, "name": "Xia da ban", "name_zh": "ä¸‹å¤§å‚", "township": "Quqiao", "UID_V": "V283" }, "geometry": { "type": "Point", "coordinates": [ 119.035, 25.3439 ] } },
{ "type": "Feature", "properties": { "ogc_fid": 852, "name": "Shang da ban", "name_zh": "ä¸Šå¤§å‚", "township": "Quqiao", "UID_V": "V282" }, "geometry": { "type": "Point", "coordinates": [ 119.0304, 25.3451 ] } },
{ "type": "Feature", "properties": { "ogc_fid": 853, "name": "Dong song", "name_zh": "ä¸œå®‹", "township": "Quqiao", "UID_V": "V292" }, "geometry": { "type": "Point", "coordinates": [ 119.0423, 25.3413 ] } },
{ "type": "Feature", "properties": { "ogc_fid": 854, "name": "Xi ting", "name_zh": "è¥¿äº­", "township": "Quqiao", "UID_V": "V293" }, "geometry": { "type": "Point", "coordinates": [ 119.0399, 25.3287 ] } },
{ "type": "Feature", "properties": { "ogc_fid": 855, "name": "Huang tou pu", "name_zh": "é»„å¤´åŸ”", "township": "Quqiao", "UID_V": "V285" }, "geometry": { "type": "Point", "coordinates": [ 119.0273, 25.3481 ] } },
{ "type": "Feature", "properties": { "ogc_fid": 857, "name": "Mo keng li", "name_zh": "ç£¨å‘é‡Œ", "township": "Quqiao", "UID_V": "V284" }, "geometry": { "type": "Point", "coordinates": [ 119.0203, 25.3464 ] } },
{ "type": "Feature", "properties": { "ogc_fid": 858, "name": "Xia yu", "name_zh": "ä¸‹ä½™", "township": "Quqiao", "UID_V": "V276" }, "geometry": { "type": "Point", "coordinates": [ 119.0294, 25.3356 ] } },
{ "type": "Feature", "properties": { "ogc_fid": 859, "name": "Gui lin", "name_zh": "æ¡‚æž—", "township": "Quqiao", "UID_V": "V270" }, "geometry": { "type": "Point", "coordinates": [ 119.029, 25.3385 ] } },
{ "type": "Feature", "properties": { "ogc_fid": 861, "name": "Ma zhu keng", "name_zh": "é©¬ç«¹å‘", "township": "Quqiao", "UID_V": "V271" }, "geometry": { "type": "Point", "coordinates": [ 119.0236, 25.3397 ] } },
{ "type": "Feature", "properties": { "ogc_fid": 862, "name": "Peng mu", "name_zh": "å½­å¢“", "township": "Quqiao", "UID_V": "V272" }, "geometry": { "type": "Point", "coordinates": [ 119.0214, 25.3392 ] } },
{ "type": "Feature", "properties": { "ogc_fid": 864, "name": "Xu ke", "name_zh": "å¾æŸ¯", "township": "Quqiao", "UID_V": "V275" }, "geometry": { "type": "Point", "coordinates": [ 119.0249, 25.3362 ] } },
{ "type": "Feature", "properties": { "ogc_fid": 865, "name": "Shang lin", "name_zh": "ä¸Šæž—", "township": "Quqiao", "UID_V": "V274" }, "geometry": { "type": "Point", "coordinates": [ 119.0216, 25.3329 ] } },
{ "type": "Feature", "properties": { "ogc_fid": 867, "name": "Dong pu yu", "name_zh": "ä¸œåŸ”ä½™", "township": "Quqiao", "UID_V": "V256" }, "geometry": { "type": "Point", "coordinates": [ 119.0332, 25.3242 ] } },
{ "type": "Feature", "properties": { "ogc_fid": 868, "name": "Yi cuo", "name_zh": "èšåŽ", "township": "Quqiao", "UID_V": "V257" }, "geometry": { "type": "Point", "coordinates": [ 119.0365, 25.3249 ] } },
{ "type": "Feature", "properties": { "ogc_fid": 869, "name": "Hou dong", "name_zh": "åŽè‘£", "township": "Quqiao", "UID_V": "V258" }, "geometry": { "type": "Point", "coordinates": [ 119.0298, 25.3251 ] } },
{ "type": "Feature", "properties": { "ogc_fid": 870, "name": "Hou dai", "name_zh": "åŽåŸ­", "township": "Quqiao", "UID_V": "V048" }, "geometry": { "type": "Point", "coordinates": [ 119.0432, 25.4199 ] } },
{ "type": "Feature", "properties": { "ogc_fid": 871, "name": "Hou she", "name_zh": "åŽç¤¾", "township": "Quqiao", "UID_V": "V047" }, "geometry": { "type": "Point", "coordinates": [ 119.0416, 25.4151 ] } },
{ "type": "Feature", "properties": { "ogc_fid": 872, "name": "Hou mian", "name_zh": "åŽé¢", "township": "Quqiao", "UID_V": "V017" }, "geometry": { "type": "Point", "coordinates": [ 119.0102, 25.4066 ] } },
{ "type": "Feature", "properties": { "ogc_fid": 874, "name": "Huang cuo li", "name_zh": "é»„åŽé‡Œ", "township": "Quqiao", "UID_V": "V074" }, "geometry": { "type": "Point", "coordinates": [ 119.031, 25.38 ] } },
{ "type": "Feature", "properties": { "ogc_fid": 875, "name": "Dong ling", "name_zh": "ä¸œå²­", "township": "Quqiao", "UID_V": "V031" }, "geometry": { "type": "Point", "coordinates": [ 119.025, 25.3932 ] } },
{ "type": "Feature", "properties": { "ogc_fid": 876, "name": "Da lu", "name_zh": "å¤§è·¯", "township": "Quqiao", "UID_V": "V076" }, "geometry": { "type": "Point", "coordinates": [ 119.0244, 25.3806 ] } },
{ "type": "Feature", "properties": { "ogc_fid": 877, "name": "Xiang kou", "name_zh": "å··å£", "township": "Quqiao", "UID_V": "V034" }, "geometry": { "type": "Point", "coordinates": [ 119.0271, 25.3926 ] } },
{ "type": "Feature", "properties": { "ogc_fid": 878, "name": "Ban cuo", "name_zh": "æ¿åŽ", "township": "Lingchuan", "UID_V": "V266" }, "geometry": { "type": "Point", "coordinates": [ 119.026, 25.332 ] } },
{ "type": "Feature", "properties": { "ogc_fid": 879, "name": "Xia xi", "name_zh": "ä¸‹è¥¿", "township": "Lingchuan", "UID_V": "V269" }, "geometry": { "type": "Point", "coordinates": [ 119.0279, 25.3302 ] } },
{ "type": "Feature", "properties": { "ogc_fid": 880, "name": "Qiao tou", "name_zh": "æ¡¥å¤´", "township": "Lingchuan", "UID_V": "V268" }, "geometry": { "type": "Point", "coordinates": [ 119.0257, 25.3283 ] } },
{ "type": "Feature", "properties": { "ogc_fid": 882, "name": "Yang mian", "name_zh": "æ´‹é¢", "township": "Lingchuan", "UID_V": "V263" }, "geometry": { "type": "Point", "coordinates": [ 119.0204, 25.3271 ] } },
{ "type": "Feature", "properties": { "ogc_fid": 883, "name": "Hou cuo", "name_zh": "ä¾¯åŽ", "township": "Lingchuan", "UID_V": "V267" }, "geometry": { "type": "Point", "coordinates": [ 119.0165, 25.33 ] } },
{ "type": "Feature", "properties": { "ogc_fid": 884, "name": "Shang hai zao", "name_zh": "ä¸Šäº¥ç¶", "township": "Lingchuan", "UID_V": "V265" }, "geometry": { "type": "Point", "coordinates": [ 119.0155, 25.3272 ] } },
{ "type": "Feature", "properties": { "ogc_fid": 887, "name": "Dong guo", "name_zh": "ä¸œéƒ­", "township": "Lingchuan", "UID_V": "V264" }, "geometry": { "type": "Point", "coordinates": [ 119.0217, 25.3239 ] } },
{ "type": "Feature", "properties": { "ogc_fid": 890, "name": "Xia keng yuan", "name_zh": "ä¸‹å‘å›­", "township": "Beigao", "UID_V": "V186" }, "geometry": { "type": "Point", "coordinates": [ 119.118, 25.352 ] } },
{ "type": "Feature", "properties": { "ogc_fid": 892, "name": "Qian dun", "name_zh": "å‰å¢©", "township": "Beigao", "UID_V": "V192" }, "geometry": { "type": "Point", "coordinates": [ 119.122, 25.354 ] } },
{ "type": "Feature", "properties": { "ogc_fid": 893, "name": "Dong du", "name_zh": "ä¸œåº¦", "township": "Beigao", "UID_V": "V187" }, "geometry": { "type": "Point", "coordinates": [ 119.1198, 25.3491 ] } },
{ "type": "Feature", "properties": { "ogc_fid": 894, "name": "Shang keng yuan", "name_zh": "ä¸Šå‘å›­", "township": "Beigao", "UID_V": "V185" }, "geometry": { "type": "Point", "coordinates": [ 119.1159, 25.348 ] } },
{ "type": "Feature", "properties": { "ogc_fid": 895, "name": "Shang yuan hou", "name_zh": "ä¸Šé™¢åŽ", "township": "Beigao", "UID_V": "V190" }, "geometry": { "type": "Point", "coordinates": [ 119.1263, 25.3494 ] } },
{ "type": "Feature", "properties": { "ogc_fid": 897, "name": "Xia Yuan Hou", "name_zh": "ä¸‹é™¢åŽ", "township": "Beigao", "UID_V": "V191" }, "geometry": { "type": "Point", "coordinates": [ 119.1245, 25.3517 ] } },
{ "type": "Feature", "properties": { "ogc_fid": 898, "name": "She cuo", "name_zh": "ç¤¾åŽ", "township": "Beigao", "UID_V": "V183" }, "geometry": { "type": "Point", "coordinates": [ 119.1303, 25.3432 ] } },
{ "type": "Feature", "properties": { "ogc_fid": 899, "name": "Xia chen", "name_zh": "ä¸‹é™ˆ", "township": "Beigao", "UID_V": "V179" }, "geometry": { "type": "Point", "coordinates": [ 119.1333, 25.3471 ] } },
{ "type": "Feature", "properties": { "ogc_fid": 900, "name": "Cheng bian", "name_zh": "åŸ•è¾¹", "township": "Beigao", "UID_V": "V178" }, "geometry": { "type": "Point", "coordinates": [ 119.1349, 25.3491 ] } },
{ "type": "Feature", "properties": { "ogc_fid": 901, "name": "Gou ge", "name_zh": "æ²Ÿæˆˆ", "township": "Beigao", "UID_V": "V180" }, "geometry": { "type": "Point", "coordinates": [ 119.1338, 25.3537 ] } },
{ "type": "Feature", "properties": { "ogc_fid": 902, "name": "Ma tou", "name_zh": "ç å¤´", "township": "Beigao", "UID_V": "V181" }, "geometry": { "type": "Point", "coordinates": [ 119.1331, 25.3559 ] } },
{ "type": "Feature", "properties": { "ogc_fid": 903, "name": "Dong xiang", "name_zh": "ä¸œä¹¡", "township": "Beigao", "UID_V": "V171" }, "geometry": { "type": "Point", "coordinates": [ 119.1436, 25.3753 ] } },
{ "type": "Feature", "properties": { "ogc_fid": 905, "name": "Hou cheng kou", "name_zh": "åŽç¨‹å£", "township": "Beigao", "UID_V": "V177" }, "geometry": { "type": "Point", "coordinates": [ 119.1608, 25.3765 ] } },
{ "type": "Feature", "properties": { "ogc_fid": 906, "name": "Lou xia", "name_zh": "æ¥¼ä¸‹", "township": "Beigao", "UID_V": "V176" }, "geometry": { "type": "Point", "coordinates": [ 119.1582, 25.3727 ] } },
{ "type": "Feature", "properties": { "ogc_fid": 907, "name": "Qian cheng kou", "name_zh": "å‰ç¨‹å£", "township": "Beigao", "UID_V": "V175" }, "geometry": { "type": "Point", "coordinates": [ 119.1569, 25.3687 ] } },
{ "type": "Feature", "properties": { "ogc_fid": 908, "name": "Hou ji", "name_zh": "åŽç§¯", "township": "Beigao", "UID_V": "V172" }, "geometry": { "type": "Point", "coordinates": [ 119.1456, 25.3646 ] } },
{ "type": "Feature", "properties": { "ogc_fid": 913, "name": "Yang bian", "name_zh": "æ´‹è¾¹", "township": "Beigao", "UID_V": "V174" }, "geometry": { "type": "Point", "coordinates": [ 119.1552, 25.3641 ] } },
{ "type": "Feature", "properties": { "ogc_fid": 916, "name": "Chen shan tou", "name_zh": "é™ˆå±±å¤´", "township": "Hushi", "UID_V": "V260" }, "geometry": { "type": "Point", "coordinates": [ 119.0383, 25.3185 ] } },
{ "type": "Feature", "properties": { "ogc_fid": 919, "name": "Da pu", "name_zh": "å¤§åŸ”", "township": "Hushi", "UID_V": "V262" }, "geometry": { "type": "Point", "coordinates": [ 119.0467, 25.3209 ] } },
{ "type": "Feature", "properties": { "ogc_fid": 920, "name": "Xia zhuang", "name_zh": "ä¸‹åº„", "township": "Hushi", "UID_V": "V261" }, "geometry": { "type": "Point", "coordinates": [ 119.0467, 25.3177 ] } },
{ "type": "Feature", "properties": { "ogc_fid": 923, "name": "Qi cuo", "name_zh": "å²åŽ", "township": "Hushi", "UID_V": "V291" }, "geometry": { "type": "Point", "coordinates": [ 119.0505, 25.3337 ] } },
{ "type": "Feature", "properties": { "ogc_fid": 924, "name": "Chi cen", "name_zh": "èµ¤å²‘", "township": "Hushi", "UID_V": "V244" }, "geometry": { "type": "Point", "coordinates": [ 119.0608, 25.3348 ] } },
{ "type": "Feature", "properties": { "ogc_fid": 925, "name": "Shang lin", "name_zh": "ä¸Šæž—", "township": "Hushi", "UID_V": "V248" }, "geometry": { "type": "Point", "coordinates": [ 119.0575, 25.343 ] } },
{ "type": "Feature", "properties": { "ogc_fid": 926, "name": "Keng bei", "name_zh": "å‘åŒ—", "township": "Hushi", "UID_V": "V286" }, "geometry": { "type": "Point", "coordinates": [ 119.0524, 25.3445 ] } },
{ "type": "Feature", "properties": { "ogc_fid": 927, "name": "Cai cuo", "name_zh": "èœåŽ", "township": "Hushi", "UID_V": "V290" }, "geometry": { "type": "Point", "coordinates": [ 119.0433, 25.3335 ] } },
{ "type": "Feature", "properties": { "ogc_fid": 928, "name": "Qian lin", "name_zh": "å‰æž—", "township": "Hushi", "UID_V": "V247" }, "geometry": { "type": "Point", "coordinates": [ 119.0632, 25.3438 ] } },
{ "type": "Feature", "properties": { "ogc_fid": 929, "name": "Ling xia", "name_zh": "å²­ä¸‹", "township": "Hushi", "UID_V": "V246" }, "geometry": { "type": "Point", "coordinates": [ 119.0679, 25.3423 ] } },
{ "type": "Feature", "properties": { "ogc_fid": 930, "name": "Ying bian", "name_zh": "è¥è¾¹", "township": "Hushi", "UID_V": "V289" }, "geometry": { "type": "Point", "coordinates": [ 119.0527, 25.3536 ] } },
{ "type": "Feature", "properties": { "ogc_fid": 931, "name": "Liu cuo", "name_zh": "åˆ˜åŽ", "township": "Hushi", "UID_V": "V288" }, "geometry": { "type": "Point", "coordinates": [ 119.0552, 25.3498 ] } },
{ "type": "Feature", "properties": { "ogc_fid": 932, "name": "Bai ta", "name_zh": "ç™½å¡”", "township": "Hushi", "UID_V": "V287" }, "geometry": { "type": "Point", "coordinates": [ 119.0614, 25.3542 ] } },
{ "type": "Feature", "properties": { "ogc_fid": 933, "name": "Xia wei", "name_zh": "ä¸‹å°¾", "township": "Hushi", "UID_V": "V250" }, "geometry": { "type": "Point", "coordinates": [ 119.0675, 25.3554 ] } },
{ "type": "Feature", "properties": { "ogc_fid": 934, "name": "Ding gu", "name_zh": "å®šå›º", "township": "Hushi", "UID_V": "V251" }, "geometry": { "type": "Point", "coordinates": [ 119.069, 25.3499 ] } },
{ "type": "Feature", "properties": { "ogc_fid": 935, "name": "Hou zhu", "name_zh": "åŽæœ±", "township": "Hushi", "UID_V": "V252" }, "geometry": { "type": "Point", "coordinates": [ 119.0757, 25.3523 ] } },
{ "type": "Feature", "properties": { "ogc_fid": 936, "name": "Da pu", "name_zh": "å¤§åŸ”", "township": "Hushi", "UID_V": "V249" }, "geometry": { "type": "Point", "coordinates": [ 119.0736, 25.3473 ] } },
{ "type": "Feature", "properties": { "ogc_fid": 937, "name": "Bi tou", "name_zh": "æ³Œå¤´", "township": "Hushi", "UID_V": "V254" }, "geometry": { "type": "Point", "coordinates": [ 119.0842, 25.3516 ] } },
{ "type": "Feature", "properties": { "ogc_fid": 938, "name": "Shan dou", "name_zh": "å±±å…œ", "township": "Hushi", "UID_V": "V255" }, "geometry": { "type": "Point", "coordinates": [ 119.089, 25.3507 ] } },
{ "type": "Feature", "properties": { "ogc_fid": 939, "name": "Xi shan", "name_zh": "è¥¿å±±", "township": "Hushi", "UID_V": "V253" }, "geometry": { "type": "Point", "coordinates": [ 119.0826, 25.3496 ] } },
{ "type": "Feature", "properties": { "ogc_fid": 940, "name": "Deng ao tou", "name_zh": "ç™»é³Œå¤´", "township": "Hushi", "UID_V": "V239" }, "geometry": { "type": "Point", "coordinates": [ 119.0889, 25.3462 ] } },
{ "type": "Feature", "properties": { "ogc_fid": 941, "name": "Song ting", "name_zh": "æ¾äº­", "township": "Hushi", "UID_V": "V236" }, "geometry": { "type": "Point", "coordinates": [ 119.0815, 25.3444 ] } },
{ "type": "Feature", "properties": { "ogc_fid": 942, "name": "Hou she", "name_zh": "åŽç¤¾", "township": "Hushi", "UID_V": "V237" }, "geometry": { "type": "Point", "coordinates": [ 119.0849, 25.3411 ] } },
{ "type": "Feature", "properties": { "ogc_fid": 943, "name": "Xu cuo", "name_zh": "å¾åŽ", "township": "Hushi", "UID_V": "V235" }, "geometry": { "type": "Point", "coordinates": [ 119.0776, 25.3432 ] } },
{ "type": "Feature", "properties": { "ogc_fid": 944, "name": "Qian zheng", "name_zh": "å‰éƒ‘", "township": "Hushi", "UID_V": "V241" }, "geometry": { "type": "Point", "coordinates": [ 119.0776, 25.3414 ] } },
{ "type": "Feature", "properties": { "ogc_fid": 946, "name": "Huang lin", "name_zh": "é»„æž—", "township": "Hushi", "UID_V": "V233" }, "geometry": { "type": "Point", "coordinates": [ 119.0789, 25.3368 ] } },
{ "type": "Feature", "properties": { "ogc_fid": 947, "name": "Dong jin", "name_zh": "ä¸œæ´¥", "township": "Hushi", "UID_V": "V228" }, "geometry": { "type": "Point", "coordinates": [ 119.0875, 25.3328 ] } },
{ "type": "Feature", "properties": { "ogc_fid": 948, "name": "Yang shan", "name_zh": "æ¨å±±", "township": "Hushi", "UID_V": "V243" }, "geometry": { "type": "Point", "coordinates": [ 119.0697, 25.334 ] } },
{ "type": "Feature", "properties": { "ogc_fid": 949, "name": "Yun tang", "name_zh": "äº‘å¡˜", "township": "Hushi", "UID_V": "V234" }, "geometry": { "type": "Point", "coordinates": [ 119.0751, 25.3317 ] } },
{ "type": "Feature", "properties": { "ogc_fid": 950, "name": "Xi zhuo", "name_zh": "è¥¿å“", "township": "Hushi", "UID_V": "V232" }, "geometry": { "type": "Point", "coordinates": [ 119.0796, 25.3312 ] } },
{ "type": "Feature", "properties": { "ogc_fid": 951, "name": "Xi cai", "name_zh": "è¥¿è”¡", "township": "Hushi", "UID_V": "V245" }, "geometry": { "type": "Point", "coordinates": [ 119.0645, 25.3316 ] } },
{ "type": "Feature", "properties": { "ogc_fid": 952, "name": "Lin cuo", "name_zh": "æž—åŽ", "township": "Hushi", "UID_V": "V227" }, "geometry": { "type": "Point", "coordinates": [ 119.0845, 25.3268 ] } },
{ "type": "Feature", "properties": { "ogc_fid": 953, "name": "Cang dian", "name_zh": "è‹åº—", "township": "Hushi", "UID_V": "V225" }, "geometry": { "type": "Point", "coordinates": [ 119.0791, 25.327 ] } },
{ "type": "Feature", "properties": { "ogc_fid": 954, "name": "Dong zhuo", "name_zh": "ä¸œå“", "township": "Hushi", "UID_V": "V231" }, "geometry": { "type": "Point", "coordinates": [ 119.0856, 25.3233 ] } },
{ "type": "Feature", "properties": { "ogc_fid": 955, "name": "Tian yang", "name_zh": "ç”°æ´‹", "township": "Hushi", "UID_V": "V224" }, "geometry": { "type": "Point", "coordinates": [ 119.0887, 25.3246 ] } },
{ "type": "Feature", "properties": { "ogc_fid": 965, "name": "Xia dian", "name_zh": "ä¸‹åº—", "township": "Hushi", "UID_V": "V226" }, "geometry": { "type": "Point", "coordinates": [ 119.0834, 25.3206 ] } },
{ "type": "Feature", "properties": { "ogc_fid": 967, "name": "Hou jing", "name_zh": "åŽäº•", "township": "Hushi", "UID_V": "V216" }, "geometry": { "type": "Point", "coordinates": [ 119.0956, 25.3269 ] } },
{ "type": "Feature", "properties": { "ogc_fid": 968, "name": "Wu cuo", "name_zh": "å´åŽ", "township": "Hushi", "UID_V": "V214" }, "geometry": { "type": "Point", "coordinates": [ 119.1029, 25.3261 ] } },
{ "type": "Feature", "properties": { "ogc_fid": 969, "name": "Ding she", "name_zh": "é¡¶ç¤¾", "township": "Hushi", "UID_V": "V220" }, "geometry": { "type": "Point", "coordinates": [ 119.0946, 25.3222 ] } },
{ "type": "Feature", "properties": { "ogc_fid": 970, "name": "Chen cuo", "name_zh": "é™ˆåŽ", "township": "Hushi", "UID_V": "V213" }, "geometry": { "type": "Point", "coordinates": [ 119.1057, 25.3209 ] } },
{ "type": "Feature", "properties": { "ogc_fid": 971, "name": "Hou huang", "name_zh": "åŽé»„", "township": "Hushi", "UID_V": "V215" }, "geometry": { "type": "Point", "coordinates": [ 119.1102, 25.3269 ] } },
{ "type": "Feature", "properties": { "ogc_fid": 972, "name": "Lan tian", "name_zh": "è“ç”°", "township": "Hushi", "UID_V": "V197" }, "geometry": { "type": "Point", "coordinates": [ 119.1172, 25.3264 ] } },
{ "type": "Feature", "properties": { "ogc_fid": 973, "name": "Hou hu", "name_zh": "åŽæ¹–", "township": "Hushi", "UID_V": "V198" }, "geometry": { "type": "Point", "coordinates": [ 119.1183, 25.3318 ] } },
{ "type": "Feature", "properties": { "ogc_fid": 976, "name": "Shang ke tang", "name_zh": "ä¸Šå¯å¡˜", "township": "Hushi", "UID_V": "V204" }, "geometry": { "type": "Point", "coordinates": [ 119.1327, 25.3288 ] } },
{ "type": "Feature", "properties": { "ogc_fid": 977, "name": "Xia ke tang", "name_zh": "ä¸‹å¯å¡˜", "township": "Hushi", "UID_V": "V203" }, "geometry": { "type": "Point", "coordinates": [ 119.1319, 25.3269 ] } },
{ "type": "Feature", "properties": { "ogc_fid": 979, "name": "Mei lin", "name_zh": "æ¢…æž—", "township": "Hushi", "UID_V": "V259" }, "geometry": { "type": "Point", "coordinates": [ 119.0375, 25.3139 ] } },
{ "type": "Feature", "properties": { "ogc_fid": 980, "name": "Mu bing", "name_zh": "å¢“ç‚³", "township": "Hushi", "UID_V": "V211" }, "geometry": { "type": "Point", "coordinates": [ 119.1225, 25.3221 ] } },
{ "type": "Feature", "properties": { "ogc_fid": 981, "name": "Shi dou", "name_zh": "çŸ³å…œ", "township": "Hushi", "UID_V": "V212" }, "geometry": { "type": "Point", "coordinates": [ 119.1242, 25.3186 ] } },
{ "type": "Feature", "properties": { "ogc_fid": 983, "name": "Song mu", "name_zh": "å®‹å¢“", "township": "Hushi", "UID_V": "V194" }, "geometry": { "type": "Point", "coordinates": [ 119.1026, 25.3423 ] } },
{ "type": "Feature", "properties": { "ogc_fid": 984, "name": "Shan tou zi", "name_zh": "å±±å¤´", "township": "Hushi", "UID_V": "V195" }, "geometry": { "type": "Point", "coordinates": [ 119.0977, 25.3401 ] } },
{ "type": "Feature", "properties": { "ogc_fid": 985, "name": "Chuan du", "name_zh": "èˆ¹æ¸¡", "township": "Hushi", "UID_V": "V196" }, "geometry": { "type": "Point", "coordinates": [ 119.102, 25.3356 ] } },
{ "type": "Feature", "properties": { "ogc_fid": 987, "name": "Guan pu", "name_zh": "å®˜åŸ”", "township": "Hushi", "UID_V": "V199" }, "geometry": { "type": "Point", "coordinates": [ 119.1111, 25.3366 ] } },
{ "type": "Feature", "properties": { "ogc_fid": 988, "name": "Zheng jing", "name_zh": "éƒ‘äº•", "township": "Hushi", "UID_V": "V202" }, "geometry": { "type": "Point", "coordinates": [ 119.1145, 25.3403 ] } },
{ "type": "Feature", "properties": { "ogc_fid": 989, "name": "Xia zheng", "name_zh": "ä¸‹éƒ‘", "township": "Hushi", "UID_V": "V200" }, "geometry": { "type": "Point", "coordinates": [ 119.1088, 25.3395 ] } },
{ "type": "Feature", "properties": { "ogc_fid": 990, "name": "Shang xin", "name_zh": "ä¸Šè¾›", "township": "Hushi", "UID_V": "V201" }, "geometry": { "type": "Point", "coordinates": [ 119.108, 25.3417 ] } },
{ "type": "Feature", "properties": { "ogc_fid": 991, "name": "Xia Ling tou", "name_zh": "ä¸‹å²­å¤´", "township": "Beigao", "UID_V": "V188" }, "geometry": { "type": "Point", "coordinates": [ 119.1217, 25.3449 ] } },
{ "type": "Feature", "properties": { "ogc_fid": 992, "name": "Mu qian", "name_zh": "å¢“å‰", "township": "Beigao", "UID_V": "V189" }, "geometry": { "type": "Point", "coordinates": [ 119.1198, 25.3391 ] } },
{ "type": "Feature", "properties": { "ogc_fid": 993, "name": "Lin bing", "name_zh": "æž—æŸ„", "township": "Hushi", "UID_V": "V219" }, "geometry": { "type": "Point", "coordinates": [ 119.1111, 25.3179 ] } },
{ "type": "Feature", "properties": { "ogc_fid": 994, "name": "Fu lu shan", "name_zh": "ç¦ç¦„å±±", "township": "Hushi", "UID_V": "V218" }, "geometry": { "type": "Point", "coordinates": [ 119.1101, 25.3141 ] } },
{ "type": "Feature", "properties": { "ogc_fid": 995, "name": "Da Qiu", "name_zh": "åŽå¤§ä¸˜", "township": "Hushi", "UID_V": "V217" }, "geometry": { "type": "Point", "coordinates": [ 119.1044, 25.3157 ] } },
{ "type": "Feature", "properties": { "ogc_fid": 1005, "name": "Tang bian", "name_zh": "å¡˜è¾¹", "township": "Quqiao", "UID_V": "V032" }, "geometry": { "type": "Point", "coordinates": [ 119.0304, 25.392 ] } },
{ "type": "Feature", "properties": { "ogc_fid": 1012, "name": "Lu ding", "name_zh": "è·¯é¡¶", "township": "Xitianwei", "UID_V": "V439" }, "geometry": { "type": "Point", "coordinates": [ 119.0275, 25.4844 ] } },
{ "type": "Feature", "properties": { "ogc_fid": 1013, "name": "Qian dun", "name_zh": "å‰å¢©", "township": "Xitianwei", "UID_V": "V433" }, "geometry": { "type": "Point", "coordinates": [ 119.0327, 25.4855 ] } },
{ "type": "Feature", "properties": { "ogc_fid": 1016, "name": "Shui liu li", "name_zh": "æ°´æµåˆ©", "township": "Xitianwei", "UID_V": "V461" }, "geometry": { "type": "Point", "coordinates": [ 119.0601, 25.4812 ] } },
{ "type": "Feature", "properties": { "ogc_fid": 1021, "name": "Tang bian", "name_zh": "å¡˜è¾¹", "township": "Xitianwei", "UID_V": "V437" }, "geometry": { "type": "Point", "coordinates": [ 119.0257, 25.4729 ] } },
{ "type": "Feature", "properties": { "ogc_fid": 1028, "name": "Wu shi", "name_zh": "ä¹ŒçŸ³", "township": "Xitianwei", "UID_V": "V468" }, "geometry": { "type": "Point", "coordinates": [ 119.0509, 25.481 ] } },
{ "type": "Feature", "properties": { "ogc_fid": 1034, "name": "Xi yang", "name_zh": "è¥¿æ´‹", "township": "Xitianwei", "UID_V": "V544" }, "geometry": { "type": "Point", "coordinates": [ 119.0526, 25.4942 ] } },
{ "type": "Feature", "properties": { "ogc_fid": 1036, "name": "Xia xi", "name_zh": "ä¸‹æºª", "township": "Xitianwei", "UID_V": "V440" }, "geometry": { "type": "Point", "coordinates": [ 119.0239, 25.4785 ] } },
{ "type": "Feature", "properties": { "ogc_fid": 1043, "name": "Xin cun", "name_zh": "æ–°æ‘", "township": "Xitianwei", "UID_V": "V470" }, "geometry": { "type": "Point", "coordinates": [ 119.0484, 25.4824 ] } },
{ "type": "Feature", "properties": { "ogc_fid": 1047, "name": "Dong ban", "name_zh": "ä¸œå‚", "township": "Xitianwei", "UID_V": "V445" }, "geometry": { "type": "Point", "coordinates": [ 119.0262, 25.4723 ] } },
{ "type": "Feature", "properties": { "ogc_fid": 1048, "name": "Xia cuo", "name_zh": "ä¸‹åŽ", "township": "Qiulu", "UID_V": "V530" }, "geometry": { "type": "Point", "coordinates": [ 119.0726, 25.5161 ] } },
{ "type": "Feature", "properties": { "ogc_fid": 1054, "name": "Bei cheng", "name_zh": "åŒ—åŸ•", "township": "Qiulu", "UID_V": "V533" }, "geometry": { "type": "Point", "coordinates": [ 119.0732, 25.5289 ] } },
{ "type": "Feature", "properties": { "ogc_fid": 1175, "name": "Yuan qian", "name_zh": "é™¢å‰", "township": "Hushi", "UID_V": "V240" }, "geometry": { "type": "Point", "coordinates": [ 119.0792, 25.3427 ] } },
{ "type": "Feature", "properties": { "ogc_fid": 1176, "name": "Xia ba bian", "name_zh": "ä¸‹åè¾¹", "township": "Hushi", "UID_V": "V223" }, "geometry": { "type": "Point", "coordinates": [ 119.0799, 25.3207 ] } },
{ "type": "Feature", "properties": { "ogc_fid": 1177, "name": "Shang ba bian", "name_zh": "ä¸Šåè¾¹", "township": "Hushi", "UID_V": "V222" }, "geometry": { "type": "Point", "coordinates": [ 119.0788, 25.3224 ] } },
{ "type": "Feature", "properties": { "ogc_fid": 1178, "name": "Lai zhai", "name_zh": "æ¿‘å®…", "township": "Hushi", "UID_V": "V206" }, "geometry": { "type": "Point", "coordinates": [ 119.1343, 25.3169 ] } },
{ "type": "Feature", "properties": { "ogc_fid": 1180, "name": "Ding xi", "name_zh": "é¡¶æºª", "township": "Hushi", "UID_V": "V205" }, "geometry": { "type": "Point", "coordinates": [ 119.1401, 25.3244 ] } },
{ "type": "Feature", "properties": { "ogc_fid": 1181, "name": "Dong zhang", "name_zh": "ä¸œå¼ ", "township": "Huangshi", "UID_V": "V153" }, "geometry": { "type": "Point", "coordinates": [ 119.1026, 25.3579 ] } },
{ "type": "Feature", "properties": { "ogc_fid": 1182, "name": "Xi zhang", "name_zh": "è¥¿å¼ ", "township": "Huangshi", "UID_V": "V154" }, "geometry": { "type": "Point", "coordinates": [ 119.1002, 25.3593 ] } },
{ "type": "Feature", "properties": { "ogc_fid": 1185, "name": "Zheng cuo", "name_zh": "éƒ‘åŽ", "township": "Huangshi", "UID_V": "V168" }, "geometry": { "type": "Point", "coordinates": [ 119.1313, 25.3757 ] } },
{ "type": "Feature", "properties": { "ogc_fid": 1186, "name": "Shang zhou", "name_zh": "ä¸Šé‚¹", "township": "Huangshi", "UID_V": "V165" }, "geometry": { "type": "Point", "coordinates": [ 119.1335, 25.3779 ] } },
{ "type": "Feature", "properties": { "ogc_fid": 1187, "name": "Xia zhou", "name_zh": "ä¸‹é‚¹", "township": "Huangshi", "UID_V": "V166" }, "geometry": { "type": "Point", "coordinates": [ 119.1308, 25.3786 ] } },
{ "type": "Feature", "properties": { "ogc_fid": 1188, "name": "Hou ting", "name_zh": "åŽäº­", "township": "Quqiao", "UID_V": "V059" }, "geometry": { "type": "Point", "coordinates": [ 119.0391, 25.4013 ] } },
{ "type": "Feature", "properties": { "ogc_fid": 1189, "name": "San jiao zeng", "name_zh": "ä¸‰è§’æ›¾", "township": "Quqiao", "UID_V": "V062" }, "geometry": { "type": "Point", "coordinates": [ 119.0403, 25.399 ] } },
{ "type": "Feature", "properties": { "ogc_fid": 1190, "name": "Cang kou", "name_zh": "è‹å£", "township": "Hanjiang", "UID_V": "V584" }, "geometry": { "type": "Point", "coordinates": [ 119.1014, 25.4641 ] } },
{ "type": "Feature", "properties": { "ogc_fid": 1193, "name": "Ge gou", "name_zh": "éš”æ²Ÿ", "township": "Chengjiao", "UID_V": "V337" }, "geometry": { "type": "Point", "coordinates": [ 119.0207, 25.4436 ] } },
{ "type": "Feature", "properties": { "ogc_fid": 1194, "name": "Zhang gong dun", "name_zh": "å¼ å…¬å¢©", "township": "Hanjiang", "UID_V": "V611" }, "geometry": { "type": "Point", "coordinates": [ 119.1093, 25.4469 ] } },
{ "type": "Feature", "properties": { "ogc_fid": 1196, "name": "Qiao tou", "name_zh": "æ¡¥å¤´", "township": "Huangshi", "UID_V": "V114" }, "geometry": { "type": "Point", "coordinates": [ 119.0711, 25.3859 ] } },
{ "type": "Feature", "properties": { "ogc_fid": 1197, "name": "She qian", "name_zh": "ç¤¾å‰", "township": "Huangshi", "UID_V": "V117" }, "geometry": { "type": "Point", "coordinates": [ 119.0659, 25.3841 ] } },
{ "type": "Feature", "properties": { "ogc_fid": 1198, "name": "Tian ba", "name_zh": "ç”°å", "township": "Huangshi", "UID_V": "V119" }, "geometry": { "type": "Point", "coordinates": [ 119.0659, 25.383 ] } },
{ "type": "Feature", "properties": { "ogc_fid": 1199, "name": "Ban tou", "name_zh": "é˜ªå¤´", "township": "Huangshi", "UID_V": "V116" }, "geometry": { "type": "Point", "coordinates": [ 119.0701, 25.3851 ] } },
{ "type": "Feature", "properties": { "ogc_fid": 1200, "name": "Shu xia", "name_zh": "æ ‘ä¸‹", "township": "Huangshi", "UID_V": "V118" }, "geometry": { "type": "Point", "coordinates": [ 119.0674, 25.3839 ] } },
{ "type": "Feature", "properties": { "ogc_fid": 1201, "name": "Xi cuo", "name_zh": "è¥¿åŽ", "township": "Huangshi", "UID_V": "V115" }, "geometry": { "type": "Point", "coordinates": [ 119.0659, 25.3851 ] } },
{ "type": "Feature", "properties": { "ogc_fid": 1202, "name": "Ke li", "name_zh": "ç‚é‡Œ", "township": "Huangshi", "UID_V": "V125" }, "geometry": { "type": "Point", "coordinates": [ 119.0822, 25.3866 ] } },
{ "type": "Feature", "properties": { "ogc_fid": 1203, "name": "Ta dou", "name_zh": "å¡”å…œ", "township": "Huangshi", "UID_V": "V147" }, "geometry": { "type": "Point", "coordinates": [ 119.0836, 25.3897 ] } },
{ "type": "Feature", "properties": { "ogc_fid": 1205, "name": "Hou yuan", "name_zh": "åŽé™¢", "township": "Huangshi", "UID_V": "V091" }, "geometry": { "type": "Point", "coordinates": [ 119.0575, 25.3683 ] } },
{ "type": "Feature", "properties": { "ogc_fid": 1206, "name": "Shang liu zhuang", "name_zh": "ä¸Šåˆ˜åº„", "township": "Jiangkou", "UID_V": "V720" }, "geometry": { "type": "Point", "coordinates": [ 119.1369, 25.493 ] } },
{ "type": "Feature", "properties": { "ogc_fid": 1208, "name": "Tian zhong yang", "name_zh": "ç”°ä¸­å¤®", "township": "Jiangkou", "UID_V": "V696" }, "geometry": { "type": "Point", "coordinates": [ 119.1534, 25.4778 ] } },
{ "type": "Feature", "properties": { "ogc_fid": 1209, "name": "Xi zheng", "name_zh": "è¥¿éƒ‘", "township": "Wutang", "UID_V": "V570" }, "geometry": { "type": "Point", "coordinates": [ 119.0866, 25.4849 ] } },
{ "type": "Feature", "properties": { "ogc_fid": 1271, "name": "Xi tou", "name_zh": "æºªå¤´", "township": "Chengjiao", "UID_V": "V381" }, "geometry": { "type": "Point", "coordinates": [ 119.0262, 25.462 ] } },
{ "type": "Feature", "properties": { "ogc_fid": 1292, "name": "Xin xu", "name_zh": "æ–°å¾", "township": "Hushi", "UID_V": "V209" }, "geometry": { "type": "Point", "coordinates": [ 119.1191, 25.315 ] } },
{ "type": "Feature", "properties": { "ogc_fid": 1293, "name": "Jiu xu", "name_zh": "æ—§å¾", "township": "Hushi", "UID_V": "V210" }, "geometry": { "type": "Point", "coordinates": [ 119.1248, 25.3156 ] } },
{ "type": "Feature", "properties": { "ogc_fid": 1295, "name": "Fang jing", "name_zh": "åŠäº•", "township": "Beigao", "UID_V": "V182" }, "geometry": { "type": "Point", "coordinates": [ 119.1446, 25.342 ] } },
{ "type": "Feature", "properties": { "ogc_fid": 1297, "name": "Bei gao", "name_zh": "åŒ—é«˜", "township": "Beigao", "UID_V": "V184" }, "geometry": { "type": "Point", "coordinates": [ 119.1393, 25.3413 ] } },
{ "type": "Feature", "properties": { "ogc_fid": 1317, "name": "Ding bang wei", "name_zh": "é¡¶é‚¦å°¾", "township": "Jiangkou", "UID_V": "V708" }, "geometry": { "type": "Point", "coordinates": [ 119.1684, 25.4937 ] } },
{ "type": "Feature", "properties": { "ogc_fid": 1322, "name": "Cao mang", "name_zh": "è‰èŽ½", "township": "Hushi", "UID_V": "V207" }, "geometry": { "type": "Point", "coordinates": [ 119.1167, 25.3063 ] } },
{ "type": "Feature", "properties": { "ogc_fid": 1349, "name": "Su tang", "name_zh": "è‹å¡˜", "township": "Hushi", "UID_V": "V208" }, "geometry": { "type": "Point", "coordinates": [ 119.108, 25.305 ] } },
{ "type": "Feature", "properties": { "ogc_fid": 1384, "name": "Long qiao jie", "name_zh": "é¾™æ¡¥è¡—", "township": "Chengjiao", "UID_V": "V324" }, "geometry": { "type": "Point", "coordinates": [ 119.0051, 25.4557 ] } },
{ "type": "Feature", "properties": { "ogc_fid": 1392, "name": "Dong dun", "name_zh": "ä¸œå¢©", "township": "Hanjiang", "UID_V": "V501" }, "geometry": { "type": "Point", "coordinates": [ 119.0646, 25.4441 ] } },
{ "type": "Feature", "properties": { "ogc_fid": 1395, "name": "Xia nan jiao", "name_zh": "ä¸‹å—éƒŠ", "township": "Chengjiao", "UID_V": "V385" }, "geometry": { "type": "Point", "coordinates": [ 119.0315, 25.4588 ] } },
{ "type": "Feature", "properties": { "ogc_fid": 1396, "name": "Dong po", "name_zh": "ä¸œå¡", "township": "Chengjiao", "UID_V": "V302" }, "geometry": { "type": "Point", "coordinates": [ 118.9983, 25.4179 ] } },
{ "type": "Feature", "properties": { "ogc_fid": 1424, "name": "Gou xia", "name_zh": "æ²Ÿä¸‹", "township": "Chengjiao", "UID_V": "V339" }, "geometry": { "type": "Point", "coordinates": [ 119.0211, 25.4418 ] } },
{ "type": "Feature", "properties": { "ogc_fid": 1426, "name": "Qin wei", "name_zh": "æ²å°¾", "township": "Quqiao", "UID_V": "V279" }, "geometry": { "type": "Point", "coordinates": [ 119.0411, 25.3588 ] } },
{ "type": "Feature", "properties": { "ogc_fid": 1427, "name": "Chi song", "name_zh": "èµ¤æ¾", "township": "Quqiao", "UID_V": "V273" }, "geometry": { "type": "Point", "coordinates": [ 119.0255, 25.3382 ] } },
{ "type": "Feature", "properties": { "ogc_fid": 1428, "name": "Ding cuo", "name_zh": "é¡¶åŽ", "township": "Chengjiao", "UID_V": "V426" }, "geometry": { "type": "Point", "coordinates": [ 119.0063, 25.4663 ] } },
{ "type": "Feature", "properties": { "ogc_fid": 1431, "name": "Bei pu", "name_zh": "åŒ—åŸ”", "township": "Hushi", "UID_V": "V221" }, "geometry": { "type": "Point", "coordinates": [ 119.0916, 25.3192 ] } },
{ "type": "Feature", "properties": { "ogc_fid": 1433, "name": "Zhai li", "name_zh": "å¯¨é‡Œ", "township": "Jiangkou", "UID_V": "V698" }, "geometry": { "type": "Point", "coordinates": [ 119.1549, 25.4755 ] } },
{ "type": "Feature", "properties": { "ogc_fid": 1435, "name": "Zhong yang cuo", "name_zh": "ä¸­å¤®åŽ", "township": "Jiangkou", "UID_V": "V699" }, "geometry": { "type": "Point", "coordinates": [ 119.1567, 25.4793 ] } },
{ "type": "Feature", "properties": { "ogc_fid": 1436, "name": "Huang da ting", "name_zh": "é»„å¤§åº­", "township": "Hanjiang", "UID_V": "V631" }, "geometry": { "type": "Point", "coordinates": [ 119.1386, 25.4634 ] } },
{ "type": "Feature", "properties": { "ogc_fid": 1437, "name": "Xia shang lin", "name_zh": "ä¸‹ä¸Šæž—", "township": "Hanjiang", "UID_V": "V594" }, "geometry": { "type": "Point", "coordinates": [ 119.1057, 25.4906 ] } },
{ "type": "Feature", "properties": { "ogc_fid": 1438, "name": "Wei cuo", "name_zh": "å°¾åŽ", "township": "Hanjiang", "UID_V": "V613" }, "geometry": { "type": "Point", "coordinates": [ 119.1135, 25.4456 ] } },
{ "type": "Feature", "properties": { "ogc_fid": 1440, "name": "Zhen jiang", "name_zh": "é•‡æ±Ÿ", "township": "Hanjiang", "UID_V": "V423" }, "geometry": { "type": "Point", "coordinates": [ 119.0861, 25.4296 ] } },
{ "type": "Feature", "properties": { "ogc_fid": 1441, "name": "Keng wei", "name_zh": "å‘å°¾", "township": "Hushi", "UID_V": "V230" }, "geometry": { "type": "Point", "coordinates": [ 119.0858, 25.3378 ] } },
{ "type": "Feature", "properties": { "ogc_fid": 1442, "name": "Shi xia", "name_zh": "å¸‚ä¸‹", "township": "Huangshi", "UID_V": "V111" }, "geometry": { "type": "Point", "coordinates": [ 119.0736, 25.3791 ] } },
{ "type": "Feature", "properties": { "ogc_fid": 1443, "name": "Hou dai", "name_zh": "åŽæˆ´", "township": "Quqiao", "UID_V": "V066" }, "geometry": { "type": "Point", "coordinates": [ 119.0404, 25.3922 ] } },
{ "type": "Feature", "properties": { "ogc_fid": 1444, "name": "Hou zheng", "name_zh": "åŽéƒ‘", "township": "Quqiao", "UID_V": "V065" }, "geometry": { "type": "Point", "coordinates": [ 119.0439, 25.3887 ] } },
{ "type": "Feature", "properties": { "ogc_fid": 1445, "name": "Gou cen", "name_zh": "æ²Ÿå²‘", "township": "Huangshi", "UID_V": "V064" }, "geometry": { "type": "Point", "coordinates": [ 119.0414, 25.3903 ] } },
{ "type": "Feature", "properties": { "ogc_fid": 1446, "name": "Tian wei", "name_zh": "ç”°å°¾", "township": "Hanjiang", "UID_V": "V609" }, "geometry": { "type": "Point", "coordinates": [ 119.0986, 25.4524 ] } },
{ "type": "Feature", "properties": { "ogc_fid": 1447, "name": "Yan ning", "name_zh": "å»¶å®", "township": "Hanjiang", "UID_V": "V605" }, "geometry": { "type": "Point", "coordinates": [ 119.1021, 25.4509 ] } },
{ "type": "Feature", "properties": { "ogc_fid": 1451, "name": "Gou dong", "name_zh": "æ²Ÿä¸œ", "township": "Quqiao", "UID_V": "V067" }, "geometry": { "type": "Point", "coordinates": [ 119.0453, 25.3869 ] } },
{ "type": "Feature", "properties": { "ogc_fid": 1453, "name": "Ge tou", "name_zh": "éš”å¤´", "township": "Qiulu", "UID_V": "V023" }, "geometry": { "type": "Point", "coordinates": [ 119.0078, 25.4033 ] } },
{ "type": "Feature", "properties": { "ogc_fid": 1454, "name": "Qian hu", "name_zh": "å‰æ¹–", "township": "Qiulu", "UID_V": "V054" }, "geometry": { "type": "Point", "coordinates": [ 119.0452, 25.4059 ] } },
{ "type": "Feature", "properties": { "ogc_fid": 1455, "name": "Hui bi", "name_zh": "ç°å£", "township": "Quqiao", "UID_V": "V055" }, "geometry": { "type": "Point", "coordinates": [ 119.0489, 25.4085 ] } },
{ "type": "Feature", "properties": { "ogc_fid": 1457, "name": "Du bian", "name_zh": "åº¦è¾¹", "township": "Qiulu", "UID_V": "V060" }, "geometry": { "type": "Point", "coordinates": [ 119.038, 25.3982 ] } },
{ "type": "Feature", "properties": { "ogc_fid": 1459, "name": "Qi cuo", "name_zh": "å´ŽåŽ", "township": null, "UID_V": "V173" }, "geometry": { "type": "Point", "coordinates": [ 119.1546, 25.3662 ] } },
{ "type": "Feature", "properties": { "ogc_fid": 1460, "name": "Da xi", "name_zh": "å¤§æºª", "township": "Chengjiao", "UID_V": "V319" }, "geometry": { "type": "Point", "coordinates": [ 118.9953, 25.4412 ] } },
{ "type": "Feature", "properties": { "ogc_fid": 1461, "name": "Shan ding", "name_zh": "å±±é¡¶", "township": "Hushi", "UID_V": "V229" }, "geometry": { "type": "Point", "coordinates": [ 119.0819, 25.3336 ] } },
{ "type": "Feature", "properties": { "ogc_fid": 1462, "name": "Lin keng", "name_zh": "æž—å‘", "township": "Hushi", "UID_V": "V238" }, "geometry": { "type": "Point", "coordinates": [ 119.0632, 25.3381 ] } },
{ "type": "Feature", "properties": { "ogc_fid": 1463, "name": "Tu di hou", "name_zh": "åœŸåœ°åŽ", "township": "Chengjiao", "UID_V": "V327" }, "geometry": { "type": "Point", "coordinates": [ 119.0074, 25.4579 ] } },
{ "type": "Feature", "properties": { "ogc_fid": 1464, "name": "Wei cuo", "name_zh": "å°¾åŽ", "township": "Chengjiao", "UID_V": "V387" }, "geometry": { "type": "Point", "coordinates": [ 119.0352, 25.4568 ] } },
{ "type": "Feature", "properties": { "ogc_fid": 1465, "name": "Hou dun", "name_zh": "åŽå¢©", "township": "Chengjiao", "UID_V": "V397" }, "geometry": { "type": "Point", "coordinates": [ 119.0531, 25.4469 ] } },
{ "type": "Feature", "properties": { "ogc_fid": 1466, "name": "Qian dun", "name_zh": "å‰å¢©", "township": "Chengjiao", "UID_V": "V396" }, "geometry": { "type": "Point", "coordinates": [ 119.0539, 25.4499 ] } },
{ "type": "Feature", "properties": { "ogc_fid": 1467, "name": "Jiao xia", "name_zh": "éƒŠä¸‹", "township": "Chengjiao", "UID_V": "V393" }, "geometry": { "type": "Point", "coordinates": [ 119.0486, 25.4445 ] } },
{ "type": "Feature", "properties": { "ogc_fid": 1468, "name": "Duxi", "name_zh": "åº¦è¥¿", "township": "Xitianwei", "UID_V": "V448" }, "geometry": { "type": "Point", "coordinates": [ 119.0339, 25.4794 ] } },
{ "type": "Feature", "properties": { "ogc_fid": 1469, "name": "Keng bian", "name_zh": "å‘è¾¹", "township": "Xitianwei", "UID_V": "V452" }, "geometry": { "type": "Point", "coordinates": [ 119.0432, 25.5013 ] } },
{ "type": "Feature", "properties": { "ogc_fid": 1471, "name": "Xi lin", "name_zh": "è¥¿æž—", "township": "Hanjiang", "UID_V": "V585" }, "geometry": { "type": "Point", "coordinates": [ 119.1042, 25.4668 ] } },
{ "type": "Feature", "properties": { "ogc_fid": 1472, "name": "Dong xu", "name_zh": "ä¸œå¾", "township": "Wutang", "UID_V": "V589" }, "geometry": { "type": "Point", "coordinates": [ 119.1245, 25.4936 ] } },
{ "type": "Feature", "properties": { "ogc_fid": 1473, "name": "Lou Xia", "name_zh": "æ¥¼ä¸‹", "township": "Hanjiang", "UID_V": "V600" }, "geometry": { "type": "Point", "coordinates": [ 119.1039, 25.4544 ] } },
{ "type": "Feature", "properties": { "ogc_fid": 1475, "name": "Wei yang", "name_zh": "æ¸­é˜³", "township": "Xitianwei", "UID_V": "V540" }, "geometry": { "type": "Point", "coordinates": [ 119.0472, 25.5135 ] } },
{ "type": "Feature", "properties": { "ogc_fid": null, "name": "Huiyang", "name_zh": "æƒ æ´‹", "township": "Huangshi", "UID_V": "V161" }, "geometry": { "type": "Point", "coordinates": [ 119.1135, 25.3653 ] } },
{ "type": "Feature", "properties": { "ogc_fid": null, "name": "Xiao jiao wei", "name_zh": "å°éƒŠå°¾", "township": null, "UID_V": "V694" }, "geometry": { "type": "Point", "coordinates": [ 119.1539, 25.4862 ] } },
{ "type": "Feature", "properties": { "ogc_fid": null, "name": "Xi jin", "name_zh": "è¥¿æ´¥", "township": "Hushi", "UID_V": "V242" }, "geometry": { "type": "Point", "coordinates": [ 119.0749, 25.3379 ] } }
]
}
