[{
    "UID_A": "A001",
    "Name": "Beitou sishê (Beitou four shê ritual alliance)",
    "Name_zh": "陂头四社",
    "Num_Villages": 4,
    "Villages": [{
        "UID_V": "V001",
        "Name": "Beitou",
        "Name_zh": "陂头"
    }, {
        "UID_V": "V002",
        "Name": "Wumen",
        "Name_zh": "吴门"
    }, {
        "UID_V": "V003",
        "Name": "Tiezao",
        "Name_zh": "铁灶"
    }, {
        "UID_V": "V004",
        "Name": "Baiyuling",
        "Name_zh": "白玉岭"
    }]
}, {
    "UID_A": "A002",
    "Name": "Hengshan sicun (Hengshan four village ritual alliance)",
    "Name_zh": "横山四村",
    "Num_Villages": 4,
    "Villages": [{
        "UID_V": "V005",
        "Name": "Longqian",
        "Name_zh": "龙前"
    }, {
        "UID_V": "V006",
        "Name": "Puzi",
        "Name_zh": "莆仔"
    }, {
        "UID_V": "V007",
        "Name": "Shanghengshan",
        "Name_zh": "上横山"
    }, {
        "UID_V": "V008",
        "Name": "Xiahengshen",
        "Name_zh": "下横山"
    }]
}, {
    "UID_A": "A003",
    "Name": "Goukou qijing (Goukou sevenfold ritual alliance)",
    "Name_zh": "沟口七境",
    "Num_Villages": 8,
    "Villages": [{
        "UID_V": "V009",
        "Name": "Qingcha",
        "Name_zh": "青垞"
    }, {
        "UID_V": "V010",
        "Name": "Yunzhuang",
        "Name_zh": "云庄"
    }, {
        "UID_V": "V011",
        "Name": "Goukou",
        "Name_zh": "沟口"
    }, {
        "UID_V": "V012",
        "Name": "Goudong",
        "Name_zh": "沟东"
    }, {
        "UID_V": "V013",
        "Name": "Gouxi",
        "Name_zh": "沟西"
    }, {
        "UID_V": "V014",
        "Name": "Qiandun",
        "Name_zh": "前墩"
    }, {
        "UID_V": "V015",
        "Name": "Zhongdun",
        "Name_zh": "中墩"
    }, {
        "UID_V": "V016",
        "Name": "Houdun",
        "Name_zh": "后墩"
    }]
}, {
    "UID_A": "A004",
    "Name": "Zhengban qijing (Zhengban sevenfold ritual alliance)",
    "Name_zh": "郑阪七境",
    "Num_Villages": 7,
    "Villages": [{
        "UID_V": "V017",
        "Name": "Houmian",
        "Name_zh": "后面"
    }, {
        "UID_V": "V018",
        "Name": "Dingcuo",
        "Name_zh": "顶厝"
    }, {
        "UID_V": "V019",
        "Name": "Xiacuo",
        "Name_zh": "下厝"
    }, {
        "UID_V": "V020",
        "Name": "Gouxia",
        "Name_zh": "沟下"
    }, {
        "UID_V": "V021",
        "Name": "Xiwei",
        "Name_zh": "西尾"
    }, {
        "UID_V": "V022",
        "Name": "Cangtou",
        "Name_zh": "苍头"
    }, {
        "UID_V": "V023",
        "Name": "Getou",
        "Name_zh": "隔头"
    }]
}, {
    "UID_A": "A005",
    "Name": "Hutang wucun (Hutang five village ritual alliance)",
    "Name_zh": "梧塘五村",
    "Num_Villages": 5,
    "Villages": [{
        "UID_V": "V024",
        "Name": "Nanwutang",
        "Name_zh": "南梧塘"
    }, {
        "UID_V": "V025",
        "Name": "Xiaqutou",
        "Name_zh": "下渠头"
    }, {
        "UID_V": "V026",
        "Name": "Dongting",
        "Name_zh": "东亭"
    }, {
        "UID_V": "V027",
        "Name": "Tangdong",
        "Name_zh": "塘东"
    }, {
        "UID_V": "V028",
        "Name": "Houliao",
        "Name_zh": "后廖"
    }]
}, {
    "UID_A": "A006",
    "Name": "Jindun qijing (Jindun sevenfold ritual alliance)",
    "Name_zh": "锦墩七境",
    "Num_Villages": 8,
    "Villages": [{
        "UID_V": "V029",
        "Name": "Xiadun",
        "Name_zh": "下墩"
    }, {
        "UID_V": "V030",
        "Name": "Quqiao",
        "Name_zh": "渠桥"
    }, {
        "UID_V": "V031",
        "Name": "Dongling",
        "Name_zh": "东岭"
    }, {
        "UID_V": "V032",
        "Name": "Tangbian",
        "Name_zh": "塘边"
    }, {
        "UID_V": "V033",
        "Name": "Dubian",
        "Name_zh": "度边"
    }, {
        "UID_V": "V034",
        "Name": "Xiangtou",
        "Name_zh": "巷口"
    }, {
        "UID_V": "V035",
        "Name": "Houting",
        "Name_zh": "后亭"
    }, {
        "UID_V": "V036",
        "Name": "Zhenwei",
        "Name_zh": "圳尾"
    }]
}, {
    "UID_A": "A007",
    "Name": "Xidong sancun (Xidong three village ritual alliance)",
    "Name_zh": "溪东三村",
    "Num_Villages": 3,
    "Villages": [{
        "UID_V": "V037",
        "Name": "Yangwei",
        "Name_zh": "洋尾"
    }, {
        "UID_V": "V038",
        "Name": "Xidong",
        "Name_zh": "溪东"
    }, {
        "UID_V": "V039",
        "Name": "Dongba",
        "Name_zh": "东坝"
    }]
}, {
    "UID_A": "A008",
    "Name": "Xinxi sancun (Xinxi three village ritual alliance)",
    "Name_zh": "新溪三村",
    "Num_Villages": 3,
    "Villages": [{
        "UID_V": "V040",
        "Name": "Xiquantou",
        "Name_zh": "溪泉头"
    }, {
        "UID_V": "V041",
        "Name": "Sanshê",
        "Name_zh": "三社"
    }, {
        "UID_V": "V042",
        "Name": "Daili",
        "Name_zh": "埭里"
    }]
}, {
    "UID_A": "A009",
    "Name": "Buyun ershê (Buyun two shê ritual alliance)",
    "Name_zh": "步云二村",
    "Num_Villages": 1,
    "Villages": [{
        "UID_V": "V043",
        "Name": "Buyun",
        "Name_zh": "步云"
    }]
}, {
    "UID_A": "A010",
    "Name": "Baicheng qijing (Baicheng sevenfold ritual alliance)",
    "Name_zh": "白埕七境",
    "Num_Villages": 7,
    "Villages": [{
        "UID_V": "V044",
        "Name": "Baicheng",
        "Name_zh": "白埕"
    }, {
        "UID_V": "V045",
        "Name": "Qianmian",
        "Name_zh": "前面"
    }, {
        "UID_V": "V046",
        "Name": "Qubian",
        "Name_zh": "屈边"
    }, {
        "UID_V": "V047",
        "Name": "Houshê",
        "Name_zh": "后社"
    }, {
        "UID_V": "V048",
        "Name": "Houdai",
        "Name_zh": "后埭"
    }, {
        "UID_V": "V049",
        "Name": "Yuanding",
        "Name_zh": "园顶"
    }, {
        "UID_V": "V050",
        "Name": "Puwei",
        "Name_zh": "浦尾"
    }]
}, {
    "UID_A": "A011",
    "Name": "Zhangjiang bashê (Zhangjiang eight shê ritual alliance)",
    "Name_zh": "章江八社",
    "Num_Villages": 8,
    "Villages": [{
        "UID_V": "V051",
        "Name": "Houzhou",
        "Name_zh": "后周"
    }, {
        "UID_V": "V052",
        "Name": "Houpeng",
        "Name_zh": "后彭"
    }, {
        "UID_V": "V053",
        "Name": "Houhu",
        "Name_zh": "后湖"
    }, {
        "UID_V": "V054",
        "Name": "Qianhu",
        "Name_zh": "前湖"
    }, {
        "UID_V": "V055",
        "Name": "Huibi",
        "Name_zh": "灰壁"
    }, {
        "UID_V": "V056",
        "Name": "Xicuo",
        "Name_zh": "西厝"
    }, {
        "UID_V": "V057",
        "Name": "Beicuo",
        "Name_zh": "北厝"
    }, {
        "UID_V": "V058",
        "Name": "Weicuo",
        "Name_zh": "尾厝"
    }]
}, {
    "UID_A": "A012",
    "Name": "Xindu jiushê (Xindu nine shê ritual alliance)",
    "Name_zh": "新度九社",
    "Num_Villages": 4,
    "Villages": [{
        "UID_V": "V059",
        "Name": "Houting",
        "Name_zh": "后亭"
    }, {
        "UID_V": "V060",
        "Name": "Dubian",
        "Name_zh": "度边"
    }, {
        "UID_V": "V061",
        "Name": "Dongdian",
        "Name_zh": "东店"
    }, {
        "UID_V": "V062",
        "Name": "Sanjiaozeng",
        "Name_zh": "三角曾"
    }]
}, {
    "UID_A": "A013",
    "Name": "Cuobing sishê (four shê ritual alliance of Cuobing)",
    "Name_zh": "厝柄四社",
    "Num_Villages": 1,
    "Villages": [{
        "UID_V": "V063",
        "Name": "Cuobing",
        "Name_zh": "厝柄"
    }]
}, {
    "UID_A": "A014",
    "Name": "Puban qijing (Puban sevenfold ritual of alliance)",
    "Name_zh": "蒲阪七境",
    "Num_Villages": 8,
    "Villages": [{
        "UID_V": "V064",
        "Name": "Goucen",
        "Name_zh": "沟岑"
    }, {
        "UID_V": "V065",
        "Name": "Houzheng",
        "Name_zh": "后郑"
    }, {
        "UID_V": "V066",
        "Name": "Houdai",
        "Name_zh": "后戴"
    }, {
        "UID_V": "V067",
        "Name": "Goudong",
        "Name_zh": "溝東"
    }, {
        "UID_V": "V068",
        "Name": "Shangdun",
        "Name_zh": "上墩"
    }, {
        "UID_V": "V069",
        "Name": "Yaogou",
        "Name_zh": "腰沟"
    }, {
        "UID_V": "V070",
        "Name": "Peiwei",
        "Name_zh": "沛尾"
    }, {
        "UID_V": "V071",
        "Name": "Xijiao",
        "Name_zh": "西角"
    }]
}, {
    "UID_A": "A015",
    "Name": "Xiaban qijing (Xiaban sevenfold ritual alliance)",
    "Name_zh": "下阪七境",
    "Num_Villages": 7,
    "Villages": [{
        "UID_V": "V072",
        "Name": "Zhongjing",
        "Name_zh": "中境"
    }, {
        "UID_V": "V073",
        "Name": "Xiahe",
        "Name_zh": "下何"
    }, {
        "UID_V": "V074",
        "Name": "Huangcuoli",
        "Name_zh": "黄厝里"
    }, {
        "UID_V": "V075",
        "Name": "Houxiang",
        "Name_zh": "后巷"
    }, {
        "UID_V": "V076",
        "Name": "Dalu",
        "Name_zh": "大路"
    }, {
        "UID_V": "V077",
        "Name": "Shanping",
        "Name_zh": "山坪"
    }, {
        "UID_V": "V078",
        "Name": "Hongshan",
        "Name_zh": "紅山"
    }]
}, {
    "UID_A": "A016",
    "Name": "Shanxiang sijia (The four jia ritual alliance of Shanxiang)",
    "Name_zh": "善乡四甲",
    "Num_Villages": 1,
    "Villages": [{
        "UID_V": "V079",
        "Name": "Shanxiang",
        "Name_zh": "善乡"
    }]
}, {
    "UID_A": "A017",
    "Name": "Dongjiao liucun (Dongjiao six village ritual alliance)",
    "Name_zh": "东郊六村",
    "Num_Villages": 6,
    "Villages": [{
        "UID_V": "V080",
        "Name": "Dingcuo",
        "Name_zh": "頂厝"
    }, {
        "UID_V": "V081",
        "Name": "Dingsong",
        "Name_zh": "顶宋"
    }, {
        "UID_V": "V082",
        "Name": "Xiasong",
        "Name_zh": "下宋"
    }, {
        "UID_V": "V083",
        "Name": "Xili",
        "Name_zh": "西利"
    }, {
        "UID_V": "V084",
        "Name": "Xiating",
        "Name_zh": "下亭"
    }, {
        "UID_V": "V085",
        "Name": "Houli",
        "Name_zh": "后利"
    }]
}, {
    "UID_A": "A018",
    "Name": "Zhangqiao sanjia (Zhangqiao three jia ritual alliance)",
    "Name_zh": "樟桥三甲",
    "Num_Villages": 1,
    "Villages": [{
        "UID_V": "V086",
        "Name": "Zhangqiao",
        "Name_zh": "樟桥"
    }]
}, {
    "UID_A": "A019",
    "Name": "Yangcheng qijing (Yangcheng sevenfold ritual alliance)",
    "Name_zh": "洋埕七境",
    "Num_Villages": 1,
    "Villages": [{
        "UID_V": "V087",
        "Name": "Yangcheng",
        "Name_zh": "洋埕"
    }]
}, {
    "UID_A": "A020",
    "Name": "Qiantang qijing (Qiantang sevenfold ritual alliance)",
    "Name_zh": "钱塘七境",
    "Num_Villages": 7,
    "Villages": [{
        "UID_V": "V088",
        "Name": "Qiantang",
        "Name_zh": "钱塘"
    }, {
        "UID_V": "V089",
        "Name": "Lingding",
        "Name_zh": "岭顶"
    }, {
        "UID_V": "V090",
        "Name": "Houxu",
        "Name_zh": "后许"
    }, {
        "UID_V": "V091",
        "Name": "Houyuan",
        "Name_zh": "后院"
    }, {
        "UID_V": "V092",
        "Name": "Huangyuan",
        "Name_zh": "黄园"
    }, {
        "UID_V": "V093",
        "Name": "Xiazhuang",
        "Name_zh": "下庄"
    }, {
        "UID_V": "V094",
        "Name": "Shangkeng",
        "Name_zh": "上坑"
    }]
}, {
    "UID_A": "A021",
    "Name": "Shuinan sicun (Shuinan four village riutal alliance)",
    "Name_zh": "水南四村",
    "Num_Villages": 4,
    "Villages": [{
        "UID_V": "V095",
        "Name": "Tangtou",
        "Name_zh": "塘頭"
    }, {
        "UID_V": "V096",
        "Name": "Dongzhu",
        "Name_zh": "东洙"
    }, {
        "UID_V": "V097",
        "Name": "Lukeng",
        "Name_zh": "芦坑"
    }, {
        "UID_V": "V098",
        "Name": "Shandou",
        "Name_zh": "山兜"
    }]
}, {
    "UID_A": "A022",
    "Name": "Yaotai sanjia (Yaotai three jia ritual alliance)",
    "Name_zh": "瑶台三甲",
    "Num_Villages": 1,
    "Villages": [{
        "UID_V": "V099",
        "Name": "Yaotai",
        "Name_zh": "瑶台"
    }]
}, {
    "UID_A": "A023",
    "Name": "Fengshan liucun (Fengshan six village ritual alliance)",
    "Name_zh": "凤山六村",
    "Num_Villages": 6,
    "Villages": [{
        "UID_V": "V100",
        "Name": "Dingzhuang",
        "Name_zh": "定庄"
    }, {
        "UID_V": "V101",
        "Name": "Changchuan",
        "Name_zh": "长川"
    }, {
        "UID_V": "V102",
        "Name": "Xiaban",
        "Name_zh": "下阪"
    }, {
        "UID_V": "V103",
        "Name": "Tiancuo",
        "Name_zh": "田厝"
    }, {
        "UID_V": "V104",
        "Name": "Shangyuanqian",
        "Name_zh": "上院前"
    }, {
        "UID_V": "V105",
        "Name": "Xiayuanqian",
        "Name_zh": "下院前"
    }]
}, {
    "UID_A": "A024",
    "Name": "Huangshi bashê (Huangshi eight shê ritual alliance)",
    "Name_zh": "黄石八社",
    "Num_Villages": 8,
    "Villages": [{
        "UID_V": "V106",
        "Name": "Guiling",
        "Name_zh": "桂岭"
    }, {
        "UID_V": "V107",
        "Name": "Tingxia",
        "Name_zh": "亭下"
    }, {
        "UID_V": "V108",
        "Name": "Dongjing",
        "Name_zh": "东井"
    }, {
        "UID_V": "V109",
        "Name": "Tangwei",
        "Name_zh": "塘尾"
    }, {
        "UID_V": "V110",
        "Name": "Shuyuankou",
        "Name_zh": "书院口"
    }, {
        "UID_V": "V111",
        "Name": "Shixia",
        "Name_zh": "市下"
    }, {
        "UID_V": "V112",
        "Name": "Shuangxingjing",
        "Name_zh": "双星井"
    }, {
        "UID_V": "V113",
        "Name": "Anxing",
        "Name_zh": "安兴"
    }]
}, {
    "UID_A": "A025",
    "Name": "Shaban qijing (Shaban sevenfold ritual alliance)",
    "Name_zh": "沙阪七境",
    "Num_Villages": 8,
    "Villages": [{
        "UID_V": "V114",
        "Name": "Qiaotou",
        "Name_zh": "桥头"
    }, {
        "UID_V": "V115",
        "Name": "Xicuo",
        "Name_zh": "西厝"
    }, {
        "UID_V": "V116",
        "Name": "Bantou",
        "Name_zh": "阪头"
    }, {
        "UID_V": "V117",
        "Name": "Shêqian",
        "Name_zh": "社前"
    }, {
        "UID_V": "V118",
        "Name": "Shuxia",
        "Name_zh": "树下"
    }, {
        "UID_V": "V119",
        "Name": "Tianba",
        "Name_zh": "田坝"
    }, {
        "UID_V": "V120",
        "Name": "Jindun",
        "Name_zh": "金墩"
    }, {
        "UID_V": "V121",
        "Name": "Longdu",
        "Name_zh": "龙度"
    }]
}, {
    "UID_A": "A026",
    "Name": "Dengying wucun (Dengying five village ritual alliance)",
    "Name_zh": "登瀛五村",
    "Num_Villages": 5,
    "Villages": [{
        "UID_V": "V122",
        "Name": "Wucheng",
        "Name_zh": "吾埕"
    }, {
        "UID_V": "V123",
        "Name": "Chengwei",
        "Name_zh": "埕尾"
    }, {
        "UID_V": "V124",
        "Name": "Kengbing",
        "Name_zh": "坑柄"
    }, {
        "UID_V": "V125",
        "Name": "Keli",
        "Name_zh": "珂里"
    }, {
        "UID_V": "V126",
        "Name": "Xiahu",
        "Name_zh": "下湖"
    }]
}, {
    "UID_A": "A027",
    "Name": "Qingjiang Sancun (Qingjiang three village ritual alliance)",
    "Name_zh": "清江三村",
    "Num_Villages": 3,
    "Villages": [{
        "UID_V": "V127",
        "Name": "Qingzhong",
        "Name_zh": "清中"
    }, {
        "UID_V": "V128",
        "Name": "Qinghou",
        "Name_zh": "清后"
    }, {
        "UID_V": "V129",
        "Name": "Qingqian",
        "Name_zh": "清前"
    }]
}, {
    "UID_A": "A028",
    "Name": "Xihong liushê (Xihong six shê riutal alliance)",
    "Name_zh": "西洪六社",
    "Num_Villages": 1,
    "Villages": [{
        "UID_V": "V130",
        "Name": "Xihong",
        "Name_zh": "西洪"
    }]
}, {
    "UID_A": "A029",
    "Name": "Qiaodou wucun (Qiaodou five village ritual alliance)",
    "Name_zh": "桥兜五村",
    "Num_Villages": 5,
    "Villages": [{
        "UID_V": "V131",
        "Name": "Qiaodou",
        "Name_zh": "桥兜"
    }, {
        "UID_V": "V132",
        "Name": "Xiajiangtou",
        "Name_zh": "下江头"
    }, {
        "UID_V": "V133",
        "Name": "Xiadai",
        "Name_zh": "下埭"
    }, {
        "UID_V": "V134",
        "Name": "Xili",
        "Name_zh": "西利"
    }, {
        "UID_V": "V135",
        "Name": "Yudai",
        "Name_zh": "余埭"
    }]
}, {
    "UID_A": "A030",
    "Name": "Lindun sancun (Lindun three village ritual alliance)",
    "Name_zh": "林墩三村",
    "Num_Villages": 3,
    "Villages": [{
        "UID_V": "V136",
        "Name": "Lindun",
        "Name_zh": "林墩"
    }, {
        "UID_V": "V137",
        "Name": "Jiangxi",
        "Name_zh": "江西"
    }, {
        "UID_V": "V138",
        "Name": "Longhua",
        "Name_zh": "龙华"
    }]
}, {
    "UID_A": "A031",
    "Name": "Jiangdong shiershê (Jiangdong twelve shê ritual alliance)",
    "Name_zh": "江东十二社",
    "Num_Villages": 1,
    "Villages": [{
        "UID_V": "V139",
        "Name": "Jiangdong",
        "Name_zh": "江东"
    }]
}, {
    "UID_A": "A032",
    "Name": "Haibin wujia (Haibin five jia riutal alliance)",
    "Name_zh": "海滨五甲",
    "Num_Villages": 1,
    "Villages": [{
        "UID_V": "V140",
        "Name": "Haibin",
        "Name_zh": "海滨"
    }]
}, {
    "UID_A": "A033",
    "Name": "Zhelang sanjia (Zhelang three jia ritual alliance)",
    "Name_zh": "遮浪三甲",
    "Num_Villages": 1,
    "Villages": [{
        "UID_V": "V141",
        "Name": "Zhelang",
        "Name_zh": "遮浪"
    }]
}, {
    "UID_A": "A034",
    "Name": "Donghua sancun (Donghua three village ritual alliance)",
    "Name_zh": "东华三村",
    "Num_Villages": 3,
    "Villages": [{
        "UID_V": "V142",
        "Name": "Huadi",
        "Name_zh": "华堤"
    }, {
        "UID_V": "V143",
        "Name": "Huazhong",
        "Name_zh": "华中"
    }, {
        "UID_V": "V144",
        "Name": "Huadong",
        "Name_zh": "华东"
    }]
}, {
    "UID_A": "A035",
    "Name": "Jingpu wushê (Jingpu five shê ritual alliance)",
    "Name_zh": "井埔五社",
    "Num_Villages": 3,
    "Villages": [{
        "UID_V": "V145",
        "Name": "Jingpu",
        "Name_zh": "井埔"
    }, {
        "UID_V": "V146",
        "Name": "Houzhu",
        "Name_zh": "后洙"
    }, {
        "UID_V": "V147",
        "Name": "Tadou",
        "Name_zh": "塔兜"
    }]
}, {
    "UID_A": "A036",
    "Name": "Yuanyong wucun (Yuanyong five village ritual alliance)",
    "Name_zh": "员永五村",
    "Num_Villages": 4,
    "Villages": [{
        "UID_V": "V148",
        "Name": "Changkeng",
        "Name_zh": "长坑"
    }, {
        "UID_V": "V149",
        "Name": "Wulong",
        "Name_zh": "五龙"
    }, {
        "UID_V": "V150",
        "Name": "Goubian",
        "Name_zh": "沟边"
    }, {
        "UID_V": "V151",
        "Name": "Daomei",
        "Name_zh": "道美"
    }]
}, {
    "UID_A": "A037",
    "Name": "Tangxia shisanxiang (Tangxia Thirteen village ritual alliance)",
    "Name_zh": "塘下十三乡",
    "Num_Villages": 9,
    "Villages": [{
        "UID_V": "V152",
        "Name": "Wuxiang",
        "Name_zh": "梧巷"
    }, {
        "UID_V": "V153",
        "Name": "Dongzhang",
        "Name_zh": "东张"
    }, {
        "UID_V": "V154",
        "Name": "Xizhang",
        "Name_zh": "西张"
    }, {
        "UID_V": "V155",
        "Name": "Zhucuo",
        "Name_zh": "朱厝"
    }, {
        "UID_V": "V156",
        "Name": "Xigou",
        "Name_zh": "西沟"
    }, {
        "UID_V": "V157",
        "Name": "Xiyuan",
        "Name_zh": "西园"
    }, {
        "UID_V": "V158",
        "Name": "Kangcuo",
        "Name_zh": "康厝"
    }, {
        "UID_V": "V159",
        "Name": "Wucuo",
        "Name_zh": "吴厝"
    }, {
        "UID_V": "V160",
        "Name": "Shanqianzi",
        "Name_zh": "山前仔"
    }]
}, {
    "UID_A": "A038",
    "Name": "Huiyang bashê (Huiyang eight shê ritual alliance)",
    "Name_zh": "惠洋八社",
    "Num_Villages": 1,
    "Villages": [{
        "UID_V": "V161",
        "Name": "Huiyang",
        "Name_zh": "惠洋"
    }]
}, {
    "UID_A": "A039",
    "Name": "Dongdai liujia (Dongjia six jia ritual alliance)",
    "Name_zh": "东埭六甲",
    "Num_Villages": 1,
    "Villages": [{
        "UID_V": "V162",
        "Name": "Dongdai",
        "Name_zh": "东埭"
    }]
}, {
    "UID_A": "A040",
    "Name": "Jinshan sijia (Jinshan four jia ritual alliance)",
    "Name_zh": "金山四甲",
    "Num_Villages": 1,
    "Villages": [{
        "UID_V": "V163",
        "Name": "Jinshan",
        "Name_zh": "金山"
    }]
}, {
    "UID_A": "A041",
    "Name": "Dongjia sijia (Dongjia four jia ritual alliance)",
    "Name_zh": "东甲四甲",
    "Num_Villages": 1,
    "Villages": [{
        "UID_V": "V164",
        "Name": "Dongjia",
        "Name_zh": "东甲"
    }]
}, {
    "UID_A": "A042",
    "Name": "Dongshan sishé (Dongshan four shê ritual alliance)",
    "Name_zh": "东山四社",
    "Num_Villages": 4,
    "Villages": [{
        "UID_V": "V165",
        "Name": "Shangzou",
        "Name_zh": "上鄒"
    }, {
        "UID_V": "V166",
        "Name": "Xiazou",
        "Name_zh": "下鄒"
    }, {
        "UID_V": "V167",
        "Name": "Dongcuo",
        "Name_zh": "東厝"
    }, {
        "UID_V": "V168",
        "Name": "Zhengcuo",
        "Name_zh": "鄭厝"
    }]
}, {
    "UID_A": "A043",
    "Name": "Dounan wushê (Dounan five shê ritual alliance)",
    "Name_zh": "斗南五社",
    "Num_Villages": 1,
    "Villages": [{
        "UID_V": "V169",
        "Name": "Dounan",
        "Name_zh": "斗南"
    }]
}, {
    "UID_A": "A044",
    "Name": "Pingshan wushê (Pingshan five shê ritual alliance)",
    "Name_zh": "屏山五社",
    "Num_Villages": 1,
    "Villages": [{
        "UID_V": "V170",
        "Name": "Pingshan",
        "Name_zh": "屏山"
    }]
}, {
    "UID_A": "A045",
    "Name": "Houji qijing (Houji sevenfold ritual alliance)",
    "Name_zh": "后积七境",
    "Num_Villages": 7,
    "Villages": [{
        "UID_V": "V171",
        "Name": "Dongxiang",
        "Name_zh": "东乡"
    }, {
        "UID_V": "V172",
        "Name": "Houji",
        "Name_zh": "后积"
    }, {
        "UID_V": "V173",
        "Name": "Qitou",
        "Name_zh": "歧厝"
    }, {
        "UID_V": "V174",
        "Name": "Yangbian",
        "Name_zh": "洋边"
    }, {
        "UID_V": "V175",
        "Name": "Qianchengkou",
        "Name_zh": "前程口"
    }, {
        "UID_V": "V176",
        "Name": "Louxia",
        "Name_zh": "楼下"
    }, {
        "UID_V": "V177",
        "Name": "Houchengkou",
        "Name_zh": "后程口"
    }]
}, {
    "UID_A": "A046",
    "Name": "Chengyang qijing (Chengyang sevenfold ritual alliance)",
    "Name_zh": "呈洋七境",
    "Num_Villages": 7,
    "Villages": [{
        "UID_V": "V178",
        "Name": "Chengbian",
        "Name_zh": "埕边"
    }, {
        "UID_V": "V179",
        "Name": "Xiachen",
        "Name_zh": "下陈"
    }, {
        "UID_V": "V180",
        "Name": "Gouge",
        "Name_zh": "沟戈"
    }, {
        "UID_V": "V181",
        "Name": "Matou",
        "Name_zh": "码头"
    }, {
        "UID_V": "V182",
        "Name": "Fangjing",
        "Name_zh": "坊井"
    }, {
        "UID_V": "V183",
        "Name": "Shêcuo",
        "Name_zh": "社厝"
    }, {
        "UID_V": "V184",
        "Name": "Beigao",
        "Name_zh": "北高"
    }]
}, {
    "UID_A": "A047",
    "Name": "Kengyuan jiucun (Kengyuan nine village ritual alliance)",
    "Name_zh": "坑园九村",
    "Num_Villages": 8,
    "Villages": [{
        "UID_V": "V185",
        "Name": "Shangkengyuan",
        "Name_zh": "上坑园"
    }, {
        "UID_V": "V186",
        "Name": "Xiakengyuan",
        "Name_zh": "下坑园"
    }, {
        "UID_V": "V187",
        "Name": "Dongdu",
        "Name_zh": "东渡"
    }, {
        "UID_V": "V188",
        "Name": "Lingtou",
        "Name_zh": "岭头"
    }, {
        "UID_V": "V189",
        "Name": "Muqian",
        "Name_zh": "墓前"
    }, {
        "UID_V": "V190",
        "Name": "Shangyuanhou",
        "Name_zh": "上院后"
    }, {
        "UID_V": "V191",
        "Name": "Xiayuanhou",
        "Name_zh": "下院后"
    }, {
        "UID_V": "V192",
        "Name": "Qiandun",
        "Name_zh": "前墩"
    }]
}, {
    "UID_A": "A048",
    "Name": "Zhengtang wushê (Zhengtang five shê ritual alliance)",
    "Name_zh": "郑塘五社",
    "Num_Villages": 1,
    "Villages": [{
        "UID_V": "V193",
        "Name": "Zhengtang",
        "Name_zh": "郑塘"
    }]
}, {
    "UID_A": "A049",
    "Name": "Zhukeng qijing (Zhukeng sevenfold ritual alliance)",
    "Name_zh": "珠坑七境",
    "Num_Villages": 3,
    "Villages": [{
        "UID_V": "V194",
        "Name": "Songmu",
        "Name_zh": "宋墓"
    }, {
        "UID_V": "V195",
        "Name": "Shantou",
        "Name_zh": "山头"
    }, {
        "UID_V": "V196",
        "Name": "Chuandu",
        "Name_zh": "船渡"
    }]
}, {
    "UID_A": "A050",
    "Name": "Lantian shibaxiang (Lantian eighteen village ritual alliance)",
    "Name_zh": "蓝田十八乡",
    "Num_Villages": 16,
    "Villages": [{
        "UID_V": "V197",
        "Name": "Lantian",
        "Name_zh": "蓝田"
    }, {
        "UID_V": "V198",
        "Name": "Houhu",
        "Name_zh": "后湖"
    }, {
        "UID_V": "V199",
        "Name": "Guanpu",
        "Name_zh": "官埔"
    }, {
        "UID_V": "V200",
        "Name": "Xiazheng",
        "Name_zh": "下郑"
    }, {
        "UID_V": "V201",
        "Name": "Shangxin",
        "Name_zh": "上辛"
    }, {
        "UID_V": "V202",
        "Name": "Houxiang",
        "Name_zh": "后巷"
    }, {
        "UID_V": "V203",
        "Name": "Xiaketang",
        "Name_zh": "下可塘"
    }, {
        "UID_V": "V204",
        "Name": "Shangketang",
        "Name_zh": "上可塘"
    }, {
        "UID_V": "V205",
        "Name": "Dingxi",
        "Name_zh": "顶溪"
    }, {
        "UID_V": "V206",
        "Name": "Laizhai",
        "Name_zh": "濑宅"
    }, {
        "UID_V": "V207",
        "Name": "Caomang",
        "Name_zh": "草莽"
    }, {
        "UID_V": "V208",
        "Name": "Sutang",
        "Name_zh": "苏塘"
    }, {
        "UID_V": "V209",
        "Name": "Xinxu",
        "Name_zh": "新徐"
    }, {
        "UID_V": "V210",
        "Name": "Jiuxu",
        "Name_zh": "旧徐"
    }, {
        "UID_V": "V211",
        "Name": "Mubing",
        "Name_zh": "墓柄"
    }, {
        "UID_V": "V212",
        "Name": "Shidou",
        "Name_zh": "石兜"
    }]
}, {
    "UID_A": "A051",
    "Name": "Hushi sanshiliujia (Hushi thirty-six jia ritual alliance)",
    "Name_zh": "笏石三十六甲",
    "Num_Villages": 9,
    "Villages": [{
        "UID_V": "V213",
        "Name": "Chencuo",
        "Name_zh": "陈厝"
    }, {
        "UID_V": "V214",
        "Name": "Wucuo",
        "Name_zh": "吴厝"
    }, {
        "UID_V": "V215",
        "Name": "Houhuang",
        "Name_zh": "后黄"
    }, {
        "UID_V": "V216",
        "Name": "Houjing",
        "Name_zh": "后井"
    }, {
        "UID_V": "V217",
        "Name": "Daqiu",
        "Name_zh": "大邱"
    }, {
        "UID_V": "V218",
        "Name": "Fulushan",
        "Name_zh": "福禄山"
    }, {
        "UID_V": "V219",
        "Name": "Linbing",
        "Name_zh": "林柄"
    }, {
        "UID_V": "V220",
        "Name": "Dingshê",
        "Name_zh": "顶社"
    }, {
        "UID_V": "V221",
        "Name": "Beipu",
        "Name_zh": "北埔"
    }]
}, {
    "UID_A": "A052",
    "Name": "Hushi xiashisixiang (Hushi lower fourteen village ritual alliance)",
    "Name_zh": "笏石下十四乡",
    "Num_Villages": 13,
    "Villages": [{
        "UID_V": "V222",
        "Name": "Shangbabian",
        "Name_zh": "上坝边"
    }, {
        "UID_V": "V223",
        "Name": "Xiababian",
        "Name_zh": "下坝边"
    }, {
        "UID_V": "V224",
        "Name": "Tianyang",
        "Name_zh": "田洋"
    }, {
        "UID_V": "V225",
        "Name": "Cangdian",
        "Name_zh": "苍店"
    }, {
        "UID_V": "V226",
        "Name": "Xiadian",
        "Name_zh": "下店"
    }, {
        "UID_V": "V227",
        "Name": "Lincuo",
        "Name_zh": "林厝"
    }, {
        "UID_V": "V228",
        "Name": "Dongjin",
        "Name_zh": "东津"
    }, {
        "UID_V": "V229",
        "Name": "Shanding",
        "Name_zh": "山頂"
    }, {
        "UID_V": "V230",
        "Name": "Kengwei",
        "Name_zh": "坑尾"
    }, {
        "UID_V": "V231",
        "Name": "Dongzhuo",
        "Name_zh": "东卓"
    }, {
        "UID_V": "V232",
        "Name": "Xizhuo",
        "Name_zh": "西卓"
    }, {
        "UID_V": "V233",
        "Name": "Huanglin",
        "Name_zh": "黄林"
    }, {
        "UID_V": "V234",
        "Name": "Yuntang",
        "Name_zh": "云塘"
    }]
}, {
    "UID_A": "A053",
    "Name": "Hushi shangshibaxiang (Hushi upper fourteen village ritual alliance)",
    "Name_zh": "笏石上十四乡",
    "Num_Villages": 18,
    "Villages": [{
        "UID_V": "V235",
        "Name": "Xucuo",
        "Name_zh": "徐厝"
    }, {
        "UID_V": "V236",
        "Name": "Songting",
        "Name_zh": "松亭"
    }, {
        "UID_V": "V237",
        "Name": "Houshê",
        "Name_zh": "后社"
    }, {
        "UID_V": "V238",
        "Name": "Linkeng",
        "Name_zh": "林坑"
    }, {
        "UID_V": "V239",
        "Name": "Dengaotou",
        "Name_zh": "登鳌头"
    }, {
        "UID_V": "V240",
        "Name": "Yuanqian",
        "Name_zh": "院前"
    }, {
        "UID_V": "V241",
        "Name": "Qianzheng",
        "Name_zh": "前郑"
    }, {
        "UID_V": "V242",
        "Name": "Xijin",
        "Name_zh": "西津"
    }, {
        "UID_V": "V243",
        "Name": "Yangshan",
        "Name_zh": "杨山"
    }, {
        "UID_V": "V244",
        "Name": "Chicen",
        "Name_zh": "赤岑"
    }, {
        "UID_V": "V245",
        "Name": "Xicai",
        "Name_zh": "西蔡"
    }, {
        "UID_V": "V246",
        "Name": "Lingxia",
        "Name_zh": "岭下"
    }, {
        "UID_V": "V247",
        "Name": "Qianlin",
        "Name_zh": "前林"
    }, {
        "UID_V": "V248",
        "Name": "Shanglin",
        "Name_zh": "上林"
    }, {
        "UID_V": "V249",
        "Name": "Dapu",
        "Name_zh": "大埔"
    }, {
        "UID_V": "V250",
        "Name": "Xiawei",
        "Name_zh": "下尾"
    }, {
        "UID_V": "V251",
        "Name": "Dinggu",
        "Name_zh": "定固"
    }, {
        "UID_V": "V252",
        "Name": "Houzhu",
        "Name_zh": "后洙"
    }]
}, {
    "UID_A": "A054",
    "Name": "Xishan sancun (Xishan three village ritual alliance)",
    "Name_zh": "西山三村",
    "Num_Villages": 3,
    "Villages": [{
        "UID_V": "V253",
        "Name": "Xishan",
        "Name_zh": "西山"
    }, {
        "UID_V": "V254",
        "Name": "Bitou",
        "Name_zh": "泌头"
    }, {
        "UID_V": "V255",
        "Name": "Shandou",
        "Name_zh": "\n"
    }]
}, {
    "UID_A": "A055",
    "Name": "Niushan qijing (Niushan sevenfold ritual alliance)",
    "Name_zh": "牛山七境",
    "Num_Villages": 7,
    "Villages": [{
        "UID_V": "V256",
        "Name": "Dongpuyu",
        "Name_zh": "东埔余"
    }, {
        "UID_V": "V257",
        "Name": "Yicuo",
        "Name_zh": "蚁厝"
    }, {
        "UID_V": "V258",
        "Name": "Houdong",
        "Name_zh": "后董"
    }, {
        "UID_V": "V259",
        "Name": "Meilin",
        "Name_zh": "梅林"
    }, {
        "UID_V": "V260",
        "Name": "Chenshantou",
        "Name_zh": "陈山头"
    }, {
        "UID_V": "V261",
        "Name": "Xiazhuang",
        "Name_zh": "下庄"
    }, {
        "UID_V": "V262",
        "Name": "Dapu",
        "Name_zh": "大埔"
    }]
}, {
    "UID_A": "A056",
    "Name": "Yangmian qijing (Yangmian sevenfold ritual alliance)",
    "Name_zh": "洋面七境",
    "Num_Villages": 7,
    "Villages": [{
        "UID_V": "V263",
        "Name": "Yangmian",
        "Name_zh": "洋面"
    }, {
        "UID_V": "V264",
        "Name": "Dongguo",
        "Name_zh": "东郭"
    }, {
        "UID_V": "V265",
        "Name": "Haizao",
        "Name_zh": "亥灶"
    }, {
        "UID_V": "V266",
        "Name": "Bancuo",
        "Name_zh": "板厝"
    }, {
        "UID_V": "V267",
        "Name": "Houcuo",
        "Name_zh": "侯厝"
    }, {
        "UID_V": "V268",
        "Name": "Qiaotou",
        "Name_zh": "桥头"
    }, {
        "UID_V": "V269",
        "Name": "Xiaxi",
        "Name_zh": "下西"
    }]
}, {
    "UID_A": "A057",
    "Name": "Lingui qijing (Lingui sevenfold ritual alliance)",
    "Name_zh": "林桂七境",
    "Num_Villages": 7,
    "Villages": [{
        "UID_V": "V270",
        "Name": "Lingui",
        "Name_zh": "林桂"
    }, {
        "UID_V": "V271",
        "Name": "Mazhukeng",
        "Name_zh": "马竹杭"
    }, {
        "UID_V": "V272",
        "Name": "Pengmu",
        "Name_zh": "彭墓"
    }, {
        "UID_V": "V273",
        "Name": "Chisong",
        "Name_zh": "赤松"
    }, {
        "UID_V": "V274",
        "Name": "Shanglin",
        "Name_zh": "上林"
    }, {
        "UID_V": "V275",
        "Name": "Xuke",
        "Name_zh": "徐柯"
    }, {
        "UID_V": "V276",
        "Name": "Xiayu",
        "Name_zh": "下余"
    }]
}, {
    "UID_A": "A058",
    "Name": "Lingyun shangshibaxiang (Lingyun eighteen village ritual alliance)",
    "Name_zh": "凌云上十八乡",
    "Num_Villages": 20,
    "Villages": [{
        "UID_V": "V277",
        "Name": "Xintang",
        "Name_zh": "新塘"
    }, {
        "UID_V": "V278",
        "Name": "Gouwei",
        "Name_zh": "溝尾"
    }, {
        "UID_V": "V279",
        "Name": "Qinwei",
        "Name_zh": "沁尾"
    }, {
        "UID_V": "V280",
        "Name": "Longtou",
        "Name_zh": "龍頭"
    }, {
        "UID_V": "V281",
        "Name": "Xipu",
        "Name_zh": "西埔"
    }, {
        "UID_V": "V282",
        "Name": "Shangdaban",
        "Name_zh": "上大阪"
    }, {
        "UID_V": "V283",
        "Name": "Xiadaban",
        "Name_zh": "下大坂"
    }, {
        "UID_V": "V284",
        "Name": "Mokengli",
        "Name_zh": "磨坑里"
    }, {
        "UID_V": "V285",
        "Name": "Huangtoupu",
        "Name_zh": "黄头埔"
    }, {
        "UID_V": "V286",
        "Name": "Kengbei",
        "Name_zh": "坑北"
    }, {
        "UID_V": "V287",
        "Name": "Baita",
        "Name_zh": "白塔"
    }, {
        "UID_V": "V288",
        "Name": "Liucuo",
        "Name_zh": "刘厝"
    }, {
        "UID_V": "V289",
        "Name": "Yingbian",
        "Name_zh": "营边"
    }, {
        "UID_V": "V290",
        "Name": "Caicuo",
        "Name_zh": "菜厝"
    }, {
        "UID_V": "V291",
        "Name": "Qicuo",
        "Name_zh": "歧厝"
    }, {
        "UID_V": "V292",
        "Name": "Dongsong",
        "Name_zh": "东宋"
    }, {
        "UID_V": "V293",
        "Name": "Xiting",
        "Name_zh": "西亭"
    }, {
        "UID_V": "V294",
        "Name": "Lingcuo",
        "Name_zh": "凌厝"
    }, {
        "UID_V": "V295",
        "Name": "Xiagou",
        "Name_zh": "下沟"
    }, {
        "UID_V": "V296",
        "Name": "Goujingyang",
        "Name_zh": "溝津洋"
    }]
}, {
    "UID_A": "A059",
    "Name": "Hengtang qijia (Hengtang seven jia ritual alliance)",
    "Name_zh": "横塘七甲",
    "Num_Villages": 1,
    "Villages": [{
        "UID_V": "V297",
        "Name": "Hengtang",
        "Name_zh": "横塘"
    }]
}, {
    "UID_A": "A060",
    "Name": "Yushang ershê (Yushan two shê ritual alliance)",
    "Name_zh": "屿上二社",
    "Num_Villages": 1,
    "Villages": [{
        "UID_V": "V298",
        "Name": "Yushang",
        "Name_zh": "屿上"
    }]
}, {
    "UID_A": "A061",
    "Name": "Huangtou ershê (Huangtou two shê ritual alliance)",
    "Name_zh": "黄头二社",
    "Num_Villages": 1,
    "Villages": [{
        "UID_V": "V299",
        "Name": "Huangtou",
        "Name_zh": "黄头"
    }]
}, {
    "UID_A": "A062",
    "Name": "Caizhai ershê (Caizhai two shê ritual alliance)",
    "Name_zh": "蔡宅二社",
    "Num_Villages": 1,
    "Villages": [{
        "UID_V": "V300",
        "Name": "Caizhai",
        "Name_zh": "蔡宅"
    }]
}, {
    "UID_A": "A063",
    "Name": "Xialin ershê (Xialin two shê ritual alliance)",
    "Name_zh": "下林二社",
    "Num_Villages": 1,
    "Villages": [{
        "UID_V": "V301",
        "Name": "Xialin下林",
        "Name_zh": "\n"
    }]
}, {
    "UID_A": "A064",
    "Name": "Dongpo ershê (Dongpo two shê ritual alliance)",
    "Name_zh": "东坡二社",
    "Num_Villages": 1,
    "Villages": [{
        "UID_V": "V302",
        "Name": "Dongpo",
        "Name_zh": "东坡"
    }]
}, {
    "UID_A": "A065",
    "Name": "Xiahuang qijing (Xiahuang sevenfold ritual alliance)",
    "Name_zh": "下黄七境",
    "Num_Villages": 9,
    "Villages": [{
        "UID_V": "V303",
        "Name": "Xihuang",
        "Name_zh": "下黄"
    }, {
        "UID_V": "V304",
        "Name": "Xiadu",
        "Name_zh": "下度"
    }, {
        "UID_V": "V305",
        "Name": "Huangcuo",
        "Name_zh": "黄厝"
    }, {
        "UID_V": "V306",
        "Name": "Xiadaiwei下埭尾",
        "Name_zh": ""
    }, {
        "UID_V": "V307",
        "Name": "Shangdaiwei",
        "Name_zh": "上埭尾"
    }, {
        "UID_V": "V308",
        "Name": "Houdun",
        "Name_zh": "后墩"
    }, {
        "UID_V": "V309",
        "Name": "Shêcuo",
        "Name_zh": "社厝"
    }, {
        "UID_V": "V310",
        "Name": "Xiaocuo",
        "Name_zh": "肖厝"
    }, {
        "UID_V": "V311",
        "Name": "Bantou",
        "Name_zh": "坂头"
    }]
}, {
    "UID_A": "A066",
    "Name": "Liuqiao sancun (Liuqiao three village ritual alliance)",
    "Name_zh": "柳桥三村",
    "Num_Villages": 3,
    "Villages": [{
        "UID_V": "V312",
        "Name": "Liuqiao",
        "Name_zh": "柳桥"
    }, {
        "UID_V": "V313",
        "Name": "Dingdun",
        "Name_zh": "顶墩"
    }, {
        "UID_V": "V314",
        "Name": "Wudun",
        "Name_zh": "梧墩"
    }]
}, {
    "UID_A": "A067",
    "Name": "Goutou erja (Goutou two territory ritual alliance)",
    "Name_zh": "沟头二甲",
    "Num_Villages": 1,
    "Villages": [{
        "UID_V": "V315",
        "Name": "Goutou",
        "Name_zh": "沟头"
    }]
}, {
    "UID_A": "A068",
    "Name": "Xiaotang ershê (Xiaotang two shê ritual alliance)",
    "Name_zh": "筱塘二社",
    "Num_Villages": 1,
    "Villages": [{
        "UID_V": "V316",
        "Name": "Xiaotang",
        "Name_zh": "筱塘"
    }]
}, {
    "UID_A": "A069",
    "Name": "Nanmen qijing (Nanmen sevenfold ritual alliance)",
    "Name_zh": "南门七境",
    "Num_Villages": 1,
    "Villages": [{
        "UID_V": "V317",
        "Name": "南门",
        "Name_zh": "\n"
    }]
}, {
    "UID_A": "A070",
    "Name": "Beimo wushê (Beimen five shê ritual alliance)",
    "Name_zh": "北磨五社",
    "Num_Villages": 5,
    "Villages": [{
        "UID_V": "V318",
        "Name": "Beimo",
        "Name_zh": "北磨"
    }, {
        "UID_V": "V319",
        "Name": "Daxi",
        "Name_zh": "大溪"
    }, {
        "UID_V": "V320",
        "Name": "Xiamo",
        "Name_zh": "下磨"
    }, {
        "UID_V": "V321",
        "Name": "Qianpu",
        "Name_zh": "前埔"
    }, {
        "UID_V": "V322",
        "Name": "Xiaxie",
        "Name_zh": "下斜"
    }]
}, {
    "UID_A": "A071",
    "Name": "Anfu ershê (Anfu two shê ritual alliance)",
    "Name_zh": "安福二社",
    "Num_Villages": 1,
    "Villages": [{
        "UID_V": "V323",
        "Name": "Anfu",
        "Name_zh": "安福"
    }]
}, {
    "UID_A": "A072",
    "Name": "Longqiao qijing (Longqiao sevenfold ritual alliance)",
    "Name_zh": "龙桥七境",
    "Num_Villages": 7,
    "Villages": [{
        "UID_V": "V324",
        "Name": "Longqiaojie",
        "Name_zh": "龙桥街"
    }, {
        "UID_V": "V325",
        "Name": "Dinglongqiao",
        "Name_zh": "顶龙桥"
    }, {
        "UID_V": "V326",
        "Name": "Xiagongli",
        "Name_zh": "下宫里"
    }, {
        "UID_V": "V327",
        "Name": "Tudihou",
        "Name_zh": "土地后"
    }, {
        "UID_V": "V328",
        "Name": "Xishan",
        "Name_zh": "西山"
    }, {
        "UID_V": "V329",
        "Name": "Shiding",
        "Name_zh": "石顶"
    }, {
        "UID_V": "V330",
        "Name": "Laoyeshu",
        "Name_zh": "老叶树"
    }]
}, {
    "UID_A": "A073",
    "Name": "Gufeng qijing (Gufeng sevenfold ritual alliance)",
    "Name_zh": "古峰七境",
    "Num_Villages": 6,
    "Villages": [{
        "UID_V": "V331",
        "Name": "Yanshou",
        "Name_zh": "延寿"
    }, {
        "UID_V": "V332",
        "Name": "Ouxuwei",
        "Name_zh": "欧徐尾"
    }, {
        "UID_V": "V333",
        "Name": "Xiapo",
        "Name_zh": "下坡"
    }, {
        "UID_V": "V334",
        "Name": "Xitou",
        "Name_zh": "西头"
    }, {
        "UID_V": "V335",
        "Name": "Shanglin",
        "Name_zh": "上林"
    }, {
        "UID_V": "V336",
        "Name": "Gaojing",
        "Name_zh": "高井"
    }]
}, {
    "UID_A": "A074",
    "Name": "Beimen qijing (Beimen sevenfold ritual alliance)",
    "Name_zh": "北门七境",
    "Num_Villages": 7,
    "Villages": [{
        "UID_V": "V337",
        "Name": "Gegou",
        "Name_zh": "隔沟"
    }, {
        "UID_V": "V338",
        "Name": "Chenmendou",
        "Name_zh": "辰门兜"
    }, {
        "UID_V": "V339",
        "Name": "Gouxia",
        "Name_zh": "沟下"
    }, {
        "UID_V": "V340",
        "Name": "Yimen",
        "Name_zh": "义门"
    }, {
        "UID_V": "V341",
        "Name": "Xigeng",
        "Name_zh": "西庚"
    }, {
        "UID_V": "V342",
        "Name": "Xiadai",
        "Name_zh": "下戴"
    }, {
        "UID_V": "V343",
        "Name": "Tantouqiao",
        "Name_zh": "潭头桥"
    }]
}, {
    "UID_A": "A075",
    "Name": "Dongmen qijing (Dongmeng sevenfold ritual alliance)",
    "Name_zh": "东门七境",
    "Num_Villages": 6,
    "Villages": [{
        "UID_V": "V344",
        "Name": "Dongmendou",
        "Name_zh": "东门兜"
    }, {
        "UID_V": "V345",
        "Name": "Meihuating",
        "Name_zh": "梅花亭"
    }, {
        "UID_V": "V346",
        "Name": "Fengmei",
        "Name_zh": "丰美"
    }, {
        "UID_V": "V347",
        "Name": "Xishê",
        "Name_zh": "西社"
    }, {
        "UID_V": "V348",
        "Name": "Liantang",
        "Name_zh": "莲塘"
    }, {
        "UID_V": "V349",
        "Name": "Xiadun",
        "Name_zh": "下墩"
    }]
}, {
    "UID_A": "A076",
    "Name": "Baihu qijing (Baihu sevenfold ritual alliance)",
    "Name_zh": "白湖七境",
    "Num_Villages": 2,
    "Villages": [{
        "UID_V": "V350",
        "Name": "Kuokou",
        "Name_zh": "阔口"
    }, {
        "UID_V": "V351",
        "Name": "Gushan",
        "Name_zh": "古山"
    }]
}, {
    "UID_A": "A077",
    "Name": "Lipu sishê (Lipu four shê ritual alliance)",
    "Name_zh": "荔浦四社",
    "Num_Villages": 4,
    "Villages": [{
        "UID_V": "V352",
        "Name": "Hougong",
        "Name_zh": "后龚"
    }, {
        "UID_V": "V353",
        "Name": "Qianpu",
        "Name_zh": "前浦"
    }, {
        "UID_V": "V354",
        "Name": "Shêqian",
        "Name_zh": "社前"
    }, {
        "UID_V": "V355",
        "Name": "Jiaoxi",
        "Name_zh": "郊西"
    }]
}, {
    "UID_A": "A078",
    "Name": "Xinjiao sishê (Xinjiao four shê ritual alliance)",
    "Name_zh": "莘郊四社",
    "Num_Villages": 4,
    "Villages": [{
        "UID_V": "V356",
        "Name": "Huangdun",
        "Name_zh": "黄墩"
    }, {
        "UID_V": "V357",
        "Name": "Jiaodong",
        "Name_zh": "郊东"
    }, {
        "UID_V": "V358",
        "Name": "Zhongshê",
        "Name_zh": "中社"
    }, {
        "UID_V": "V359",
        "Name": "Heshê",
        "Name_zh": "何社"
    }]
}, {
    "UID_A": "A079",
    "Name": "Punan sicun (Punan four village ritual alliance)",
    "Name_zh": "浦南四村",
    "Num_Villages": 4,
    "Villages": [{
        "UID_V": "V360",
        "Name": "Punan",
        "Name_zh": "浦南"
    }, {
        "UID_V": "V361",
        "Name": "Dongzhou",
        "Name_zh": "东洲"
    }, {
        "UID_V": "V362",
        "Name": "Dongjiao",
        "Name_zh": "东郊"
    }, {
        "UID_V": "V363",
        "Name": "Doumentou",
        "Name_zh": "陡门头"
    }]
}, {
    "UID_A": "A080",
    "Name": "Caozhu erjia (Caozhu two jia ritual alliance)",
    "Name_zh": "草渚二甲",
    "Num_Villages": 1,
    "Villages": [{
        "UID_V": "V364",
        "Name": "Caozhu",
        "Name_zh": "草渚"
    }]
}, {
    "UID_A": "A081",
    "Name": "Nanji Sevenfold ritual alliance",
    "Name_zh": "南箕七境",
    "Num_Villages": 5,
    "Villages": [{
        "UID_V": "V365",
        "Name": "Nanji",
        "Name_zh": "南箕"
    }, {
        "UID_V": "V366",
        "Name": "Zhudun",
        "Name_zh": "朱墩"
    }, {
        "UID_V": "V367",
        "Name": "Jiangbian",
        "Name_zh": "江边"
    }, {
        "UID_V": "V368",
        "Name": "Qianbudun",
        "Name_zh": "前布墩"
    }, {
        "UID_V": "V369",
        "Name": "Houbudun",
        "Name_zh": "后布墩"
    }]
}, {
    "UID_A": "A082",
    "Name": "Haopu qijing (Haopu sevenfold ritual alliance)",
    "Name_zh": "濠浦七境",
    "Num_Villages": 8,
    "Villages": [{
        "UID_V": "V370",
        "Name": "Xizhu",
        "Name_zh": "西洙"
    }, {
        "UID_V": "V371",
        "Name": "Dongyang",
        "Name_zh": "东阳"
    }, {
        "UID_V": "V372",
        "Name": "Gouxi",
        "Name_zh": "沟西"
    }, {
        "UID_V": "V373",
        "Name": "Dongdai",
        "Name_zh": "东埭"
    }, {
        "UID_V": "V374",
        "Name": "Xuqiao",
        "Name_zh": "徐桥"
    }, {
        "UID_V": "V375",
        "Name": "Xishi",
        "Name_zh": "西施"
    }, {
        "UID_V": "V376",
        "Name": "Wutang",
        "Name_zh": "梧塘"
    }, {
        "UID_V": "V377",
        "Name": "Goumei",
        "Name_zh": "沟美"
    }]
}, {
    "UID_A": "A083",
    "Name": "Changshan sishê (Changshan four shê ritual alliance)",
    "Name_zh": "畅山四社",
    "Num_Villages": 4,
    "Villages": [{
        "UID_V": "V378",
        "Name": "Changshan",
        "Name_zh": "畅山"
    }, {
        "UID_V": "V379",
        "Name": "Putou",
        "Name_zh": "浦头"
    }, {
        "UID_V": "V380",
        "Name": "Daba",
        "Name_zh": "大坝"
    }, {
        "UID_V": "V381",
        "Name": "Xitou",
        "Name_zh": "溪头"
    }]
}, {
    "UID_A": "A084",
    "Name": "Nanjiao qijing (Nanjiao sevenfold ritual alliance)",
    "Name_zh": "南郊七境",
    "Num_Villages": 9,
    "Villages": [{
        "UID_V": "V382",
        "Name": "Jiaonan",
        "Name_zh": "郊南"
    }, {
        "UID_V": "V383",
        "Name": "Jiaobei",
        "Name_zh": "郊北"
    }, {
        "UID_V": "V384",
        "Name": "Xikou",
        "Name_zh": "溪口"
    }, {
        "UID_V": "V385",
        "Name": "Xiananjiao",
        "Name_zh": "下南郊"
    }, {
        "UID_V": "V386",
        "Name": "Xiyang",
        "Name_zh": "西洋"
    }, {
        "UID_V": "V387",
        "Name": "Weicuo",
        "Name_zh": "尾厝"
    }, {
        "UID_V": "V388",
        "Name": "Xiacuo",
        "Name_zh": "下厝"
    }, {
        "UID_V": "V389",
        "Name": "Xiangli",
        "Name_zh": "衖里"
    }, {
        "UID_V": "V390",
        "Name": "Guandou",
        "Name_zh": "宫兜"
    }]
}, {
    "UID_A": "A085",
    "Name": "Jiaoxia qijing (Jiaoxia sevenfold ritual alliance)",
    "Name_zh": "郊下七境",
    "Num_Villages": 5,
    "Villages": [{
        "UID_V": "V391",
        "Name": "Xiating",
        "Name_zh": "下亭"
    }, {
        "UID_V": "V392",
        "Name": "Siting",
        "Name_zh": "四亭"
    }, {
        "UID_V": "V393",
        "Name": "Jiaoxia",
        "Name_zh": "郊下"
    }, {
        "UID_V": "V394",
        "Name": "Xizhang",
        "Name_zh": "西漳"
    }, {
        "UID_V": "V395",
        "Name": "Xiting",
        "Name_zh": "西亭"
    }]
}, {
    "UID_A": "A086",
    "Name": "Changfeng qijing (Changfeng sevenfold ritual alliance)",
    "Name_zh": "长丰七境",
    "Num_Villages": 4,
    "Villages": [{
        "UID_V": "V396",
        "Name": "Qiandun",
        "Name_zh": "前墩"
    }, {
        "UID_V": "V397",
        "Name": "Houdun",
        "Name_zh": "后墩"
    }, {
        "UID_V": "V398",
        "Name": "Chennan",
        "Name_zh": "辰南"
    }, {
        "UID_V": "V399",
        "Name": "Jiaoxiali",
        "Name_zh": "郊下里"
    }]
}, {
    "UID_A": "A087",
    "Name": "Chenqiao sicun (Chenqiao four village ritual alliance)",
    "Name_zh": "陈桥四村",
    "Num_Villages": 4,
    "Villages": [{
        "UID_V": "V400",
        "Name": "Chenqiao",
        "Name_zh": "陈桥"
    }, {
        "UID_V": "V401",
        "Name": "Houdun",
        "Name_zh": "后墩"
    }, {
        "UID_V": "V402",
        "Name": "Hanba",
        "Name_zh": "涵坝"
    }, {
        "UID_V": "V403",
        "Name": "Shanbu",
        "Name_zh": "山步"
    }]
}, {
    "UID_A": "A088",
    "Name": "Wujiao sancun (Wujiao three village ritual alliance)",
    "Name_zh": "梧郊三村",
    "Num_Villages": 3,
    "Villages": [{
        "UID_V": "V404",
        "Name": "Wujiao",
        "Name_zh": "梧郊"
    }, {
        "UID_V": "V405",
        "Name": "Lantian",
        "Name_zh": "蓝田"
    }, {
        "UID_V": "V406",
        "Name": "Yakou",
        "Name_zh": "牙口"
    }]
}, {
    "UID_A": "A089",
    "Name": "Shangyu qijing (Shangyu sevenfold ritual alliance)",
    "Name_zh": "上俞七境",
    "Num_Villages": 3,
    "Villages": [{
        "UID_V": "V407",
        "Name": "Shangyu",
        "Name_zh": "上俞"
    }, {
        "UID_V": "V408",
        "Name": "Houting",
        "Name_zh": "后亭"
    }, {
        "UID_V": "V409",
        "Name": "Daicheng",
        "Name_zh": "岱埕"
    }]
}, {
    "UID_A": "A090",
    "Name": "Xihu ercun (Xihu two village ritual alliance)",
    "Name_zh": "西湖二村",
    "Num_Villages": 2,
    "Villages": [{
        "UID_V": "V410",
        "Name": "Xihu",
        "Name_zh": "西湖"
    }, {
        "UID_V": "V411",
        "Name": "Duxia",
        "Name_zh": "度下"
    }]
}, {
    "UID_A": "A091",
    "Name": "Jilui sijia (Jikui four jia ritual alliance)",
    "Name_zh": "集奎四甲",
    "Num_Villages": 1,
    "Villages": [{
        "UID_V": "V412",
        "Name": "Jikui",
        "Name_zh": "集奎"
    }]
}, {
    "UID_A": "A092",
    "Name": "Hougong erjia (Hougong two jia ritual alliance)",
    "Name_zh": "后宫二甲",
    "Num_Villages": 2,
    "Villages": [{
        "UID_V": "V413",
        "Name": "Hougong",
        "Name_zh": "后宫"
    }, {
        "UID_V": "V414",
        "Name": "Houxue",
        "Name_zh": "后学"
    }]
}, {
    "UID_A": "A093",
    "Name": "Dongting sijia (Dongting four jia ritual alliance)",
    "Name_zh": "东亭四甲",
    "Num_Villages": 1,
    "Villages": [{
        "UID_V": "V415",
        "Name": "Dongting",
        "Name_zh": "东亭"
    }]
}, {
    "UID_A": "A094",
    "Name": "Yangwei liucun (Yangwei six village ritual alliance)",
    "Name_zh": "洋尾六村",
    "Num_Villages": 6,
    "Villages": [{
        "UID_V": "V416",
        "Name": "Dongdun",
        "Name_zh": "东墩"
    }, {
        "UID_V": "V417",
        "Name": "Lijiao",
        "Name_zh": "李角"
    }, {
        "UID_V": "V418",
        "Name": "Xidun",
        "Name_zh": "西墩"
    }, {
        "UID_V": "V419",
        "Name": "Houtou",
        "Name_zh": "后头"
    }, {
        "UID_V": "V420",
        "Name": "Tangbian",
        "Name_zh": "塘边"
    }, {
        "UID_V": "V421",
        "Name": "Xilin",
        "Name_zh": "西林"
    }]
}, {
    "UID_A": "A095",
    "Name": "Zhenqian qijing (Zhenqian sevenfold ritual alliance)",
    "Name_zh": "镇前七境",
    "Num_Villages": 3,
    "Villages": [{
        "UID_V": "V422",
        "Name": "Zhenqian",
        "Name_zh": "镇前"
    }, {
        "UID_V": "V423",
        "Name": "Zhenjiang",
        "Name_zh": "镇江"
    }, {
        "UID_V": "V424",
        "Name": "Xiaohu",
        "Name_zh": "孝户"
    }]
}, {
    "UID_A": "A096",
    "Name": "Nancheng sishê (Nancheng four shê ritual alliance)",
    "Name_zh": "南埕四社",
    "Num_Villages": 1,
    "Villages": [{
        "UID_V": "V425",
        "Name": "Nancheng",
        "Name_zh": "南埕"
    }]
}, {
    "UID_A": "A097",
    "Name": "Sihua sanshê (Sihua three shê ritual alliance)",
    "Name_zh": "泗华三社",
    "Num_Villages": 3,
    "Villages": [{
        "UID_V": "V426",
        "Name": "Dingcuo",
        "Name_zh": "顶厝"
    }, {
        "UID_V": "V427",
        "Name": "Xiazheng",
        "Name_zh": "下郑"
    }, {
        "UID_V": "V428",
        "Name": "Kongli",
        "Name_zh": "孔里"
    }]
}, {
    "UID_A": "A098",
    "Name": "Yangxi sijia (Yangxi four jia ritual alliance)",
    "Name_zh": "洋西四甲",
    "Num_Villages": 2,
    "Villages": [{
        "UID_V": "V429",
        "Name": "Yangxi",
        "Name_zh": "洋西"
    }, {
        "UID_V": "V430",
        "Name": "Shandou",
        "Name_zh": "山兜"
    }]
}, {
    "UID_A": "A099",
    "Name": "Houzhou qijing (Houzhou sevenfold ritual alliance)",
    "Name_zh": "后卓七境",
    "Num_Villages": 5,
    "Villages": [{
        "UID_V": "V431",
        "Name": "Houdun",
        "Name_zh": "后墩"
    }, {
        "UID_V": "V432",
        "Name": "Xiating",
        "Name_zh": "下亭"
    }, {
        "UID_V": "V433",
        "Name": "Qiandun",
        "Name_zh": "前墩"
    }, {
        "UID_V": "V434",
        "Name": "Shangguo",
        "Name_zh": "上郭"
    }, {
        "UID_V": "V435",
        "Name": "Taofeng",
        "Name_zh": "桃峰"
    }]
}, {
    "UID_A": "A100",
    "Name": "Xibai shishê (Xibai ten shê ritual alliance)",
    "Name_zh": "溪白十社",
    "Num_Villages": 10,
    "Villages": [{
        "UID_V": "V436",
        "Name": "Baidu",
        "Name_zh": "白杜"
    }, {
        "UID_V": "V437",
        "Name": "Tangbian",
        "Name_zh": "塘边"
    }, {
        "UID_V": "V438",
        "Name": "Gelong",
        "Name_zh": "隔垄"
    }, {
        "UID_V": "V439",
        "Name": "Luding",
        "Name_zh": "路顶"
    }, {
        "UID_V": "V440",
        "Name": "Xiaxi",
        "Name_zh": "下溪"
    }, {
        "UID_V": "V441",
        "Name": "Xiatou",
        "Name_zh": "下头"
    }, {
        "UID_V": "V442",
        "Name": "Qixi",
        "Name_zh": "企溪"
    }, {
        "UID_V": "V443",
        "Name": "Hantou",
        "Name_zh": "汉头"
    }, {
        "UID_V": "V444",
        "Name": "Gushan",
        "Name_zh": "古山"
    }, {
        "UID_V": "V445",
        "Name": "Dongban",
        "Name_zh": "东坂"
    }]
}, {
    "UID_A": "A101",
    "Name": "Donghu sanshê (Dongdu three shê ritual alliance)",
    "Name_zh": "洞湖三社",
    "Num_Villages": 3,
    "Villages": [{
        "UID_V": "V446",
        "Name": "Donghu",
        "Name_zh": "洞湖"
    }, {
        "UID_V": "V447",
        "Name": "Xiguo",
        "Name_zh": "西锅"
    }, {
        "UID_V": "V448",
        "Name": "Duxi",
        "Name_zh": "度西"
    }]
}, {
    "UID_A": "A102",
    "Name": "Fenglin qijing (Fenglin sevenfold ritual alliance)",
    "Name_zh": "枫林七境",
    "Num_Villages": 9,
    "Villages": [{
        "UID_V": "V449",
        "Name": "Houpu",
        "Name_zh": "后埔"
    }, {
        "UID_V": "V450",
        "Name": "Shanghuang",
        "Name_zh": "上黄"
    }, {
        "UID_V": "V451",
        "Name": "Linfeng",
        "Name_zh": "林峰"
    }, {
        "UID_V": "V452",
        "Name": "Kengbian",
        "Name_zh": "坑边"
    }, {
        "UID_V": "V453",
        "Name": "Kengtou",
        "Name_zh": "坑头"
    }, {
        "UID_V": "V454",
        "Name": "Chenglin",
        "Name_zh": "澄林"
    }, {
        "UID_V": "V455",
        "Name": "Xiayu",
        "Name_zh": "下宇"
    }, {
        "UID_V": "V456",
        "Name": "Guantang",
        "Name_zh": "官塘"
    }, {
        "UID_V": "V457",
        "Name": "Xitianwei",
        "Name_zh": "西天尾"
    }]
}, {
    "UID_A": "A103",
    "Name": "Chengzhu liushê (Chengzhu six shê ritual alliance)",
    "Name_zh": "澄渚六社",
    "Num_Villages": 6,
    "Villages": [{
        "UID_V": "V458",
        "Name": "Miaoqian",
        "Name_zh": "庙前"
    }, {
        "UID_V": "V459",
        "Name": "Yuli",
        "Name_zh": "俞里"
    }, {
        "UID_V": "V460",
        "Name": "Xiazheng",
        "Name_zh": "霞郑"
    }, {
        "UID_V": "V461",
        "Name": "Shuiliuli",
        "Name_zh": "水流利"
    }, {
        "UID_V": "V462",
        "Name": "Banludian",
        "Name_zh": "半路店"
    }, {
        "UID_V": "V463",
        "Name": "Donghuang",
        "Name_zh": "东黄"
    }]
}, {
    "UID_A": "A104",
    "Name": "Longshan qijing (Longshan sevenfold ritual alliance)",
    "Name_zh": "龙山七境",
    "Num_Villages": 8,
    "Villages": [{
        "UID_V": "V464",
        "Name": "Xi’an",
        "Name_zh": "溪安"
    }, {
        "UID_V": "V465",
        "Name": "Daqiaotou",
        "Name_zh": "大桥头"
    }, {
        "UID_V": "V466",
        "Name": "Houting",
        "Name_zh": "后亭"
    }, {
        "UID_V": "V467",
        "Name": "Xishan",
        "Name_zh": "西山"
    }, {
        "UID_V": "V468",
        "Name": "Wushi",
        "Name_zh": "乌石"
    }, {
        "UID_V": "V469",
        "Name": "Beishan",
        "Name_zh": "北山"
    }, {
        "UID_V": "V470",
        "Name": "新村",
        "Name_zh": "Xincun"
    }, {
        "UID_V": "V471",
        "Name": "Zhenxia",
        "Name_zh": "圳下"
    }]
}, {
    "UID_A": "A105",
    "Name": "Beida qijing (Beida sevenfold ritual alliance)",
    "Name_zh": "北大七境",
    "Num_Villages": 6,
    "Villages": [{
        "UID_V": "V472",
        "Name": "Chendun",
        "Name_zh": "陈墩"
    }, {
        "UID_V": "V473",
        "Name": "Houlu",
        "Name_zh": "后炉"
    }, {
        "UID_V": "V474",
        "Name": "Beijiao",
        "Name_zh": "北郊"
    }, {
        "UID_V": "V475",
        "Name": "Jiaoxia",
        "Name_zh": "郊下"
    }, {
        "UID_V": "V476",
        "Name": "Dagou",
        "Name_zh": "大沟"
    }, {
        "UID_V": "V477",
        "Name": "Xizheng",
        "Name_zh": "西郑"
    }]
}, {
    "UID_A": "A106",
    "Name": "Shanghuang ershê (Shanghuang two shê ritual alliance)",
    "Name_zh": "上黄二社",
    "Num_Villages": 1,
    "Villages": [{
        "UID_V": "V478",
        "Name": "Shanghuang",
        "Name_zh": "上黄"
    }]
}, {
    "UID_A": "A107",
    "Name": "Qibu qijing (Qibu sevenfold ritual alliance)",
    "Name_zh": "七步七境",
    "Num_Villages": 7,
    "Villages": [{
        "UID_V": "V479",
        "Name": "Zhuxiang",
        "Name_zh": "朱衖"
    }, {
        "UID_V": "V480",
        "Name": "Zhengdun",
        "Name_zh": "郑墩"
    }, {
        "UID_V": "V481",
        "Name": "Chaiqiaotou",
        "Name_zh": "柴桥头"
    }, {
        "UID_V": "V482",
        "Name": "Shanglindun",
        "Name_zh": "上林墩"
    }, {
        "UID_V": "V483",
        "Name": "Jiaodong",
        "Name_zh": "郊东"
    }, {
        "UID_V": "V484",
        "Name": "Jiaoxi",
        "Name_zh": "郊西"
    }, {
        "UID_V": "V485",
        "Name": "Paohudun",
        "Name_zh": "袍笏墩"
    }]
}, {
    "UID_A": "A108",
    "Name": "Wujiang sishê (Wujiang four shê alliance)",
    "Name_zh": "吴江四社",
    "Num_Villages": 1,
    "Villages": [{
        "UID_V": "V486",
        "Name": "Wujiang",
        "Name_zh": "吴江"
    }]
}, {
    "UID_A": "A109",
    "Name": "Daili qijing (Daili sevenfold ritual alliance)",
    "Name_zh": "埭里七境",
    "Num_Villages": 9,
    "Villages": [{
        "UID_V": "V487",
        "Name": "Shanglin",
        "Name_zh": "上林"
    }, {
        "UID_V": "V488",
        "Name": "Xiadun",
        "Name_zh": "下墩"
    }, {
        "UID_V": "V489",
        "Name": "Xikou",
        "Name_zh": "溪口"
    }, {
        "UID_V": "V490",
        "Name": "Youqiaotou",
        "Name_zh": "游桥头"
    }, {
        "UID_V": "V491",
        "Name": "Caidai",
        "Name_zh": "dongzhi"
    }, {
        "UID_V": "V492",
        "Name": "Caidai",
        "Name_zh": "xizhi"
    }, {
        "UID_V": "V493",
        "Name": "Qianhuang",
        "Name_zh": "前黄"
    }, {
        "UID_V": "V494",
        "Name": "Xiacheng",
        "Name_zh": "下澄"
    }, {
        "UID_V": "V495",
        "Name": "Xiagao",
        "Name_zh": "下高"
    }]
}, {
    "UID_A": "A110",
    "Name": "sancun (Shuangfu three village ritual alliance)",
    "Name_zh": "双福三村",
    "Num_Villages": 3,
    "Villages": [{
        "UID_V": "V496",
        "Name": "Shangguo",
        "Name_zh": "上郭"
    }, {
        "UID_V": "V497",
        "Name": "Qianting",
        "Name_zh": "前亭"
    }, {
        "UID_V": "V498",
        "Name": "Ketang",
        "Name_zh": "柯塘"
    }]
}, {
    "UID_A": "A111",
    "Name": "Xianying shijing (Xianying ten territory ritual alliance)",
    "Name_zh": "显应十境",
    "Num_Villages": 10,
    "Villages": [{
        "UID_V": "V499",
        "Name": "Weitang",
        "Name_zh": "魏塘"
    }, {
        "UID_V": "V500",
        "Name": "Guozhuang",
        "Name_zh": "郭庄"
    }, {
        "UID_V": "V501",
        "Name": "Dongdun",
        "Name_zh": "东墩"
    }, {
        "UID_V": "V502",
        "Name": "Puqian",
        "Name_zh": "铺前"
    }, {
        "UID_V": "V503",
        "Name": "Xigang",
        "Name_zh": "西港"
    }, {
        "UID_V": "V504",
        "Name": "Zhuangcuo",
        "Name_zh": "庄厝"
    }, {
        "UID_V": "V505",
        "Name": "Yangchi",
        "Name_zh": "洋池"
    }, {
        "UID_V": "V506",
        "Name": "Xiayang",
        "Name_zh": "下洋"
    }, {
        "UID_V": "V507",
        "Name": "Houting",
        "Name_zh": "后亭"
    }, {
        "UID_V": "V508",
        "Name": "Xiayu",
        "Name_zh": "下宇"
    }]
}, {
    "UID_A": "A112",
    "Name": "Anren qijing (Anren sevenfold ritual alliance)",
    "Name_zh": "安仁七境",
    "Num_Villages": 6,
    "Villages": [{
        "UID_V": "V509",
        "Name": "Beigang",
        "Name_zh": "北港"
    }, {
        "UID_V": "V510",
        "Name": "Zhoudun",
        "Name_zh": "周墩"
    }, {
        "UID_V": "V511",
        "Name": "Xiajiang",
        "Name_zh": "下江"
    }, {
        "UID_V": "V512",
        "Name": "Xiafang",
        "Name_zh": "下枋"
    }, {
        "UID_V": "V513",
        "Name": "Jiakou",
        "Name_zh": "加口"
    }, {
        "UID_V": "V514",
        "Name": "Tiancen",
        "Name_zh": "田岑"
    }]
}, {
    "UID_A": "A113",
    "Name": "Changfu qijing (Changfu sevenfold ritual alliance)",
    "Name_zh": "长福七境",
    "Num_Villages": 7,
    "Villages": [{
        "UID_V": "V515",
        "Name": "Lidun",
        "Name_zh": "利墩"
    }, {
        "UID_V": "V516",
        "Name": "Houzheng",
        "Name_zh": "后郑"
    }, {
        "UID_V": "V517",
        "Name": "Xingang",
        "Name_zh": "新港"
    }, {
        "UID_V": "V518",
        "Name": "Daduxia",
        "Name_zh": "大度下"
    }, {
        "UID_V": "V519",
        "Name": "Shangzheng",
        "Name_zh": "上郑"
    }, {
        "UID_V": "V520",
        "Name": "Jiangwei",
        "Name_zh": "江尾"
    }, {
        "UID_V": "V521",
        "Name": "Jiangbian",
        "Name_zh": "江边"
    }]
}, {
    "UID_A": "A114",
    "Name": "Chongsheng sanshê (Chongsheng three shê ritual alliance)",
    "Name_zh": "崇圣三社",
    "Num_Villages": 5,
    "Villages": [{
        "UID_V": "V522",
        "Name": "Meilou",
        "Name_zh": "美楼"
    }, {
        "UID_V": "V523",
        "Name": "Chongshê",
        "Name_zh": "崇社"
    }, {
        "UID_V": "V524",
        "Name": "Waiduxia",
        "Name_zh": "外度下"
    }, {
        "UID_V": "V525",
        "Name": "Songbaige",
        "Name_zh": "松柏戈"
    }, {
        "UID_V": "V526",
        "Name": "Gangyuan",
        "Name_zh": "柑园"
    }]
}, {
    "UID_A": "A115",
    "Name": "Lingci qijing (Linci sevenfold ritual alliance)",
    "Name_zh": "灵慈七境",
    "Num_Villages": 9,
    "Villages": [{
        "UID_V": "V527",
        "Name": "Nanshan",
        "Name_zh": "南山"
    }, {
        "UID_V": "V528",
        "Name": "Hongdu",
        "Name_zh": "洪度"
    }, {
        "UID_V": "V529",
        "Name": "Jiuqiu",
        "Name_zh": "九坵"
    }, {
        "UID_V": "V530",
        "Name": "Xiacuo",
        "Name_zh": "下厝"
    }, {
        "UID_V": "V531",
        "Name": "Guocuo",
        "Name_zh": "郭厝"
    }, {
        "UID_V": "V532",
        "Name": "Shanghouting",
        "Name_zh": "上后亭"
    }, {
        "UID_V": "V533",
        "Name": "Beicheng",
        "Name_zh": "北埕"
    }, {
        "UID_V": "V534",
        "Name": "Dongzhang",
        "Name_zh": "东张"
    }, {
        "UID_V": "V535",
        "Name": "Tiancuo",
        "Name_zh": "田厝"
    }]
}, {
    "UID_A": "A116",
    "Name": "Qinhou wujia (Qinhou five jia ritual alliance)",
    "Name_zh": "沁后五甲",
    "Num_Villages": 4,
    "Villages": [{
        "UID_V": "V536",
        "Name": "Dengcuo",
        "Name_zh": "邓厝"
    }, {
        "UID_V": "V537",
        "Name": "Niushan",
        "Name_zh": "牛山"
    }, {
        "UID_V": "V538",
        "Name": "Qinwei",
        "Name_zh": "沁尾"
    }, {
        "UID_V": "V539",
        "Name": "Xiatiancuo",
        "Name_zh": "下田厝"
    }]
}, {
    "UID_A": "A117",
    "Name": "Weiyang sanjia (Weiyang three jia ritual alliance)",
    "Name_zh": "渭阳三甲",
    "Num_Villages": 1,
    "Villages": [{
        "UID_V": "V540",
        "Name": "Weiyang",
        "Name_zh": "渭阳"
    }]
}, {
    "UID_A": "A118",
    "Name": "Sanshan sanshê (Sanshan three shê ritual alliance)",
    "Name_zh": "三山三社",
    "Num_Villages": 3,
    "Villages": [{
        "UID_V": "V541",
        "Name": "Jingtou",
        "Name_zh": "井头"
    }, {
        "UID_V": "V542",
        "Name": "Xiake",
        "Name_zh": "下柯"
    }, {
        "UID_V": "V543",
        "Name": "Shanhou",
        "Name_zh": "山后"
    }]
}, {
    "UID_A": "A119",
    "Name": "Wangyang sishê (Wangyang four shê ritual alliance)",
    "Name_zh": "碗洋四社",
    "Num_Villages": 4,
    "Villages": [{
        "UID_V": "V544",
        "Name": "Xiyang",
        "Name_zh": "西洋"
    }, {
        "UID_V": "V545",
        "Name": "Houyang",
        "Name_zh": "后洋"
    }, {
        "UID_V": "V546",
        "Name": "Gelong",
        "Name_zh": "隔垄"
    }, {
        "UID_V": "V547",
        "Name": "Tiancuo",
        "Name_zh": "田厝"
    }]
}, {
    "UID_A": "A120",
    "Name": "Houhuang ershê (Houhuang two shê ritual alliance)",
    "Name_zh": "后黄二社",
    "Num_Villages": 1,
    "Villages": [{
        "UID_V": "V548",
        "Name": "Houhuang",
        "Name_zh": "后黄"
    }]
}, {
    "UID_A": "A121",
    "Name": "Loutou sishê (Loutou four shê ritual alliance)",
    "Name_zh": "漏头四社",
    "Num_Villages": 2,
    "Villages": [{
        "UID_V": "V549",
        "Name": "Loutou",
        "Name_zh": "漏头"
    }, {
        "UID_V": "V550",
        "Name": "Fangzhuang",
        "Name_zh": "方庄"
    }]
}, {
    "UID_A": "A122",
    "Name": "Wutang qijing (Wutang sevenfold ritual alliance)",
    "Name_zh": "梧塘七境",
    "Num_Villages": 7,
    "Villages": [{
        "UID_V": "V551",
        "Name": "Linwai",
        "Name_zh": "林外"
    }, {
        "UID_V": "V552",
        "Name": "Meiling",
        "Name_zh": "梅岭"
    }, {
        "UID_V": "V553",
        "Name": "Xizhuang",
        "Name_zh": "西庄"
    }, {
        "UID_V": "V554",
        "Name": "Taibaizhuang",
        "Name_zh": "太白庄"
    }, {
        "UID_V": "V555",
        "Name": "Fuxingshê",
        "Name_zh": "福兴社"
    }, {
        "UID_V": "V556",
        "Name": "Dongpai",
        "Name_zh": "东牌"
    }, {
        "UID_V": "V557",
        "Name": "Xialou",
        "Name_zh": "霞楼\n"
    }]
}, {
    "UID_A": "A123",
    "Name": "Wuzi sanshê (Wuxin three shê ritual alliance)",
    "Name_zh": "梧梓三社",
    "Num_Villages": 1,
    "Villages": [{
        "UID_V": "V558",
        "Name": "Wuzi",
        "Name_zh": "梧梓"
    }]
}, {
    "UID_A": "A124",
    "Name": "Songban shisanjia (Songban thirteen jia ritual alliance)",
    "Name_zh": "松阪十三甲",
    "Num_Villages": 12,
    "Villages": [{
        "UID_V": "V559",
        "Name": "Daopu",
        "Name_zh": "道埔"
    }, {
        "UID_V": "V560",
        "Name": "Sizhou",
        "Name_zh": "泗洲"
    }, {
        "UID_V": "V561",
        "Name": "Siying",
        "Name_zh": "泗营"
    }, {
        "UID_V": "V562",
        "Name": "Xiaojia",
        "Name_zh": "肖甲"
    }, {
        "UID_V": "V563",
        "Name": "Zhixiang",
        "Name_zh": "直巷"
    }, {
        "UID_V": "V564",
        "Name": "Baiyuan",
        "Name_zh": "白园"
    }, {
        "UID_V": "V565",
        "Name": "Xiangtou",
        "Name_zh": "巷头"
    }, {
        "UID_V": "V566",
        "Name": "Lingqian",
        "Name_zh": "岭前"
    }, {
        "UID_V": "V567",
        "Name": "Pudun",
        "Name_zh": "埔墩"
    }, {
        "UID_V": "V568",
        "Name": "Dingcuowei",
        "Name_zh": "顶厝尾"
    }, {
        "UID_V": "V569",
        "Name": "Putou",
        "Name_zh": "埔头"
    }, {
        "UID_V": "V570",
        "Name": "Xizheng",
        "Name_zh": "西郑"
    }]
}, {
    "UID_A": "A125",
    "Name": "Jiufeng qijia (Jiufeng seven jia ritual alliance)",
    "Name_zh": "九峰七甲",
    "Num_Villages": 4,
    "Villages": [{
        "UID_V": "V571",
        "Name": "Lianhecun",
        "Name_zh": "联合村"
    }, {
        "UID_V": "V572",
        "Name": "Dinggou",
        "Name_zh": "顶沟"
    }, {
        "UID_V": "V573",
        "Name": "Shipaidou",
        "Name_zh": "石牌兜"
    }, {
        "UID_V": "V574",
        "Name": "Tianzhongyang",
        "Name_zh": "田中央"
    }]
}, {
    "UID_A": "A126",
    "Name": "Lipu qijing (Lipu sevenfold ritual alliance)",
    "Name_zh": "励浦七境",
    "Num_Villages": 6,
    "Villages": [{
        "UID_V": "V575",
        "Name": "Matou",
        "Name_zh": "码头"
    }, {
        "UID_V": "V576",
        "Name": "Dubin",
        "Name_zh": "都邠"
    }, {
        "UID_V": "V577",
        "Name": "Xiujiao",
        "Name_zh": "秀郊"
    }, {
        "UID_V": "V578",
        "Name": "Chengfeng",
        "Name_zh": "澄峰"
    }, {
        "UID_V": "V579",
        "Name": "Dongpo",
        "Name_zh": "东坡"
    }, {
        "UID_V": "V580",
        "Name": "Nankeng",
        "Name_zh": "南坑"
    }]
}, {
    "UID_A": "A127",
    "Name": "Huangan qijing (Huangan sevenfold ritual alliance)",
    "Name_zh": "黄安七境",
    "Num_Villages": 6,
    "Villages": [{
        "UID_V": "V581",
        "Name": "Xiaxiao",
        "Name_zh": "霞肖"
    }, {
        "UID_V": "V582",
        "Name": "Huangxiang",
        "Name_zh": "黄巷"
    }, {
        "UID_V": "V583",
        "Name": "Xialin",
        "Name_zh": "下林"
    }, {
        "UID_V": "V584",
        "Name": "Cangkou",
        "Name_zh": "苍口"
    }, {
        "UID_V": "V585",
        "Name": "Xilin",
        "Name_zh": "西林"
    }, {
        "UID_V": "V586",
        "Name": "Xipo",
        "Name_zh": "西坡"
    }]
}, {
    "UID_A": "A128",
    "Name": "Anminqijing (Anmin sevenfold ritual alliance)",
    "Name_zh": "安民七境",
    "Num_Villages": 10,
    "Villages": [{
        "UID_V": "V587",
        "Name": "Qindong",
        "Name_zh": "沁东"
    }, {
        "UID_V": "V588",
        "Name": "Qinxi",
        "Name_zh": "沁西"
    }, {
        "UID_V": "V589",
        "Name": "Dongxu",
        "Name_zh": "东徐"
    }, {
        "UID_V": "V590",
        "Name": "Nanpu",
        "Name_zh": "南埔"
    }, {
        "UID_V": "V591",
        "Name": "Dongzhu",
        "Name_zh": "东洙"
    }, {
        "UID_V": "V592",
        "Name": "Houlin",
        "Name_zh": "后林"
    }, {
        "UID_V": "V593",
        "Name": "Xizhai",
        "Name_zh": "西宅"
    }, {
        "UID_V": "V594",
        "Name": "Xiashanglin",
        "Name_zh": "下上林"
    }, {
        "UID_V": "V595",
        "Name": "Dingshanglin",
        "Name_zh": "顶上林"
    }, {
        "UID_V": "V596",
        "Name": "Donglin",
        "Name_zh": "东林"
    }]
}, {
    "UID_A": "A129",
    "Name": "Yupo ershê (Yupo two shê ritual alliance)",
    "Name_zh": "喻坡二社",
    "Num_Villages": 1,
    "Villages": [{
        "UID_V": "V597",
        "Name": "Yupo",
        "Name_zh": "喻坡"
    }]
}, {
    "UID_A": "A130",
    "Name": "Tangxi sanjia (Tangxi three jia ritual alliance)",
    "Name_zh": "塘西三甲",
    "Num_Villages": 1,
    "Villages": [{
        "UID_V": "V598",
        "Name": "塘西",
        "Name_zh": "\n"
    }]
}, {
    "UID_A": "A131",
    "Name": "Zhuopo sanjia (Zhuopo three jia ritual alliance)",
    "Name_zh": "卓坡三甲",
    "Num_Villages": 1,
    "Villages": [{
        "UID_V": "V599",
        "Name": "Zhuopo",
        "Name_zh": "卓坡"
    }]
}, {
    "UID_A": "A132",
    "Name": "Hanjiang ershisi pu (Hanjiang twenty-four wards ritual alliance)",
    "Name_zh": "涵江二十四铺",
    "Num_Villages": 8,
    "Villages": [{
        "UID_V": "V600",
        "Name": "Louxia",
        "Name_zh": "楼下"
    }, {
        "UID_V": "V601",
        "Name": "Baowei",
        "Name_zh": "保尾"
    }, {
        "UID_V": "V602",
        "Name": "Tangbei",
        "Name_zh": "塘北"
    }, {
        "UID_V": "V603",
        "Name": "Puwei",
        "Name_zh": "铺尾"
    }, {
        "UID_V": "V604",
        "Name": "Cangran",
        "Name_zh": "苍然"
    }, {
        "UID_V": "V605",
        "Name": "Yanning",
        "Name_zh": "延宁"
    }, {
        "UID_V": "V606",
        "Name": "Xiaxu",
        "Name_zh": "霞徐"
    }, {
        "UID_V": "V607",
        "Name": "Lindun",
        "Name_zh": "林墩"
    }]
}, {
    "UID_A": "A133",
    "Name": "Gangtou sancun (Gangtou three village ritual alliance)",
    "Name_zh": "港头三村",
    "Num_Villages": 3,
    "Villages": [{
        "UID_V": "V608",
        "Name": "Gangtou",
        "Name_zh": "港头"
    }, {
        "UID_V": "V609",
        "Name": "Tianwei",
        "Name_zh": "田尾"
    }, {
        "UID_V": "V610",
        "Name": "Qianlin",
        "Name_zh": "前林"
    }]
}, {
    "UID_A": "A134",
    "Name": "Tiancuo wucun (Tangcuo five village ritual alliance)",
    "Name_zh": "田厝五村",
    "Num_Villages": 5,
    "Villages": [{
        "UID_V": "V611",
        "Name": "Zhanggongdun",
        "Name_zh": "张公墩"
    }, {
        "UID_V": "V612",
        "Name": "Sudun",
        "Name_zh": "苏墩"
    }, {
        "UID_V": "V613",
        "Name": "Weicuo",
        "Name_zh": "尾厝"
    }, {
        "UID_V": "V614",
        "Name": "Ludun",
        "Name_zh": "卢墩"
    }, {
        "UID_V": "V615",
        "Name": "Tianzhongyang",
        "Name_zh": "田中央"
    }]
}, {
    "UID_A": "A135",
    "Name": "Tangtou qijing (Tangtou sevenfold ritual alliance)",
    "Name_zh": "塘头七境",
    "Num_Villages": 6,
    "Villages": [{
        "UID_V": "V616",
        "Name": "Sangu",
        "Name_zh": "三股"
    }, {
        "UID_V": "V617",
        "Name": "Xinpo",
        "Name_zh": "新坡"
    }, {
        "UID_V": "V618",
        "Name": "Xiangli",
        "Name_zh": "巷利"
    }, {
        "UID_V": "V619",
        "Name": "Tanwei",
        "Name_zh": "潭尾"
    }, {
        "UID_V": "V620",
        "Name": "Huangcuo",
        "Name_zh": "黄厝"
    }, {
        "UID_V": "V621",
        "Name": "Houyang",
        "Name_zh": "后洋"
    }]
}, {
    "UID_A": "A136",
    "Name": "Tangdong Sancun (Tangdong three village ritual alliance)",
    "Name_zh": "塘东三村",
    "Num_Villages": 3,
    "Villages": [{
        "UID_V": "V622",
        "Name": "Dongting",
        "Name_zh": "洞庭"
    }, {
        "UID_V": "V623",
        "Name": "Linbing",
        "Name_zh": "林柄"
    }, {
        "UID_V": "V624",
        "Name": "Puwei",
        "Name_zh": "埔尾"
    }]
}, {
    "UID_A": "A137",
    "Name": "Jindun sicun (Jindun four village ritual alliance)",
    "Name_zh": "金墩四村",
    "Num_Villages": 4,
    "Villages": [{
        "UID_V": "V625",
        "Name": "Sucuo",
        "Name_zh": "苏厝"
    }, {
        "UID_V": "V626",
        "Name": "Zhongdun",
        "Name_zh": "中墩"
    }, {
        "UID_V": "V627",
        "Name": "Jindun",
        "Name_zh": "金墩"
    }, {
        "UID_V": "V628",
        "Name": "Yangzhong",
        "Name_zh": "洋中"
    }]
}, {
    "UID_A": "A138",
    "Name": "Tiezao liujia (Tiezao six jia ritual alliance)",
    "Name_zh": "铁灶六甲",
    "Num_Villages": 1,
    "Villages": [{
        "UID_V": "V629",
        "Name": "Tiezao",
        "Name_zh": "铁灶"
    }]
}, {
    "UID_A": "A139",
    "Name": "Wencuo sanshê (Wencuo three shê ritual alliance)",
    "Name_zh": "温厝三社",
    "Num_Villages": 3,
    "Villages": [{
        "UID_V": "V630",
        "Name": "Wencuo",
        "Name_zh": "温厝"
    }, {
        "UID_V": "V631",
        "Name": "Huangdating",
        "Name_zh": "黄大庭"
    }, {
        "UID_V": "V632",
        "Name": "Liuan",
        "Name_zh": "刘安"
    }]
}, {
    "UID_A": "A140",
    "Name": "Houguo sishê (Houguo four shê ritual alliance)",
    "Name_zh": "后郭四社",
    "Num_Villages": 3,
    "Villages": [{
        "UID_V": "V633",
        "Name": "Houguo",
        "Name_zh": "后郭"
    }, {
        "UID_V": "V634",
        "Name": "Tiantou",
        "Name_zh": "田头"
    }, {
        "UID_V": "V635",
        "Name": "Houdong",
        "Name_zh": "后董"
    }]
}, {
    "UID_A": "A141",
    "Name": "Aoshan qijing (Aoshan sevenfold ritual alliance)",
    "Name_zh": "鳌山七境",
    "Num_Villages": 6,
    "Villages": [{
        "UID_V": "V636",
        "Name": "Houhuang",
        "Name_zh": "后黄"
    }, {
        "UID_V": "V637",
        "Name": "Aoli",
        "Name_zh": "澳里"
    }, {
        "UID_V": "V638",
        "Name": "Xiashê",
        "Name_zh": "下社"
    }, {
        "UID_V": "V639",
        "Name": "Xiake",
        "Name_zh": "下柯"
    }, {
        "UID_V": "V640",
        "Name": "Dingke",
        "Name_zh": "顶柯"
    }, {
        "UID_V": "V641",
        "Name": "Qitou",
        "Name_zh": "歧头"
    }]
}, {
    "UID_A": "A142",
    "Name": "Jingshan sancun (Jingshan three village ritual alliance)",
    "Name_zh": "鲸山三村",
    "Num_Villages": 3,
    "Villages": [{
        "UID_V": "V642",
        "Name": "Dongcheng",
        "Name_zh": "东埕"
    }, {
        "UID_V": "V643",
        "Name": "Shishan",
        "Name_zh": "石山"
    }, {
        "UID_V": "V644",
        "Name": "Xinpotou",
        "Name_zh": "新坡头"
    }]
}, {
    "UID_A": "A143",
    "Name": "liushê (Yangfang six shê ritual alliance)",
    "Name_zh": "杨芳六社",
    "Num_Villages": 6,
    "Villages": [{
        "UID_V": "V645",
        "Name": "Shangmei",
        "Name_zh": "上梅"
    }, {
        "UID_V": "V646",
        "Name": "Houzeng",
        "Name_zh": "后曾"
    }, {
        "UID_V": "V647",
        "Name": "Dongzeng",
        "Name_zh": "东曾"
    }, {
        "UID_V": "V648",
        "Name": "Xilin",
        "Name_zh": "西林"
    }, {
        "UID_V": "V649",
        "Name": "Dongfang",
        "Name_zh": "东坊"
    }, {
        "UID_V": "V650",
        "Name": "Lingdou",
        "Name_zh": "岭兜"
    }]
}, {
    "UID_A": "A144",
    "Name": "Duotou shiwu shê (Duotou fifteen shê ritual alliance)",
    "Name_zh": "哆头十五社",
    "Num_Villages": 3,
    "Villages": [{
        "UID_V": "V651",
        "Name": "Duoqian",
        "Name_zh": "哆前"
    }, {
        "UID_V": "V652",
        "Name": "Duozhong",
        "Name_zh": "哆中"
    }, {
        "UID_V": "V653",
        "Name": "Duohou",
        "Name_zh": "哆后"
    }]
}, {
    "UID_A": "A145",
    "Name": "Gaomei wucun (Gaomei five village ritual alliance)",
    "Name_zh": "高美五村",
    "Num_Villages": 5,
    "Villages": [{
        "UID_V": "V654",
        "Name": "Fengxiu",
        "Name_zh": "凤秀"
    }, {
        "UID_V": "V655",
        "Name": "Bancheng",
        "Name_zh": "半埕"
    }, {
        "UID_V": "V656",
        "Name": "Shangfang",
        "Name_zh": "上方"
    }, {
        "UID_V": "V657",
        "Name": "Shanggang",
        "Name_zh": "上港"
    }, {
        "UID_V": "V658",
        "Name": "Meiwei",
        "Name_zh": "美尾"
    }]
}, {
    "UID_A": "A146",
    "Name": "Xinpu sishê (Xinpu four shê ritual alliance)",
    "Name_zh": "新埔四社",
    "Num_Villages": 1,
    "Villages": [{
        "UID_V": "V659",
        "Name": "Xinpu",
        "Name_zh": "新埔"
    }]
}, {
    "UID_A": "A147",
    "Name": "Jiangkou qijing (Jiangkou sevenfold ritual",
    "Name_zh": "alliance)",
    "Num_Villages": 8,
    "Villages": [{
        "UID_V": "V660",
        "Name": "Xiaoyi",
        "Name_zh": "孝义"
    }, {
        "UID_V": "V661",
        "Name": "Xiahoudu",
        "Name_zh": "下后度"
    }, {
        "UID_V": "V662",
        "Name": "Liujing",
        "Name_zh": "劉井"
    }, {
        "UID_V": "V663",
        "Name": "Qianhui",
        "Name_zh": "前會"
    }, {
        "UID_V": "V664",
        "Name": "Duweitou",
        "Name_zh": "度围头"
    }, {
        "UID_V": "V665",
        "Name": "Gangxia",
        "Name_zh": "港下"
    }, {
        "UID_V": "V666",
        "Name": "Houdun",
        "Name_zh": "后墩"
    }, {
        "UID_V": "V667",
        "Name": "Xinjing",
        "Name_zh": "新井\n"
    }]
}, {
    "UID_A": "A148",
    "Name": "Fushan qijing (Fushan sevenfold ritual alliance)",
    "Name_zh": "凫山七境",
    "Num_Villages": 5,
    "Villages": [{
        "UID_V": "V668",
        "Name": "Qianwang",
        "Name_zh": "前王"
    }, {
        "UID_V": "V669",
        "Name": "Shihui",
        "Name_zh": "石灰"
    }, {
        "UID_V": "V670",
        "Name": "Shantou",
        "Name_zh": "山头"
    }, {
        "UID_V": "V671",
        "Name": "Youlan",
        "Name_zh": "油岚"
    }, {
        "UID_V": "V672",
        "Name": "Shishi",
        "Name_zh": "石狮"
    }]
}, {
    "UID_A": "A149",
    "Name": "Goushang qijing (Goushang sevenfold ritual alliance)",
    "Name_zh": "沟上七境",
    "Num_Villages": 11,
    "Villages": [{
        "UID_V": "V673",
        "Name": "Goushang",
        "Name_zh": "沟上"
    }, {
        "UID_V": "V674",
        "Name": "Zheche",
        "Name_zh": "蔗车"
    }, {
        "UID_V": "V675",
        "Name": "Licuo",
        "Name_zh": "李厝"
    }, {
        "UID_V": "V676",
        "Name": "Xindian",
        "Name_zh": "新店"
    }, {
        "UID_V": "V677",
        "Name": "Xindun",
        "Name_zh": "新墩"
    }, {
        "UID_V": "V678",
        "Name": "Houchengpu",
        "Name_zh": "后埕埔"
    }, {
        "UID_V": "V679",
        "Name": "Qianmian",
        "Name_zh": "前面"
    }, {
        "UID_V": "V680",
        "Name": "Dingdun",
        "Name_zh": "顶墩"
    }, {
        "UID_V": "V681",
        "Name": "Xiadun",
        "Name_zh": "下墩"
    }, {
        "UID_V": "V682",
        "Name": "Wudun",
        "Name_zh": "吴墩"
    }, {
        "UID_V": "V683",
        "Name": "Youdun",
        "Name_zh": "游墩"
    }]
}, {
    "UID_A": "A150",
    "Name": "Shangfang qijing (Shangfang sevenfold ritual alliance)",
    "Name_zh": "上方七境",
    "Num_Villages": 6,
    "Villages": [{
        "UID_V": "V684",
        "Name": "Shanglin",
        "Name_zh": "上林"
    }, {
        "UID_V": "V685",
        "Name": "Dongshi",
        "Name_zh": "东施"
    }, {
        "UID_V": "V686",
        "Name": "Pucheng",
        "Name_zh": "埔埕"
    }, {
        "UID_V": "V687",
        "Name": "Xiliu",
        "Name_zh": "西刘"
    }, {
        "UID_V": "V688",
        "Name": "Dongcai",
        "Name_zh": "东蔡"
    }, {
        "UID_V": "V689",
        "Name": "Jiexia",
        "Name_zh": "界下"
    }]
}, {
    "UID_A": "A151",
    "Name": "Shiting sijia (Shiting four jia ritual alliance)",
    "Name_zh": "石庭四甲",
    "Num_Villages": 16,
    "Villages": [{
        "UID_V": "V690",
        "Name": "Houting",
        "Name_zh": "后亭"
    }, {
        "UID_V": "V691",
        "Name": "Wudunyang",
        "Name_zh": "吴墩洋"
    }, {
        "UID_V": "V692",
        "Name": "Dingjiucuo",
        "Name_zh": "顶旧厝"
    }, {
        "UID_V": "V693",
        "Name": "Qigancuo",
        "Name_zh": "旗杆厝"
    }, {
        "UID_V": "V694",
        "Name": "Xiaojiaowei",
        "Name_zh": "小郊尾"
    }, {
        "UID_V": "V695",
        "Name": "Tiezao",
        "Name_zh": "铁灶"
    }, {
        "UID_V": "V696",
        "Name": "Tianzhongyang",
        "Name_zh": "田中央"
    }, {
        "UID_V": "V697",
        "Name": "Sanzhangcuo",
        "Name_zh": "三張厝"
    }, {
        "UID_V": "V698",
        "Name": "Zhaili",
        "Name_zh": "寨里"
    }, {
        "UID_V": "V699",
        "Name": "Zhongyangcuo",
        "Name_zh": "中央厝"
    }, {
        "UID_V": "V700",
        "Name": "Qiaotouwai",
        "Name_zh": "桥头外"
    }, {
        "UID_V": "V701",
        "Name": "Yuanyangcuo",
        "Name_zh": "鸳鸯厝"
    }, {
        "UID_V": "V702",
        "Name": "Dingxipo",
        "Name_zh": "顶西坡"
    }, {
        "UID_V": "V703",
        "Name": "Xiaxipo",
        "Name_zh": "下西坡"
    }, {
        "UID_V": "V704",
        "Name": "Bangui",
        "Name_zh": "半圭"
    }, {
        "UID_V": "V705",
        "Name": "Houcheng",
        "Name_zh": "后埕"
    }]
}, {
    "UID_A": "A152",
    "Name": "Fengmei qijing (Fengmei sevenfold ritual alliance)",
    "Name_zh": "丰美七境",
    "Num_Villages": 6,
    "Villages": [{
        "UID_V": "V706",
        "Name": "Xiaxiao",
        "Name_zh": "下肖"
    }, {
        "UID_V": "V707",
        "Name": "Xiabangwei",
        "Name_zh": "下邦尾"
    }, {
        "UID_V": "V708",
        "Name": "Dingbangwei",
        "Name_zh": "顶邦尾"
    }, {
        "UID_V": "V709",
        "Name": "Jingtou",
        "Name_zh": "井头"
    }, {
        "UID_V": "V710",
        "Name": "Dongtian",
        "Name_zh": "东田"
    }, {
        "UID_V": "V711",
        "Name": "Zhongzhai",
        "Name_zh": "中宅"
    }]
}, {
    "UID_A": "A153",
    "Name": "Banliang shisanxiang (Banliang thirteen village ritual alliance)",
    "Name_zh": "阪梁十三乡",
    "Num_Villages": 13,
    "Villages": [{
        "UID_V": "V712",
        "Name": "Houfang",
        "Name_zh": "后坊"
    }, {
        "UID_V": "V713",
        "Name": "Houdong",
        "Name_zh": "后董"
    }, {
        "UID_V": "V714",
        "Name": "Shangcai",
        "Name_zh": "上蔡"
    }, {
        "UID_V": "V715",
        "Name": "Banxi",
        "Name_zh": "坂溪"
    }, {
        "UID_V": "V716",
        "Name": "Liangcuo",
        "Name_zh": "梁厝"
    }, {
        "UID_V": "V717",
        "Name": "Linban",
        "Name_zh": "林坂"
    }, {
        "UID_V": "V718",
        "Name": "Shandou",
        "Name_zh": "山兜"
    }, {
        "UID_V": "V719",
        "Name": "Ketang",
        "Name_zh": "可塘"
    }, {
        "UID_V": "V720",
        "Name": "Shangliuzhuang",
        "Name_zh": "上刘庄"
    }, {
        "UID_V": "V721",
        "Name": "Xialiuzhuang",
        "Name_zh": "下刘庄"
    }, {
        "UID_V": "V722",
        "Name": "Xihu",
        "Name_zh": "西湖"
    }, {
        "UID_V": "V723",
        "Name": "Qinkeng",
        "Name_zh": "芹坑"
    }, {
        "UID_V": "V724",
        "Name": "Tangbian",
        "Name_zh": "塘边"
    }]
}]
